<?xml version="1.0" encoding="UTF-8"?>
<kml xmlns="http://www.opengis.net/kml/2.2" xmlns:gx="http://www.google.com/kml/ext/2.2" xmlns:kml="http://www.opengis.net/kml/2.2" xmlns:atom="http://www.w3.org/2005/Atom">
<Document>
	<name>Untitled map</name>
	<gx:CascadingStyle kml:id="__managed_style_06F486DC6541A15C7B6B_normal">
		<styleUrl>https://earth.google.com/balloon_components/base/1.1.0.0/card_template.kml#main</styleUrl>
		<Style>
			<IconStyle>
				<Icon>
					<href>https://earth.google.com/earth/document/icon?color=1976d2&amp;id=2000&amp;scale=4</href>
				</Icon>
				<hotSpot x="64" y="128" xunits="pixels" yunits="insetPixels"/>
			</IconStyle>
			<LabelStyle>
			</LabelStyle>
			<LineStyle>
				<color>fff5a542</color>
				<width>3</width>
			</LineStyle>
			<PolyStyle>
				<color>40ffffff</color>
			</PolyStyle>
			<BalloonStyle>
			</BalloonStyle>
		</Style>
	</gx:CascadingStyle>
	<StyleMap id="__managed_style_06F486DC6541A15C7B6B">
		<Pair>
			<key>normal</key>
			<styleUrl>#__managed_style_06F486DC6541A15C7B6B_normal</styleUrl>
		</Pair>
		<Pair>
			<key>highlight</key>
			<styleUrl>#__managed_style_06F486DC6541A15C7B6B_highlight</styleUrl>
		</Pair>
	</StyleMap>
	<gx:CascadingStyle kml:id="__managed_style_09608E49AB41A13CA620_highlight">
		<styleUrl>https://earth.google.com/balloon_components/base/1.1.0.0/card_template.kml#main</styleUrl>
		<Style>
			<IconStyle>
				<scale>1.2</scale>
				<Icon>
					<href>https://earth.google.com/earth/document/icon?color=1976d2&amp;id=2000&amp;scale=4</href>
				</Icon>
				<hotSpot x="64" y="128" xunits="pixels" yunits="insetPixels"/>
			</IconStyle>
			<LabelStyle>
			</LabelStyle>
			<LineStyle>
				<color>ff2dc0fb</color>
				<width>6</width>
			</LineStyle>
			<PolyStyle>
				<color>40ffffff</color>
			</PolyStyle>
			<BalloonStyle>
			</BalloonStyle>
		</Style>
	</gx:CascadingStyle>
	<Style id="icon-1899-0288D1-nodesc-highlight">
		<IconStyle>
			<color>ffd18802</color>
			<Icon>
				<href>https://www.gstatic.com/mapspro/images/stock/503-wht-blank_maps.png</href>
			</Icon>
			<hotSpot x="32" y="64" xunits="pixels" yunits="insetPixels"/>
		</IconStyle>
		<BalloonStyle>
			<text><![CDATA[<h3>$[name]</h3>]]></text>
		</BalloonStyle>
	</Style>
	<StyleMap id="__managed_style_09608E49AB41A13CA620">
		<Pair>
			<key>normal</key>
			<styleUrl>#__managed_style_09608E49AB41A13CA620_normal</styleUrl>
		</Pair>
		<Pair>
			<key>highlight</key>
			<styleUrl>#__managed_style_09608E49AB41A13CA620_highlight</styleUrl>
		</Pair>
	</StyleMap>
	<gx:CascadingStyle kml:id="__managed_style_05E833072141A162F3BE_normal">
		<styleUrl>https://earth.google.com/balloon_components/base/1.1.0.0/card_template.kml#main</styleUrl>
		<Style>
			<IconStyle>
				<Icon>
					<href>https://maps.google.com/mapfiles/kml/pushpin/ylw-pushpin.png</href>
				</Icon>
			</IconStyle>
			<LabelStyle>
			</LabelStyle>
			<LineStyle>
				<color>ff000000</color>
				<width>1.2</width>
			</LineStyle>
			<PolyStyle>
				<color>4d000000</color>
			</PolyStyle>
			<BalloonStyle>
			</BalloonStyle>
		</Style>
	</gx:CascadingStyle>
	<gx:CascadingStyle kml:id="__managed_style_073B58B29341A0E3CE47_highlight">
		<styleUrl>https://earth.google.com/balloon_components/base/1.1.0.0/card_template.kml#main</styleUrl>
		<Style>
			<IconStyle>
				<scale>1.2</scale>
				<Icon>
					<href>https://earth.google.com/earth/document/icon?color=1976d2&amp;id=2000&amp;scale=4</href>
				</Icon>
				<hotSpot x="64" y="128" xunits="pixels" yunits="insetPixels"/>
			</IconStyle>
			<LineStyle>
				<color>ff2dc0fb</color>
				<width>4.5</width>
			</LineStyle>
			<PolyStyle>
				<color>40ffffff</color>
			</PolyStyle>
		</Style>
	</gx:CascadingStyle>
	<gx:CascadingStyle kml:id="__managed_style_073B58B29341A0E3CE47_normal">
		<styleUrl>https://earth.google.com/balloon_components/base/1.1.0.0/card_template.kml#main</styleUrl>
		<Style>
			<IconStyle>
				<Icon>
					<href>https://earth.google.com/earth/document/icon?color=1976d2&amp;id=2000&amp;scale=4</href>
				</Icon>
				<hotSpot x="64" y="128" xunits="pixels" yunits="insetPixels"/>
			</IconStyle>
			<LineStyle>
				<color>ff2dc0fb</color>
				<width>3</width>
			</LineStyle>
			<PolyStyle>
				<color>40ffffff</color>
			</PolyStyle>
		</Style>
	</gx:CascadingStyle>
	<StyleMap id="__managed_style_073B58B29341A0E3CE47">
		<Pair>
			<key>normal</key>
			<styleUrl>#__managed_style_073B58B29341A0E3CE47_normal</styleUrl>
		</Pair>
		<Pair>
			<key>highlight</key>
			<styleUrl>#__managed_style_073B58B29341A0E3CE47_highlight</styleUrl>
		</Pair>
	</StyleMap>
	<gx:CascadingStyle kml:id="__managed_style_09608E49AB41A13CA620_normal">
		<styleUrl>https://earth.google.com/balloon_components/base/1.1.0.0/card_template.kml#main</styleUrl>
		<Style>
			<IconStyle>
				<Icon>
					<href>https://earth.google.com/earth/document/icon?color=1976d2&amp;id=2000&amp;scale=4</href>
				</Icon>
				<hotSpot x="64" y="128" xunits="pixels" yunits="insetPixels"/>
			</IconStyle>
			<LabelStyle>
			</LabelStyle>
			<LineStyle>
				<color>ff2dc0fb</color>
				<width>4</width>
			</LineStyle>
			<PolyStyle>
				<color>40ffffff</color>
			</PolyStyle>
			<BalloonStyle>
			</BalloonStyle>
		</Style>
	</gx:CascadingStyle>
	<gx:CascadingStyle kml:id="__managed_style_06F486DC6541A15C7B6B_highlight">
		<styleUrl>https://earth.google.com/balloon_components/base/1.1.0.0/card_template.kml#main</styleUrl>
		<Style>
			<IconStyle>
				<scale>1.2</scale>
				<Icon>
					<href>https://earth.google.com/earth/document/icon?color=1976d2&amp;id=2000&amp;scale=4</href>
				</Icon>
				<hotSpot x="64" y="128" xunits="pixels" yunits="insetPixels"/>
			</IconStyle>
			<LabelStyle>
			</LabelStyle>
			<LineStyle>
				<color>fff5a542</color>
				<width>4.5</width>
			</LineStyle>
			<PolyStyle>
				<color>40ffffff</color>
			</PolyStyle>
			<BalloonStyle>
			</BalloonStyle>
		</Style>
	</gx:CascadingStyle>
	<gx:CascadingStyle kml:id="__managed_style_05E833072141A162F3BE_highlight">
		<styleUrl>https://earth.google.com/balloon_components/base/1.1.0.0/card_template.kml#main</styleUrl>
		<Style>
			<IconStyle>
				<scale>1.2</scale>
				<Icon>
					<href>https://maps.google.com/mapfiles/kml/pushpin/ylw-pushpin.png</href>
				</Icon>
			</IconStyle>
			<LabelStyle>
			</LabelStyle>
			<LineStyle>
				<color>ff000000</color>
				<width>1.8</width>
			</LineStyle>
			<PolyStyle>
				<color>4d000000</color>
			</PolyStyle>
			<BalloonStyle>
			</BalloonStyle>
		</Style>
	</gx:CascadingStyle>
	<StyleMap id="__managed_style_05E833072141A162F3BE">
		<Pair>
			<key>normal</key>
			<styleUrl>#__managed_style_05E833072141A162F3BE_normal</styleUrl>
		</Pair>
		<Pair>
			<key>highlight</key>
			<styleUrl>#__managed_style_05E833072141A162F3BE_highlight</styleUrl>
		</Pair>
	</StyleMap>
	<Style id="icon-1899-0288D1-nodesc-normal">
		<IconStyle>
			<color>ffd18802</color>
			<Icon>
				<href>https://www.gstatic.com/mapspro/images/stock/503-wht-blank_maps.png</href>
			</Icon>
			<hotSpot x="32" y="64" xunits="pixels" yunits="insetPixels"/>
		</IconStyle>
		<LabelStyle>
			<scale>0</scale>
		</LabelStyle>
		<BalloonStyle>
			<text><![CDATA[<h3>$[name]</h3>]]></text>
		</BalloonStyle>
	</Style>
	<StyleMap id="icon-1899-0288D1-nodesc">
		<Pair>
			<key>normal</key>
			<styleUrl>#icon-1899-0288D1-nodesc-normal</styleUrl>
		</Pair>
		<Pair>
			<key>highlight</key>
			<styleUrl>#icon-1899-0288D1-nodesc-highlight</styleUrl>
		</Pair>
	</StyleMap>
	<Folder id="0E14631AFB41A0BB98F3">
		<name>Untitled layer</name>
		<Placemark id="109ECAB94E41A0BB98F3">
			<name>main temple</name>
			<styleUrl>#icon-1899-0288D1-nodesc</styleUrl>
			<Point>
				<coordinates>77.3107579,12.3064652,0</coordinates>
			</Point>
		</Placemark>
		<Placemark id="2AD112BC2A41A0BB98F3">
			<name>second temple</name>
			<styleUrl>#icon-1899-0288D1-nodesc</styleUrl>
			<Point>
				<coordinates>77.2952167,12.3054154,0</coordinates>
			</Point>
		</Placemark>
		<Placemark id="31B7791A4741A0BB98F3">
			<name>watch tower</name>
			<styleUrl>#icon-1899-0288D1-nodesc</styleUrl>
			<Point>
				<coordinates>77.28542899999999,12.310034,0</coordinates>
			</Point>
		</Placemark>
		<Placemark id="40F1A3F5AA41A0BB98F3">
			<name>education camp</name>
			<styleUrl>#icon-1899-0288D1-nodesc</styleUrl>
			<Point>
				<coordinates>77.27889930000001,12.3107312,0</coordinates>
			</Point>
		</Placemark>
		<Placemark id="5F9577627B41A0BB98F3">
			<name>bheemeshwari adventure camp</name>
			<styleUrl>#icon-1899-0288D1-nodesc</styleUrl>
			<Point>
				<coordinates>77.27671100000001,12.3119091,0</coordinates>
			</Point>
		</Placemark>
		<Placemark id="6077739E4C41A0BB98F3">
			<name>bheemeshwari picnic spot</name>
			<styleUrl>#icon-1899-0288D1-nodesc</styleUrl>
			<Point>
				<coordinates>77.2740876,12.3122394,0</coordinates>
			</Point>
		</Placemark>
		<Placemark id="78CEDE748D41A0BB98F3">
			<name>Polygon 7</name>
			<snippet></snippet>
			<styleUrl>#__managed_style_05E833072141A162F3BE</styleUrl>
			<Polygon>
				<outerBoundaryIs>
					<LinearRing>
						<coordinates>
							77.30594307659736,12.31106696343663,0 77.3055761,12.3110629,0 77.3030775,12.3118685,0 77.3020535,12.3123406,0 77.3013298,12.3124773,0 77.3006092,12.3125339,0 77.2992879,12.312339,0 77.2961301,12.3144019,0 77.29162169999999,12.315896,0 77.2894927,12.3164527,0 77.2856093,12.3168317,0 77.2839118,12.3177345,0 77.28266480000001,12.3176102,0 77.2794842,12.3173196,0 77.26957899999999,12.3183493,0 77.2666756,12.3188117,0 77.265417,12.3191477,0 77.26394380000001,12.3189805,0 77.26110660000001,12.3085844,0 77.2628527,12.3066535,0 77.265056,12.306317,0 77.2671089,12.3041993,0 77.2679851,12.3029727,0 77.2697536,12.3003048,0 77.272612,12.2984677,0 77.2759853,12.2984336,0 77.2772587,12.2981395,0 77.2786749,12.2980976,0 77.2823494,12.2977949,0 77.28609350000001,12.2965596,0 77.2886128,12.294881,0 77.2938874,12.2926212,0 77.2989475,12.2901684,0 77.3069248,12.2915906,0 77.3139099,12.2946877,0 77.3176081,12.2984589,0 77.3246194,12.3000596,0 77.3262337,12.3022163,0 77.3290879,12.3072494,0 77.3285947,12.3128695,0 77.3286348,12.3168711,0 77.3252416,12.3173509,0 77.3173395,12.3163816,0 77.315939,12.3116598,0 77.31440980000001,12.3118015,0 77.3117744,12.3107967,0 77.307036,12.3104836,0 77.30650383500463,12.31095686287322,0 77.3063907406349,12.31105856024681,0 77.30619878006785,12.31106254575311,0 77.30609414695236,12.31107575877689,0 77.30594307659736,12.31106696343663,0 
						</coordinates>
					</LinearRing>
				</outerBoundaryIs>
			</Polygon>
		</Placemark>
		<Placemark id="030282202C41A0E87FC4">
			<name>path 2</name>
			<LookAt>
				<longitude>77.32420965547145</longitude>
				<latitude>12.31587520162089</latitude>
				<altitude>426.6944208723046</altitude>
				<heading>228.1327098001728</heading>
				<tilt>0</tilt>
				<gx:fovy>30.00000000000391</gx:fovy>
				<range>645.3337599084625</range>
				<altitudeMode>absolute</altitudeMode>
			</LookAt>
			<styleUrl>#__managed_style_073B58B29341A0E3CE47</styleUrl>
			<LineString>
				<coordinates>
					77.31093934883253,12.30653776284829,0 77.31126305345128,12.30673439902847,0 77.31165352408929,12.30702156996376,0 77.31251274364297,12.30742165076919,0 77.31328935574938,12.30770218033258,0 77.31347895249327,12.30778014634949,0 77.31375032700053,12.30780066684647,0 77.31395447501713,12.30787989775664,0 77.31410471882089,12.30803937385041,0 77.31423215367241,12.3082799198614,0 77.31436903816547,12.30841374887881,0 77.31451326033418,12.30850602519988,0 77.31467619042503,12.30850308849789,0 77.31518645281412,12.30846046693226,0 77.3154556428257,12.30853227350695,0 77.31585963316522,12.30867244180049,0 77.31611941398762,12.30887153016277,0 77.31621017816012,12.30893717186977,0 77.31629095399815,12.30896945568657,0 77.31638843567821,12.30897984706618,0 77.31698995411593,12.30899153604397,0 77.3171206129627,12.30896597711739,0 77.31729578520552,12.30884673009558,0 77.31742093080014,12.3087635771679,0 77.31808139901052,12.3084642208627,0 77.31845844163988,12.30841385960175,0 77.31880600405331,12.3084146234666,0 77.31914536059571,12.30844041137311,0 77.31945212203904,12.30851834669321,0 77.32003887128118,12.30878795608082,0 77.32020649864761,12.30902024252641,0 77.3203426160152,12.30925514051055,0 77.32049222388764,12.30939402330264,0 77.3212642072819,12.30996158673306,0 77.32225873311003,12.31092762998402,0 77.32304963251705,12.31190331785278,0 77.32349274341537,12.31273479016762,0 77.32374078231715,12.31329749663536,0 77.32381304201137,12.31395871573893,0 77.32374980988109,12.31465137128347,0 77.32368680311079,12.3152320616272,0 77.32385634341442,12.31624507367582,0 77.32396713665032,12.31719540424049,0 
				</coordinates>
			</LineString>
		</Placemark>
		<Placemark id="0F973D9D1141A0ED846F">
			<name>path3</name>
			<LookAt>
				<longitude>77.28671293519606</longitude>
				<latitude>12.30675031647665</latitude>
				<altitude>438.8025935607861</altitude>
				<heading>-135.7951041095342</heading>
				<tilt>23.3612606684202</tilt>
				<gx:fovy>30.00000000000391</gx:fovy>
				<range>3186.44634725817</range>
				<altitudeMode>absolute</altitudeMode>
			</LookAt>
			<styleUrl>#__managed_style_073B58B29341A0E3CE47</styleUrl>
			<LineString>
				<coordinates>
					77.28879405306468,12.31171468247186,0 77.28865980449146,12.31169310053584,0 77.28863359859366,12.31158791021065,0 77.28869883272486,12.31134114084915,0 77.28867533193855,12.3111020777003,0 77.28869870172493,12.31094060158368,0 77.28869678800139,12.31070860638893,0 77.28872150789969,12.31053869356759,0 77.2888505857066,12.31026405751684,0 77.28886384041964,12.31011560791205,0 77.28875191815611,12.3100944366131,0 77.28845669032633,12.31027183227473,0 77.28817677049474,12.31052374215148,0 77.28792398898688,12.31078510545489,0 77.28774041641041,12.31088585124353,0 77.28745665144329,12.31093980263573,0 77.28736726132922,12.31101899870702,0 77.2871367063137,12.31104342347894,0 77.28691882316967,12.31115943272175,0 77.28669042614156,12.31135888385596,0 77.28657563746494,12.31145974954419,0 77.28648368061005,12.31153414800881,0 77.28639155512522,12.31151326156393,0 77.28635272773897,12.31142139389374,0 77.28628224862362,12.31114354841391,0 77.2861042803149,12.31082006175356,0 77.28587658429689,12.31049253595659,0 77.28576531868798,12.31043295211903,0 77.28558275181618,12.31042115460074,0 77.28552453328012,12.31037419718881,0 77.28553802811783,12.31031019142053,0 77.28562103787993,12.31021724115332,0 77.28568360337522,12.31013262310088,0 77.28573141295975,12.30999976003959,0 77.2856862696075,12.30995021938384,0 
				</coordinates>
			</LineString>
		</Placemark>
		<Placemark id="024924761F41A0F3CE68">
			<name>path4</name>
			<LookAt>
				<longitude>77.27836006380986</longitude>
				<latitude>12.31242708154569</latitude>
				<altitude>425.52875996122</altitude>
				<heading>-135.7958285778506</heading>
				<tilt>23.35280953925514</tilt>
				<gx:fovy>30.00000000000391</gx:fovy>
				<range>815.308214534889</range>
				<altitudeMode>absolute</altitudeMode>
			</LookAt>
			<styleUrl>#__managed_style_073B58B29341A0E3CE47</styleUrl>
			<LineString>
				<coordinates>
					77.27840556771478,12.31282653543919,0 77.27849687514414,12.31383500434267,0 
				</coordinates>
			</LineString>
		</Placemark>
		<Placemark id="0A10A7572D41A0F56478">
			<name>path5</name>
			<LookAt>
				<longitude>77.27894813556415</longitude>
				<latitude>12.31236164995644</latitude>
				<altitude>428.4548036778798</altitude>
				<heading>-51.51939013252334</heading>
				<tilt>15.20994941502747</tilt>
				<gx:fovy>30.00000000000391</gx:fovy>
				<range>1442.380575683783</range>
				<altitudeMode>absolute</altitudeMode>
			</LookAt>
			<styleUrl>#__managed_style_073B58B29341A0E3CE47</styleUrl>
			<LineString>
				<coordinates>
					77.27840528956186,12.31282203630015,0 77.27798433150063,12.31120186967816,0 77.2766205416937,12.31174620654542,0 
				</coordinates>
			</LineString>
		</Placemark>
		<Placemark id="04715FC12441A0F5C1B0">
			<name>path6</name>
			<LookAt>
				<longitude>77.27884248384603</longitude>
				<latitude>12.3111409422611</latitude>
				<altitude>423.0710137023451</altitude>
				<heading>-51.51893876077958</heading>
				<tilt>15.20781401520811</tilt>
				<gx:fovy>30.00000000000391</gx:fovy>
				<range>537.0716104957684</range>
				<altitudeMode>absolute</altitudeMode>
			</LookAt>
			<styleUrl>#__managed_style_073B58B29341A0E3CE47</styleUrl>
			<LineString>
				<coordinates>
					77.27798130630838,12.31119863637746,0 77.27860410349017,12.31089281298789,0 77.27892322809453,12.31071224289571,0 
				</coordinates>
			</LineString>
		</Placemark>
	</Folder>
	<Folder id="844A65A47C41A0BB98F3">
		<name>Untitled layer</name>
	</Folder>
	<Placemark id="021C223E5C41A0E373F1">
		<name>road</name>
		<LookAt>
			<longitude>77.2899406327904</longitude>
			<latitude>12.32007162171335</latitude>
			<altitude>560.9962922698359</altitude>
			<heading>228.1249227848462</heading>
			<tilt>0</tilt>
			<gx:fovy>30.0000000000039</gx:fovy>
			<range>2956.377337498125</range>
			<altitudeMode>absolute</altitudeMode>
		</LookAt>
		<styleUrl>#__managed_style_073B58B29341A0E3CE47</styleUrl>
		<LineString>
			<coordinates>
				77.26351869362841,12.31741493686244,0 77.2636633547114,12.31746595315565,0 77.26389834483768,12.317469877705,0 77.26402493936233,12.31743653506227,0 77.26411533242447,12.31736783069323,0 77.26418743318713,12.31722467542619,0 77.26428731657013,12.31708028113058,0 77.26438260213919,12.31697568016702,0 77.26460842783823,12.3167241489325,0 77.26490940534083,12.31638802676848,0 77.26506649677087,12.31615478651372,0 77.26515228641534,12.31601033792398,0 77.2653019578006,12.3157713279912,0 77.2655102163687,12.31559127686389,0 77.26565678234232,12.31552291071591,0 77.26588113415247,12.31557219328701,0 77.26627429423228,12.31568304686782,0 77.2666180375395,12.31579338194681,0 77.2669133078946,12.31589827513157,0 77.26729401811343,12.31603461335497,0 77.26774209890905,12.31614983955854,0 77.26813217975453,12.31622798168656,0 77.26881120220631,12.31624962931763,0 77.26954410681817,12.3163572311513,0 77.27038883876102,12.31648213959868,0 77.27078459384752,12.316499550811,0 77.27098583752287,12.31646532912474,0 77.27135071546799,12.31633114174406,0 77.27190644740973,12.31612494467016,0 77.27255468768058,12.31583173518376,0 77.27277514879792,12.3157341493641,0 77.27317027342198,12.3154622397012,0 77.27354397664135,12.31529911418954,0 77.27387779514787,12.31517136086642,0 77.27430773208184,12.31500638597165,0 77.27469847781501,12.31471271953978,0 77.2752184274772,12.31429257117689,0 77.27541318952295,12.3141195695646,0 77.27560674589857,12.31394147964565,0 77.27595639652617,12.31375300224926,0 77.27647190256562,12.31349854399879,0 77.27684595983492,12.31328154368409,0 77.27725653868931,12.31307438898606,0 77.27762572136113,12.31296825406228,0 77.27805587662743,12.31289199416776,0 77.27834928211998,12.31284207718658,0 77.27859725632595,12.31274767105852,0 77.27885389502248,12.31271008752631,0 77.27915890140567,12.31273481775579,0 77.27946261765545,12.31280014080378,0 77.2798107978663,12.31296971063073,0 77.28021363657062,12.3131927731624,0 77.28065184961031,12.31337652789493,0 77.28102257602114,12.31346369842685,0 77.28140392920959,12.31368228163793,0 77.2815853095257,12.31374253534101,0 77.28205763262069,12.31371748566696,0 77.28234161797999,12.31375253964915,0 77.28289273352812,12.31391672153308,0 77.28345459308888,12.3141107977483,0 77.28393616174432,12.31419170804763,0 77.28425260452015,12.31418637525882,0 77.2848130639435,12.31407243678452,0 77.28519822512798,12.31406266262461,0 77.28554798236944,12.31409667317888,0 77.28588187914904,12.31409633425731,0 77.2862177759434,12.31413923203177,0 77.2864389487973,12.31416135456801,0 77.28681667097527,12.31404660952972,0 77.28725008714297,12.31389412802976,0 77.28753991108867,12.31366126013222,0 77.28778949163861,12.31339137900373,0 77.28801205598849,12.31304285190067,0 77.28828159172123,12.31259878255862,0 77.28854436221489,12.3121253019495,0 77.28881170057714,12.31167900898374,0 77.28922481817092,12.31120187541827,0 77.28956295073699,12.31069550472929,0 77.28995300953295,12.31019665391536,0 77.2903859216045,12.30957999337484,0 77.29060093186877,12.3091375907726,0 77.29071118338432,12.30890898248732,0 77.29122294807553,12.30843463341103,0 77.2919826246745,12.3077964778968,0 77.2924605258299,12.30737285984393,0 77.29285114385917,12.30705195634768,0 77.29320090226469,12.30669768285862,0 77.29363423393886,12.30637385830359,0 77.29411513986962,12.30597379932732,0 77.29434289374554,12.3058386631024,0 77.29485864145937,12.30541604946102,0 77.29508044648753,12.30527615057156,0 77.29529470618132,12.30520469188061,0 77.29560011623339,12.30515369069832,0 77.29598966787393,12.30499072031262,0 77.2964435130974,12.30477997919095,0 77.29678028771625,12.30462634856892,0 77.29687903348101,12.30459284155872,0 77.29701057656727,12.3044427621069,0 77.29718406050905,12.3042924809733,0 77.29745148590015,12.30412173456243,0 77.29763970410296,12.30399812125991,0 77.29826540559286,12.30378102202411,0 77.2986170560702,12.30344077281273,0 77.29894231675416,12.30315851635273,0 77.29925273421701,12.30291426741211,0 77.29948599210776,12.30265992867492,0 77.30002279502703,12.30225727945787,0 77.30032847703451,12.30214232265629,0 77.30050778861904,12.30199137443502,0 77.30096794629084,12.30162238116647,0 77.30132920779802,12.30128226285954,0 77.30170358067146,12.30111054988903,0 77.30198279712171,12.30110026911144,0 77.30262122182349,12.30088096564767,0 77.30300711130529,12.30079801168091,0 77.30313529380329,12.30084081639704,0 77.30325815526658,12.301027593366,0 77.30340127020102,12.30104210680862,0 77.30383631788379,12.30093799983937,0 77.30412374030637,12.30095412020672,0 77.3046337198474,12.30100103238975,0 77.30514504478514,12.30106038724518,0 77.30556222917718,12.30108282844721,0 77.30602986763664,12.30126888397513,0 77.30647777297786,12.30146955332808,0 77.30738354740713,12.30205577775387,0 77.30779192027461,12.30240265232167,0 77.30839998015374,12.30296769298246,0 77.30867156072253,12.30322794304449,0 77.30896086601598,12.30343663884606,0 77.30909251983755,12.30363531362427,0 77.30936564024663,12.30396656705563,0 77.30946952693367,12.30426380841162,0 77.30948647882887,12.30484125353719,0 77.30945490495789,12.30534874611803,0 77.30935371042752,12.30582797629642,0 77.309332251017,12.30597390377309,0 77.3093979041312,12.30605535567521,0 77.30973804834368,12.30616572388824,0 77.31023430755303,12.30633990783305,0 77.31054513239545,12.30644564837803,0 77.31082106551015,12.30658897531007,0 77.31139365089976,12.30595651084732,0 77.31192720794721,12.30515454736462,0 77.3121826342216,12.30516084622128,0 
			</coordinates>
		</LineString>
	</Placemark>
	<Placemark id="093175BE9241A0F6C074">
		<name>path8</name>
		<LookAt>
			<longitude>77.26955477782643</longitude>
			<latitude>12.31476965656681</latitude>
			<altitude>423.6713693534475</altitude>
			<heading>-51.52133515668849</heading>
			<tilt>15.21109252058949</tilt>
			<gx:fovy>30.00000000000391</gx:fovy>
			<range>1927.00211322197</range>
			<altitudeMode>absolute</altitudeMode>
		</LookAt>
		<styleUrl>#__managed_style_073B58B29341A0E3CE47</styleUrl>
		<LineString>
			<coordinates>
				77.2766023537288,12.31172955437713,0 77.27604092830816,12.31191888984887,0 77.27513160667027,12.31227509526055,0 77.27457698485628,12.31240458916778,0 77.27413963240079,12.31217854898219,0 77.27308295982984,12.31251947099273,0 77.27267349831158,12.31278117868632,0 77.27257678833269,12.31323325338607,0 
			</coordinates>
		</LineString>
	</Placemark>
	<Placemark id="0099C94E3441A13CA616">
		<name>path8</name>
		<LookAt>
			<longitude>77.27101639514282</longitude>
			<latitude>12.29945945925211</latitude>
			<altitude>547.9996590239409</altitude>
			<heading>20.15900612925011</heading>
			<tilt>10.22162167776061</tilt>
			<gx:fovy>35</gx:fovy>
			<range>923.9084324118451</range>
			<altitudeMode>absolute</altitudeMode>
		</LookAt>
		<styleUrl>#__managed_style_09608E49AB41A13CA620</styleUrl>
		<LineString>
			<coordinates>
				77.26202232920058,12.31159295386371,0 77.26271786943022,12.31156402359362,0 77.2631245705648,12.31113709935501,0 77.26331704362208,12.31092551411402,0 77.26305026272637,12.31064174502335,0 77.26322590862929,12.31031763160536,0 77.26362967581237,12.31032860481997,0 77.26417818473386,12.31036518105857,0 77.26485651615039,12.31095951751718,0 77.26516779111157,12.31076529602693,0 77.26518498278351,12.31059971001208,0 77.2647918837647,12.31021859092255,0 77.26502713751641,12.30998960553829,0 77.26513282670274,12.30943319484647,0 77.26532359801469,12.3085588727455,0 77.26549539558947,12.30810961534222,0 77.26577622127481,12.30781697181825,0 77.26587681203382,12.30694777229581,0 77.26627358162116,12.30672425969337,0 77.26662298803005,12.30582224895265,0 77.26678156787808,12.30526730902133,0 77.26679463724884,12.30494717546928,0 77.26745912879846,12.30414880032438,0 77.26788199858393,12.30401991288211,0 77.26827550732438,12.30313275947345,0 77.26863384718449,12.30288833950067,0 77.26920794386761,12.30284407374574,0 77.26998403731668,12.30185261770301,0 77.27050124499451,12.30151533906367,0 77.27096812397693,12.30144370724937,0 77.27146504429086,12.30111080151121,0 77.27172892957721,12.30066090834236,0 77.27188971880166,12.30015272526572,0 77.27175428634709,12.29979507686657,0 77.27176972572137,12.29941076082161,0 77.27165110709325,12.29909225728385,0 
			</coordinates>
		</LineString>
	</Placemark>
	<Placemark id="08C57DBD8341A1410D99">
		<name>path9</name>
		<LookAt>
			<longitude>77.29176841729746</longitude>
			<latitude>12.29411030190615</latitude>
			<altitude>513.808377432294</altitude>
			<heading>-13.31997804856458</heading>
			<tilt>1.409609152052988</tilt>
			<gx:fovy>35</gx:fovy>
			<range>624.5939340941551</range>
			<altitudeMode>absolute</altitudeMode>
		</LookAt>
		<styleUrl>#__managed_style_09608E49AB41A13CA620</styleUrl>
		<LineString>
			<coordinates>
				77.26483155568812,12.31096931922505,0 77.26476835030927,12.31171528043582,0 77.26524747530576,12.31210497250119,0 77.26667086027628,12.31191103508736,0 77.26808707252854,12.3114863046633,0 77.26846441557824,12.31150693553644,0 77.26950039176695,12.31093465599827,0 77.27038395316234,12.31100668134176,0 77.27083420998875,12.31100739389745,0 77.27155990967893,12.31075153157994,0 77.27200922821302,12.31074885157949,0 77.2724199412328,12.31070366520354,0 77.27306294020842,12.31028498908526,0 77.27400907780793,12.30963677707385,0 77.27468773731685,12.30923051140046,0 77.27530702760293,12.30873797720187,0 77.27605800416869,12.30845390618701,0 77.27653339100988,12.30837728665488,0 77.27689070499923,12.30821218201019,0 77.27774566254688,12.30800949991604,0 77.27792733836192,12.30794512284547,0 77.27822058797373,12.30784497614387,0 77.27842492606347,12.3076846093235,0 77.27891441230859,12.30751899289836,0 77.2792837020238,12.30721827781486,0 77.27961842731088,12.30698536059228,0 77.28055999800257,12.30676067043863,0 77.28087049057055,12.30639325032383,0 77.28137084284572,12.30615767804882,0 77.28180228939021,12.30619854700436,0 77.28243020833739,12.30596406447588,0 77.2828096129672,12.30547893005776,0 77.28304951146038,12.30536363191263,0 77.28335201550892,12.30484295920601,0 77.28389236264208,12.30402192292962,0 77.28430761007333,12.30263794544786,0 77.28501554234079,12.30154884109201,0 77.28494457148538,12.30121290618922,0 77.28516838260052,12.30096402161966,0 77.28564746722498,12.30084356521784,0 77.28612841209205,12.3006648018014,0 77.28643253382947,12.30056281841907,0 77.28699910727697,12.30022311835078,0 77.28729044225577,12.3000002898528,0 77.28798717957865,12.30013085748994,0 77.28823468870347,12.30025533708304,0 77.28854803292529,12.30025970463046,0 77.28947667746064,12.30082473230223,0 77.28984710691248,12.3010178200959,0 77.29005664279951,12.30143988720643,0 77.29043159744829,12.30189054496162,0 77.2909768540147,12.30212604312401,0 77.29133022623219,12.30225017078045,0 77.29198525255508,12.30226153089495,0 77.29233915615036,12.3022230897543,0 77.29275770393289,12.30197803294248,0 77.2935918717933,12.30183002934434,0 77.29494887093412,12.30133501411119,0 77.29530777993831,12.3011242133259,0 77.29555518805316,12.30073246489629,0 77.29583931036724,12.30089631394343,0 77.29609042406112,12.30083651081551,0 77.29623785140183,12.30063342659011,0 77.29678337320831,12.29947696482801,0 77.29619952938221,12.29864931521297,0 77.2958758195519,12.29860908641609,0 77.29541390107642,12.29868159726142,0 77.29502392991111,12.29883665359126,0 77.294560232411,12.29850839484961,0 77.2941477706006,12.29830384332912,0 77.29393913067533,12.29807261234983,0 77.29394130976658,12.29766063977548,0 77.29344624554632,12.29632247276266,0 77.29329613464596,12.29618278535367,0 77.29319500615031,12.29579887784111,0 77.29243980637148,12.29463047068002,0 77.29214511017588,12.29393151320195,0 77.29216245494564,12.29336681490008,0 
			</coordinates>
		</LineString>
	</Placemark>
	<Placemark id="04D425F43341A142CE51">
		<name>Untitled path</name>
		<LookAt>
			<longitude>77.29848818628298</longitude>
			<latitude>12.29114833431707</latitude>
			<altitude>501.670787980571</altitude>
			<heading>-13.31600892580355</heading>
			<tilt>1.409618677940065</tilt>
			<gx:fovy>35</gx:fovy>
			<range>667.6634299732541</range>
			<altitudeMode>absolute</altitudeMode>
		</LookAt>
		<styleUrl>#__managed_style_073B58B29341A0E3CE47</styleUrl>
		<LineString>
			<coordinates>
				77.29675630772465,12.29947174888027,0 77.29729737586489,12.29896414868206,0 77.29762799053934,12.29778292755258,0 77.29866562000649,12.29692889867435,0 77.29948338128489,12.29626800849649,0 77.30025607499668,12.29631937440263,0 77.30080488409935,12.29598387023,0 77.30100036641919,12.29526745009775,0 77.300680678942,12.29469306951925,0 77.30067709409087,12.29370072237054,0 77.30031121392514,12.29292509980129,0 77.30016598541209,12.29286629657327,0 77.29976598728501,12.29265665812528,0 77.29969113579644,12.29275599197807,0 77.29994059444267,12.29303688321619,0 77.3000039877829,12.29323065357163,0 77.29983834368936,12.29346345511723,0 77.29965323387258,12.29341954958132,0 77.2995358925815,12.29320870855149,0 77.29915295930432,12.29333699220129,0 77.29875786214198,12.29359894224444,0 77.29852800730559,12.29364844086474,0 77.29815120696283,12.29345916442397,0 77.29796341324142,12.29313086387627,0 77.29771220346235,12.29273831443317,0 77.29762425928666,12.292403092889,0 77.29794535547892,12.29205548143283,0 77.29842318661669,12.29159327424364,0 77.29837759129082,12.2910844639054,0 77.29852899436271,12.291001483398,0 77.29881343091529,12.29106212536038,0 77.29884654938917,12.29094679437702,0 77.29871286620451,12.29073805376574,0 77.29866035111323,12.29030950032722,0 
			</coordinates>
		</LineString>
	</Placemark>
	<Placemark id="0818A11E7441A14654EF">
		<name>Untitled path</name>
		<LookAt>
			<longitude>77.32757126822749</longitude>
			<latitude>12.3041733586118</latitude>
			<altitude>425.2794830778436</altitude>
			<heading>358.2679224115843</heading>
			<tilt>0</tilt>
			<gx:fovy>35</gx:fovy>
			<range>866.4780496142339</range>
			<altitudeMode>absolute</altitudeMode>
		</LookAt>
		<styleUrl>#__managed_style_073B58B29341A0E3CE47</styleUrl>
		<LineString>
			<coordinates>
				77.30095125235296,12.2953792311742,0 77.30166469813574,12.29574291347928,0 77.30371877280601,12.29625976084345,0 77.30455829396806,12.29660484084087,0 77.30513090196482,12.2967970403349,0 77.30620287636231,12.29709744342223,0 77.30730697330398,12.29729505494435,0 77.30773008338792,12.29728829778086,0 77.30844076552411,12.29752554794387,0 77.30897668671186,12.29780874428267,0 77.30923193341116,12.29785729947697,0 77.30978891299446,12.29828474444529,0 77.31008884945297,12.29830065410293,0 77.31024673045852,12.29837329012295,0 77.31052927703763,12.29872880186611,0 77.31136919879974,12.29949138172229,0 77.31221543547431,12.30002364550084,0 77.31248314700727,12.30038950576195,0 77.31239930458695,12.30114393116253,0 77.3126587747805,12.30168097720614,0 77.31281557197377,12.3020951112728,0 77.31291035176686,12.30222310618663,0 77.3130081357956,12.30250351305236,0 77.31326656300679,12.30277582878567,0 77.31344384084878,12.30301560149267,0 77.31366602527767,12.30318901371304,0 77.31407778379717,12.30364988363816,0 77.31471598709356,12.3039626610708,0 77.31536018711236,12.30405932802936,0 77.31572198796317,12.3040570655005,0 77.31612519263457,12.30397924146914,0 77.3167128944918,12.30415955206526,0 77.31702577411738,12.30415473793539,0 77.31756982411254,12.30423762384432,0 77.31784961035683,12.30432895044636,0 77.31819570249552,12.30454675466201,0 77.31854577531324,12.30458125543628,0 77.31895302866654,12.30453271443347,0 77.31917624071764,12.30459192279609,0 77.31983770618456,12.30480177641114,0 77.32025160494318,12.30499315337511,0 77.32079236768467,12.30508111149948,0 77.32100575507791,12.30518538579808,0 77.32159668629443,12.30529397450083,0 77.32186300360203,12.30530082378854,0 77.32240440269901,12.30533684563581,0 77.32312970908745,12.30555843080241,0 77.32357815585348,12.30584996838792,0 77.32378681682981,12.30590444115639,0 77.32418152935111,12.30620353717661,0 77.32448016621183,12.30645238370921,0 77.32461433272729,12.30645155872614,0 77.32487327864706,12.30644916505758,0 77.32501364218498,12.30654498983524,0 77.32521270003654,12.30655444853743,0 77.32542057500589,12.30650746363272,0 77.3255269309459,12.3064681233539,0 77.32559338366396,12.30648772296708,0 77.32614650042683,12.30627918671367,0 77.32640747008,12.30609816764279,0 77.3266879998679,12.30597492753007,0 77.32713707812476,12.30573482520252,0 77.32746613248638,12.30539628994244,0 77.32767418293442,12.30474227393487,0 
			</coordinates>
		</LineString>
	</Placemark>
	<Placemark id="08402369B341A148913C">
		<name>Untitled path</name>
		<LookAt>
			<longitude>77.26255054231085</longitude>
			<latitude>12.31025185849811</latitude>
			<altitude>425.9659130701634</altitude>
			<heading>358.2679110119105</heading>
			<tilt>0</tilt>
			<gx:fovy>35</gx:fovy>
			<range>1051.435477925988</range>
			<altitudeMode>absolute</altitudeMode>
		</LookAt>
		<styleUrl>#__managed_style_073B58B29341A0E3CE47</styleUrl>
		<LineString>
			<coordinates>
				77.26328443607625,12.3066196699648,0 77.26346346525746,12.30745061316829,0 77.26337427417077,12.30837578109535,0 77.26312069901996,12.3090220208347,0 77.26317325510527,12.30940022678669,0 77.26344208583924,12.30987207455013,0 77.2635995869236,12.31029469129837,0 
			</coordinates>
		</LineString>
	</Placemark>
	<Placemark id="037A8BB2CC41A14A286F">
		<name>Untitled path</name>
		<LookAt>
			<longitude>77.28278046634449</longitude>
			<latitude>12.31530644229276</latitude>
			<altitude>430.0060028817116</altitude>
			<heading>358.2679075178768</heading>
			<tilt>0</tilt>
			<gx:fovy>35</gx:fovy>
			<range>1645.323821098718</range>
			<altitudeMode>absolute</altitudeMode>
		</LookAt>
		<styleUrl>#__managed_style_073B58B29341A0E3CE47</styleUrl>
		<LineString>
			<coordinates>
				77.26481821226126,12.31656323078693,0 77.26500409802108,12.31708805702145,0 77.26542715225474,12.3174165303896,0 77.26539891393342,12.31770927312967,0 77.26571103025265,12.31792401448308,0 77.26601112361668,12.31855948921015,0 77.26599654942245,12.31876520001071,0 77.26609475975805,12.31896286279547,0 
			</coordinates>
		</LineString>
	</Placemark>
	<Placemark id="0845F45A8641A14AA967">
		<name>Untitled path</name>
		<LookAt>
			<longitude>77.28278425264884</longitude>
			<latitude>12.31530733846744</latitude>
			<altitude>430.005859541048</altitude>
			<heading>358.2679075001961</heading>
			<tilt>0</tilt>
			<gx:fovy>35</gx:fovy>
			<range>1645.324006519514</range>
			<altitudeMode>absolute</altitudeMode>
		</LookAt>
		<styleUrl>#__managed_style_073B58B29341A0E3CE47</styleUrl>
		<LineString>
			<coordinates>
				77.28302301210849,12.3176896607586,0 77.28311489088996,12.31715688575717,0 77.28286793406426,12.31664943643072,0 77.28288497038037,12.31609950244416,0 77.28296239346177,12.31563772472561,0 77.28365021110096,12.31484951682635,0 77.28343976640934,12.3140540092262,0 
			</coordinates>
		</LineString>
	</Placemark>
	<Placemark id="0074F2F1E041A14B6CA1">
		<name>Untitled path</name>
		<LookAt>
			<longitude>77.2976424254317</longitude>
			<latitude>12.32112643428285</latitude>
			<altitude>584.4960969326364</altitude>
			<heading>358.2679049283262</heading>
			<tilt>0</tilt>
			<gx:fovy>35</gx:fovy>
			<range>22229.37818189152</range>
			<altitudeMode>absolute</altitudeMode>
		</LookAt>
		<styleUrl>#__managed_style_073B58B29341A0E3CE47</styleUrl>
		<LineString>
			<coordinates>
				77.28363901344943,12.31481236139892,0 77.28425433984174,12.31527103518124,0 77.28415837635006,12.31581894026858,0 77.28400655162787,12.31644427459766,0 77.2841615431811,12.31696838929334,0 77.28445923074703,12.31721426563543,0 77.28452587304179,12.31737037745033,0 
			</coordinates>
		</LineString>
	</Placemark>
	<Placemark id="007B68D47741A14C7013">
		<name>Untitled path</name>
		<LookAt>
			<longitude>77.30308292270669</longitude>
			<latitude>12.29297181179787</latitude>
			<altitude>430.2906762329632</altitude>
			<heading>358.2679020869187</heading>
			<tilt>0</tilt>
			<gx:fovy>35</gx:fovy>
			<range>1325.693507969409</range>
			<altitudeMode>absolute</altitudeMode>
		</LookAt>
		<styleUrl>#__managed_style_073B58B29341A0E3CE47</styleUrl>
		<LineString>
			<coordinates>
				77.30144111722477,12.29564940391735,0 77.30207888689137,12.29535167178633,0 77.30231753228661,12.29502196006614,0 77.30222296761674,12.29463032796624,0 77.30240816724914,12.29418054831125,0 77.30244216079906,12.29382743129843,0 77.30254314450012,12.29368543308991,0 77.30278722496894,12.29332258952275,0 77.30348236243928,12.29319614339219,0 77.30394532017387,12.29304832600653,0 77.3043772776271,12.29260099633081,0 77.30448207298237,12.29311473853385,0 77.30478266509996,12.29274959568187,0 77.30490623084152,12.29227952999299,0 77.30527672072299,12.2923433149329,0 77.30533399024567,12.29187988734919,0 77.3055496257043,12.29194617428879,0 77.3058009448836,12.29138603522729,0 
			</coordinates>
		</LineString>
	</Placemark>
	<Placemark id="0C92DCBE3541A15C42B4">
		<name>water stream</name>
		<LookAt>
			<longitude>77.29063971539176</longitude>
			<latitude>12.29684892451247</latitude>
			<altitude>446.2025903467933</altitude>
			<heading>358.2678843917736</heading>
			<tilt>0</tilt>
			<gx:fovy>35</gx:fovy>
			<range>991.0068408751977</range>
			<altitudeMode>absolute</altitudeMode>
		</LookAt>
		<styleUrl>#__managed_style_06F486DC6541A15C7B6B</styleUrl>
		<LineString>
			<coordinates>
				77.28790845411893,12.30010523898891,0 77.28816292641659,12.29919060532244,0 77.28832020410746,12.29888457562539,0 77.28908646644079,12.29816873654657,0 77.28941288120346,12.29789716099128,0 77.28979903329471,12.29742126784919,0 77.29000373882866,12.29729809798489,0 77.28976826230725,12.29693541831528,0 77.28965728434665,12.29648950175678,0 77.28979566331046,12.29620659964706,0 77.28974377840557,12.2957824525698,0 77.28965773183424,12.29520445201713,0 77.28968050259468,12.29477164401627,0 77.28956397000807,12.29442904244378,0 
			</coordinates>
		</LineString>
	</Placemark>
	<Placemark id="0D88F47A4E41A15E45B6">
		<name>Untitled path</name>
		<LookAt>
			<longitude>77.32027809030347</longitude>
			<latitude>12.30481848314797</latitude>
			<altitude>414.5031814374428</altitude>
			<heading>358.2678775337146</heading>
			<tilt>0</tilt>
			<gx:fovy>35</gx:fovy>
			<range>1128.597136479366</range>
			<altitudeMode>absolute</altitudeMode>
		</LookAt>
		<styleUrl>#__managed_style_073B58B29341A0E3CE47</styleUrl>
		<LineString>
			<coordinates>
				77.32028079654897,12.29913011383759,0 77.32022326996008,12.29938432446041,0 77.32006919458928,12.29998987163804,0 77.32039616057857,12.30072866011001,0 77.32055622222592,12.30113785125365,0 77.32073411758874,12.30169753612338,0 77.32116914496821,12.30206467413312,0 77.32119139541571,12.30252699370383,0 77.32104250774917,12.30292785695125,0 77.32107962306448,12.3033631032986,0 77.32137273906746,12.30371171565104,0 77.32132832734524,12.30424472011759,0 77.32112302877188,12.3047479694078,0 77.32140229890445,12.30527721803496,0 
			</coordinates>
		</LineString>
	</Placemark>
	<Placemark id="06369B71F041A1604A8B">
		<name>Untitled path</name>
		<LookAt>
			<longitude>77.317730792044</longitude>
			<latitude>12.30558215135095</latitude>
			<altitude>406.6499568983995</altitude>
			<heading>358.2678673788004</heading>
			<tilt>0</tilt>
			<gx:fovy>35</gx:fovy>
			<range>281.8311715686286</range>
			<altitudeMode>absolute</altitudeMode>
		</LookAt>
		<styleUrl>#__managed_style_073B58B29341A0E3CE47</styleUrl>
		<LineString>
			<coordinates>
				77.32029851575943,12.2990770287461,0 77.32003836241066,12.29923936298951,0 77.32011726722533,12.2993384132579,0 77.31987077558685,12.29965186391441,0 77.31969978837742,12.30000772516387,0 77.31963802547989,12.300167948018,0 77.31942716270675,12.30050750970889,0 77.31936919226496,12.3008325816445,0 77.31930025468219,12.30109976079109,0 77.31923543110615,12.30137018464649,0 77.3192906359301,12.30164073268343,0 77.3191251599669,12.30184279689952,0 77.31918574577358,12.30203167489852,0 77.31935754667141,12.30199240025509,0 77.3193573742938,12.30242038590344,0 77.31952956180842,12.30265436350267,0 77.31964313195199,12.30286957887573,0 77.31972860105672,12.30313259461936,0 77.31999832888098,12.30346016369147,0 77.32007426328654,12.30378413651368,0 77.31980438306643,12.30408171208191,0 77.31994442539047,12.30432250981415,0 77.31994977584279,12.30446937764354,0 77.32021140327161,12.30474603527848,0 77.32024717788902,12.30499706083729,0 
			</coordinates>
		</LineString>
	</Placemark>
	<Placemark id="0698AD5B5141A1618E04">
		<name>Untitled path</name>
		<LookAt>
			<longitude>77.32129761853024</longitude>
			<latitude>12.3150090036269</latitude>
			<altitude>465.3770819630591</altitude>
			<heading>358.2678600933327</heading>
			<tilt>0</tilt>
			<gx:fovy>35</gx:fovy>
			<range>1518.140545738279</range>
			<altitudeMode>absolute</altitudeMode>
		</LookAt>
		<styleUrl>#__managed_style_073B58B29341A0E3CE47</styleUrl>
		<LineString>
			<coordinates>
				77.31934949018269,12.31661372538925,0 77.31935988427387,12.31582179551867,0 77.31946091184781,12.31503044421831,0 77.31910047952935,12.31392431086312,0 77.31934341633544,12.31302272799585,0 77.31983620914131,12.31256177481156,0 77.32059223344393,12.31270590224066,0 77.32121806281266,12.31294569598407,0 77.32164962569023,12.31290073525097,0 77.32237592167967,12.31300264743819,0 77.32262583160374,12.31269240768557,0 77.32287786244773,12.31227913248582,0 77.32315873620496,12.3121001798008,0 
			</coordinates>
		</LineString>
	</Placemark>
	<Placemark id="0748D12CCB41A163A3EE">
		<name>Untitled path</name>
		<LookAt>
			<longitude>77.31593248738633</longitude>
			<latitude>12.31000077177397</latitude>
			<altitude>422.0346258502749</altitude>
			<heading>358.2678555636014</heading>
			<tilt>0</tilt>
			<gx:fovy>35</gx:fovy>
			<range>500.3560217051563</range>
			<altitudeMode>absolute</altitudeMode>
		</LookAt>
		<styleUrl>#__managed_style_073B58B29341A0E3CE47</styleUrl>
		<LineString>
			<coordinates>
				77.3153778763823,12.31170498546259,0 77.31546774793088,12.31137974775478,0 77.31542343603245,12.31095362473857,0 77.31530783973002,12.31076528766565,0 77.31550404642525,12.31008717219048,0 77.31646410240586,12.30975054380506,0 77.31690648858601,12.30946049688553,0 77.31701255546575,12.30897275916843,0 
			</coordinates>
		</LineString>
	</Placemark>
	<Placemark id="0C3F24F93C41A164C6B4">
		<name>Untitled path</name>
		<LookAt>
			<longitude>77.30982492272589</longitude>
			<latitude>12.30579668694012</latitude>
			<altitude>413.9737282738774</altitude>
			<heading>358.2678479295557</heading>
			<tilt>0</tilt>
			<gx:fovy>35</gx:fovy>
			<range>950.4281488888955</range>
			<altitudeMode>absolute</altitudeMode>
		</LookAt>
		<styleUrl>#__managed_style_073B58B29341A0E3CE47</styleUrl>
		<LineString>
			<coordinates>
				77.30560395325547,12.31109742823069,0 77.30546127280412,12.31062749034039,0 77.30558412366764,12.30994932288323,0 77.30509599234978,12.30931114760392,0 77.30514265185911,12.30910158308517,0 77.30556293637474,12.30907840444372,0 77.30588328084181,12.30882702665769,0 77.30656710088766,12.30850026229516,0 77.30756628034837,12.30827229854636,0 77.30800605816871,12.30762436106186,0 77.30887163266237,12.30690253253827,0 77.30934206520413,12.30600457897499,0 
			</coordinates>
		</LineString>
	</Placemark>
	<Placemark id="0B37FFFA1B41A166E108">
		<name>temple</name>
		<LookAt>
			<longitude>77.27853160009249</longitude>
			<latitude>12.31406028036067</latitude>
			<altitude>428.9428819407053</altitude>
			<heading>358.2678359910286</heading>
			<tilt>0</tilt>
			<gx:fovy>35</gx:fovy>
			<range>563.284223781302</range>
			<altitudeMode>absolute</altitudeMode>
		</LookAt>
		<styleUrl>#__managed_style_09608E49AB41A13CA620</styleUrl>
		<Point>
			<coordinates>77.27842755307469,12.31393270288395,427.5959138299905</coordinates>
		</Point>
	</Placemark>
	<Placemark id="0B3000030F41A1673BEE">
		<name>temple</name>
		<LookAt>
			<longitude>77.27245483883782</longitude>
			<latitude>12.31365842017668</latitude>
			<altitude>429.2000386420046</altitude>
			<heading>358.26783413412</heading>
			<tilt>0</tilt>
			<gx:fovy>35</gx:fovy>
			<range>267.9963466227855</range>
			<altitudeMode>absolute</altitudeMode>
		</LookAt>
		<styleUrl>#__managed_style_09608E49AB41A13CA620</styleUrl>
		<Point>
			<coordinates>77.27258824806511,12.31326642176317,433.0035760651518</coordinates>
		</Point>
	</Placemark>
	<Placemark id="0982CC2E7841A167D5F0">
		<name>temple</name>
		<LookAt>
			<longitude>77.3105592364805</longitude>
			<latitude>12.3065796193815</latitude>
			<altitude>413.6874168206103</altitude>
			<heading>358.2678272399977</heading>
			<tilt>0</tilt>
			<gx:fovy>35</gx:fovy>
			<range>791.9405588603697</range>
			<altitudeMode>absolute</altitudeMode>
		</LookAt>
		<styleUrl>#__managed_style_09608E49AB41A13CA620</styleUrl>
		<Point>
			<coordinates>77.31044484676798,12.30715183308871,415.8299356230461</coordinates>
		</Point>
	</Placemark>
	<Placemark id="01A913474541A186FE89">
		<name>river boundary</name>
		<LookAt>
			<longitude>77.31241247529194</longitude>
			<latitude>12.30628507649887</latitude>
			<altitude>418.7108008426948</altitude>
			<heading>-55.94262583507068</heading>
			<tilt>20.73106434049149</tilt>
			<gx:fovy>35</gx:fovy>
			<range>1149.961413175624</range>
			<altitudeMode>absolute</altitudeMode>
		</LookAt>
		<styleUrl>#__managed_style_06F486DC6541A15C7B6B</styleUrl>
		<LineString>
			<coordinates>
				77.26217816058939,12.31232300469225,0 77.2630974246953,12.31246310508588,0 77.26393244712452,12.31305457171572,0 77.26470041966263,12.31333937549727,0 77.26608978587788,12.31311839855394,0 77.2674410049483,12.31282908021768,0 77.26810322006294,12.31232357761372,0 77.26843580674122,12.31183603956097,0 77.26902745008984,12.31163607313388,0 77.26924366965503,12.31151046430592,0 77.26929058908161,12.31139289207236,0 77.26954707643534,12.31132762375943,0 77.27049312060034,12.31142847862803,0 77.27103109979586,12.31153864163897,0 77.27180241602815,12.3114298601953,0 77.27228182217641,12.31128255800961,0 77.27286709064101,12.31112987414845,0 77.2733157719821,12.31090960192426,0 77.27354503189855,12.31075825166186,0 77.27360239609666,12.31053715523521,0 77.27374536163225,12.31037314193437,0 77.27394911392965,12.31041133925614,0 77.27410663968355,12.31029796107879,0 77.27430536813077,12.3101804091818,0 77.27452979006146,12.30997697594439,0 77.27498595855938,12.30967594115672,0 77.27540982257291,12.30931880865674,0 77.27644306577484,12.30890960482913,0 77.27713207998187,12.30854546550242,0 77.27762230745988,12.30848034338238,0 77.27764124237274,12.3082460141726,0 77.27811109019298,12.30804469649976,0 77.27852420553171,12.30793462773366,0 77.27888166946057,12.30767541206254,0 77.27954795704721,12.30738403786966,0 77.28012605272892,12.30708481808966,0 77.28051101153493,12.30695184718835,0 77.28102233241574,12.30684156166817,0 77.28156496927288,12.30661699559173,0 77.28209861767698,12.30650379812882,0 77.28262732232335,12.30640551089403,0 77.2831182338121,12.30603950453113,0 77.28340618566072,12.30574764944624,0 77.28372268892109,12.30544133572031,0 77.28422991394483,12.30463601401522,0 77.28460083269846,12.30416977330271,0 77.28493935767088,12.30390912060381,0 77.28521090798635,12.3036240919353,0 77.28557069326654,12.30325094141195,0 77.28567053113254,12.30318952745749,0 77.28574452481635,12.30309870561244,0 77.2858754133669,12.30309254937861,0 77.28595012518053,12.30302050822546,0 77.28606681930201,12.30311399905294,0 77.28635627884874,12.30299281763346,0 77.2866529216041,12.30281652855287,0 77.28774882721989,12.30281815068351,0 77.28839777494824,12.30267521999975,0 77.28884007029144,12.3028848057779,0 77.28968751194701,12.30252126874736,0 77.29035591250356,12.30242072048448,0 77.29106854678402,12.30235224365128,0 77.29163443792704,12.30249055325694,0 77.29233713962789,12.30239506565442,0 77.2931313089162,12.30240354217636,0 77.29379407354494,12.30233474885414,0 77.29455691329359,12.30220507402972,0 77.29487168212601,12.30226241318644,0 77.29527307819377,12.30206933460624,0 77.29538306284594,12.30208554802134,0 77.29556571543124,12.30191464893624,0 77.29565219635516,12.30183546433655,0 77.29575843478571,12.30171455445599,0 77.29624748738871,12.30143789130087,0 77.29652432076227,12.30119300237699,0 77.2966376023743,12.30097962435159,0 77.29695112623858,12.30076997996658,0 77.29718545064314,12.30033143360038,0 77.29752107919387,12.30000192682872,0 77.29797767017743,12.29950465725354,0 77.29819838630246,12.2992487407633,0 77.29940668914232,12.29857571492915,0 77.30056430362487,12.29796856889496,0 77.3015478689023,12.29767025638078,0 77.30226334120063,12.29754343774103,0 77.30276808148076,12.29758081345979,0 77.30343510168275,12.29751946804858,0 77.30448883206438,12.29748681541665,0 77.30522508241582,12.29742523452794,0 77.30611844481606,12.29754343488795,0 77.30702573277985,12.29770824842625,0 77.30742782850186,12.29812112050422,0 77.30759270848621,12.29838178673868,0 77.3076666947036,12.29882789125073,0 77.30831486775575,12.29917466361148,0 77.30915520605002,12.29948053376772,0 77.30947800690664,12.29985642271009,0 77.30987528861444,12.3000909025581,0 77.31007174229488,12.30031183397479,0 77.31018640681791,12.30067145924847,0 77.31077130727715,12.30117269242939,0 77.3111953490636,12.30148445523357,0 77.31124257058538,12.30174541459202,0 77.31182616334875,12.30155934561909,0 77.31278103409468,12.30304058154148,0 77.31374982895498,12.30366357932002,0 77.31492935432074,12.30444597528374,0 77.31562870478453,12.30464229859052,0 77.31683367976898,12.30534839613323,0 77.3185220512494,12.30598107571143,0 77.32095411180872,12.30643036283262,0 77.32189394827812,12.30613283191642,0 77.32319590108673,12.30634855748245,0 77.32435892554682,12.30645929257346,0 77.32488227365594,12.30666214471465,0 77.3257099979114,12.30671413053548,0 77.32637848343066,12.30655373778979,0 77.32703180169227,12.30637753637308,0 77.32767235172798,12.30588366618507,0 77.3280507408565,12.30542415600941,0 77.32899880220245,12.30710506785346,0 77.32839208704908,12.30761175623391,0 77.32728529683774,12.30801818818367,0 77.32607163686978,12.3082887374456,0 77.32478029779905,12.30826293142326,0 77.32389784014259,12.30833786006897,0 77.32296651049012,12.30867204248344,0 77.32214120790097,12.30883063549721,0 77.32123821722953,12.30856772634652,0 77.32022129843811,12.30839385748675,0 77.31877362417009,12.30814322360088,0 77.31720102499638,12.30783785314629,0 77.31580206201804,12.30754896680996,0 77.31481026788893,12.30729180487443,0 77.31422583086362,12.30722552437791,0 
			</coordinates>
		</LineString>
	</Placemark>
	<Placemark id="029504AA6441A18BB0D6">
		<name>river boundary</name>
		<LookAt>
			<longitude>77.26197582213064</longitude>
			<latitude>12.31246348665724</latitude>
			<altitude>416.3901068835001</altitude>
			<heading>263.6927889332931</heading>
			<tilt>0</tilt>
			<gx:fovy>35</gx:fovy>
			<range>122.4712578217986</range>
			<altitudeMode>absolute</altitudeMode>
		</LookAt>
		<styleUrl>#__managed_style_06F486DC6541A15C7B6B</styleUrl>
		<LineString>
			<coordinates>
				77.31422727692527,12.30722521532047,0 77.31403814204934,12.30705524867636,0 77.31390863129938,12.30696433933738,0 77.31373879124229,12.30680195154346,0 77.31363707740132,12.30662776800656,0 77.31318817386872,12.30641381526781,0 77.31313592241897,12.30637830131854,0 77.31318472252693,12.30628269151977,0 77.3129986119262,12.30598242211321,0 77.31266812964157,12.3054181233329,0 77.31225703691507,12.30506742349286,0 77.31205517428053,12.30478138946871,0 77.31173799765742,12.30450475216418,0 77.31154947035246,12.30413781688175,0 77.31113164323581,12.30399417748146,0 77.31102941288746,12.30378480535507,0 77.31097464329139,12.30338348714449,0 77.31076533001702,12.30324364140366,0 77.31049808907143,12.30330030956375,0 77.31030371549726,12.30312307177812,0 77.30984926045106,12.30263409811542,0 77.3096967047052,12.30236182438106,0 77.30932893176579,12.30187536956725,0 77.30870395689087,12.30156917489671,0 77.30802694514226,12.30115344842377,0 77.30767583790454,12.30115837324665,0 77.30731913753364,12.30105597589615,0 77.30704668477667,12.30098343996196,0 77.30672318793155,12.30052611687455,0 77.30622204918633,12.30042481483776,0 77.30572062619336,12.30025610706689,0 77.30449055522368,12.30009632944627,0 77.30379712405333,12.29997437681752,0 77.30252082290735,12.30026913457183,0 77.30100693360512,12.30090181077743,0 77.29971831914949,12.30202833139599,0 77.29838971732821,12.30301603521298,0 77.29738897392491,12.30344225874921,0 77.29634471561506,12.30397564272323,0 77.29538272203436,12.30426841613079,0 77.29508752556212,12.30480089284751,0 77.29438375793572,12.30489431645088,0 77.29351654470058,12.30506913341406,0 77.29215319356099,12.30538999022815,0 77.29121484426901,12.30514782612854,0 77.29048734859653,12.3049357355892,0 77.28960488915419,12.30527706857466,0 77.28865571251976,12.30539674277974,0 77.28792345918251,12.30541536265147,0 77.28663637566723,12.30624216681805,0 77.28586926041305,12.30665099536465,0 77.28478151295784,12.30774404832869,0 77.28379219130815,12.30819996752205,0 77.28310372064527,12.3084710672786,0 77.28230041036124,12.30844479783205,0 77.2814874679292,12.30878011019246,0 77.28130690186457,12.309173608191,0 77.28066847110193,12.30936163072037,0 77.2802797098355,12.30973073132677,0 77.28022992226119,12.31008578824294,0 77.27987704732254,12.31038848218279,0 77.27928379131656,12.3103666050819,0 77.27882128674479,12.3103897806508,0 77.27814941065591,12.31081505056221,0 77.2776444375899,12.31082201259803,0 77.27724920132694,12.3111531524047,0 77.27646872890382,12.3114437187098,0 77.27552502590075,12.31163317978088,0 77.27463000812041,12.31183746438639,0 77.27400133433069,12.311931773898,0 77.27340632809226,12.31186975651022,0 77.27233382708556,12.31263155559333,0 77.27144288384562,12.31328738597723,0 77.27025038396754,12.31402595513193,0 77.26900919243378,12.31433780601561,0 77.26838080595695,12.31444989779454,0 77.26704034469176,12.3148929309348,0 77.26553135029249,12.31520180938657,0 77.26494076448739,12.31501484943763,0 77.26380760619347,12.31496211912736,0 77.26293814265819,12.31533569885516,0 77.2621276407949,12.3123108948091,0 77.26218090304235,12.31232346593877,0 77.26218782162813,12.31232687902791,0 
			</coordinates>
		</LineString>
	</Placemark>
</Document>
</kml>
