{
  "type": "FeatureCollection",
  "name": "Muthathi_River_Elevation_Slope_Grid",
  "features": [
    {
      "type": "Feature",
      "properties": {
        "elevation_m": 764.0,
        "slope_percent": 2.72,
        "distance_from_river_m": 1657.1,
        "data_source": "modeled_approximation",
        "model_basis": "base river elevation ~690m (Cauvery belt reference) + 4.5% average bank slope + local roughness",
        "verification_needed": true
      },
      "geometry": {
        "type": "Point",
        "coordinates": [
          77.262128,
          12.297425
        ]
      }
    },
    {
      "type": "Feature",
      "properties": {
        "elevation_m": 758.4,
        "slope_percent": 2.58,
        "distance_from_river_m": 1562.1,
        "data_source": "modeled_approximation",
        "model_basis": "base river elevation ~690m (Cauvery belt reference) + 4.5% average bank slope + local roughness",
        "verification_needed": true
      },
      "geometry": {
        "type": "Point",
        "coordinates": [
          77.267644,
          12.297425
        ]
      }
    },
    {
      "type": "Feature",
      "properties": {
        "elevation_m": 751.1,
        "slope_percent": 3.68,
        "distance_from_river_m": 1303.8,
        "data_source": "modeled_approximation",
        "model_basis": "base river elevation ~690m (Cauvery belt reference) + 4.5% average bank slope + local roughness",
        "verification_needed": true
      },
      "geometry": {
        "type": "Point",
        "coordinates": [
          77.273161,
          12.297425
        ]
      }
    },
    {
      "type": "Feature",
      "properties": {
        "elevation_m": 735.7,
        "slope_percent": 3.44,
        "distance_from_river_m": 999.2,
        "data_source": "modeled_approximation",
        "model_basis": "base river elevation ~690m (Cauvery belt reference) + 4.5% average bank slope + local roughness",
        "verification_needed": true
      },
      "geometry": {
        "type": "Point",
        "coordinates": [
          77.278678,
          12.297425
        ]
      }
    },
    {
      "type": "Feature",
      "properties": {
        "elevation_m": 719.5,
        "slope_percent": 2.19,
        "distance_from_river_m": 652.8,
        "data_source": "modeled_approximation",
        "model_basis": "base river elevation ~690m (Cauvery belt reference) + 4.5% average bank slope + local roughness",
        "verification_needed": true
      },
      "geometry": {
        "type": "Point",
        "coordinates": [
          77.284194,
          12.297425
        ]
      }
    },
    {
      "type": "Feature",
      "properties": {
        "elevation_m": 716.4,
        "slope_percent": 2.48,
        "distance_from_river_m": 560.7,
        "data_source": "modeled_approximation",
        "model_basis": "base river elevation ~690m (Cauvery belt reference) + 4.5% average bank slope + local roughness",
        "verification_needed": true
      },
      "geometry": {
        "type": "Point",
        "coordinates": [
          77.289711,
          12.297425
        ]
      }
    },
    {
      "type": "Feature",
      "properties": {
        "elevation_m": 709.4,
        "slope_percent": 2.84,
        "distance_from_river_m": 383.9,
        "data_source": "modeled_approximation",
        "model_basis": "base river elevation ~690m (Cauvery belt reference) + 4.5% average bank slope + local roughness",
        "verification_needed": true
      },
      "geometry": {
        "type": "Point",
        "coordinates": [
          77.295227,
          12.297425
        ]
      }
    },
    {
      "type": "Feature",
      "properties": {
        "elevation_m": 694.0,
        "slope_percent": 0.85,
        "distance_from_river_m": 63.7,
        "data_source": "modeled_approximation",
        "model_basis": "base river elevation ~690m (Cauvery belt reference) + 4.5% average bank slope + local roughness",
        "verification_needed": true
      },
      "geometry": {
        "type": "Point",
        "coordinates": [
          77.300744,
          12.297425
        ]
      }
    },
    {
      "type": "Feature",
      "properties": {
        "elevation_m": 688.7,
        "slope_percent": 2.54,
        "distance_from_river_m": 20.6,
        "data_source": "modeled_approximation",
        "model_basis": "base river elevation ~690m (Cauvery belt reference) + 4.5% average bank slope + local roughness",
        "verification_needed": true
      },
      "geometry": {
        "type": "Point",
        "coordinates": [
          77.306261,
          12.297425
        ]
      }
    },
    {
      "type": "Feature",
      "properties": {
        "elevation_m": 709.4,
        "slope_percent": 2.07,
        "distance_from_river_m": 364.5,
        "data_source": "modeled_approximation",
        "model_basis": "base river elevation ~690m (Cauvery belt reference) + 4.5% average bank slope + local roughness",
        "verification_needed": true
      },
      "geometry": {
        "type": "Point",
        "coordinates": [
          77.311777,
          12.297425
        ]
      }
    },
    {
      "type": "Feature",
      "properties": {
        "elevation_m": 722.1,
        "slope_percent": 2.58,
        "distance_from_river_m": 763.1,
        "data_source": "modeled_approximation",
        "model_basis": "base river elevation ~690m (Cauvery belt reference) + 4.5% average bank slope + local roughness",
        "verification_needed": true
      },
      "geometry": {
        "type": "Point",
        "coordinates": [
          77.317294,
          12.297425
        ]
      }
    },
    {
      "type": "Feature",
      "properties": {
        "elevation_m": 731.7,
        "slope_percent": 2.12,
        "distance_from_river_m": 974.7,
        "data_source": "modeled_approximation",
        "model_basis": "base river elevation ~690m (Cauvery belt reference) + 4.5% average bank slope + local roughness",
        "verification_needed": true
      },
      "geometry": {
        "type": "Point",
        "coordinates": [
          77.322811,
          12.297425
        ]
      }
    },
    {
      "type": "Feature",
      "properties": {
        "elevation_m": 728.1,
        "slope_percent": 3.67,
        "distance_from_river_m": 891.0,
        "data_source": "modeled_approximation",
        "model_basis": "base river elevation ~690m (Cauvery belt reference) + 4.5% average bank slope + local roughness",
        "verification_needed": true
      },
      "geometry": {
        "type": "Point",
        "coordinates": [
          77.328327,
          12.297425
        ]
      }
    },
    {
      "type": "Feature",
      "properties": {
        "elevation_m": 737.0,
        "slope_percent": 2.16,
        "distance_from_river_m": 1057.1,
        "data_source": "modeled_approximation",
        "model_basis": "base river elevation ~690m (Cauvery belt reference) + 4.5% average bank slope + local roughness",
        "verification_needed": true
      },
      "geometry": {
        "type": "Point",
        "coordinates": [
          77.262128,
          12.302815
        ]
      }
    },
    {
      "type": "Feature",
      "properties": {
        "elevation_m": 734.7,
        "slope_percent": 3.18,
        "distance_from_river_m": 971.0,
        "data_source": "modeled_approximation",
        "model_basis": "base river elevation ~690m (Cauvery belt reference) + 4.5% average bank slope + local roughness",
        "verification_needed": true
      },
      "geometry": {
        "type": "Point",
        "coordinates": [
          77.267644,
          12.302815
        ]
      }
    },
    {
      "type": "Feature",
      "properties": {
        "elevation_m": 722.3,
        "slope_percent": 2.51,
        "distance_from_river_m": 766.1,
        "data_source": "modeled_approximation",
        "model_basis": "base river elevation ~690m (Cauvery belt reference) + 4.5% average bank slope + local roughness",
        "verification_needed": true
      },
      "geometry": {
        "type": "Point",
        "coordinates": [
          77.273161,
          12.302815
        ]
      }
    },
    {
      "type": "Feature",
      "properties": {
        "elevation_m": 710.6,
        "slope_percent": 2.63,
        "distance_from_river_m": 501.9,
        "data_source": "modeled_approximation",
        "model_basis": "base river elevation ~690m (Cauvery belt reference) + 4.5% average bank slope + local roughness",
        "verification_needed": true
      },
      "geometry": {
        "type": "Point",
        "coordinates": [
          77.278678,
          12.302815
        ]
      }
    },
    {
      "type": "Feature",
      "properties": {
        "elevation_m": 696.3,
        "slope_percent": 0.82,
        "distance_from_river_m": 144.7,
        "data_source": "modeled_approximation",
        "model_basis": "base river elevation ~690m (Cauvery belt reference) + 4.5% average bank slope + local roughness",
        "verification_needed": true
      },
      "geometry": {
        "type": "Point",
        "coordinates": [
          77.284194,
          12.302815
        ]
      }
    },
    {
      "type": "Feature",
      "properties": {
        "elevation_m": 693.6,
        "slope_percent": 1.17,
        "distance_from_river_m": 32.8,
        "data_source": "modeled_approximation",
        "model_basis": "base river elevation ~690m (Cauvery belt reference) + 4.5% average bank slope + local roughness",
        "verification_needed": true
      },
      "geometry": {
        "type": "Point",
        "coordinates": [
          77.289711,
          12.302815
        ]
      }
    },
    {
      "type": "Feature",
      "properties": {
        "elevation_m": 690.7,
        "slope_percent": 1.98,
        "distance_from_river_m": 73.1,
        "data_source": "modeled_approximation",
        "model_basis": "base river elevation ~690m (Cauvery belt reference) + 4.5% average bank slope + local roughness",
        "verification_needed": true
      },
      "geometry": {
        "type": "Point",
        "coordinates": [
          77.295227,
          12.302815
        ]
      }
    },
    {
      "type": "Feature",
      "properties": {
        "elevation_m": 698.9,
        "slope_percent": 1.62,
        "distance_from_river_m": 143.9,
        "data_source": "modeled_approximation",
        "model_basis": "base river elevation ~690m (Cauvery belt reference) + 4.5% average bank slope + local roughness",
        "verification_needed": true
      },
      "geometry": {
        "type": "Point",
        "coordinates": [
          77.300744,
          12.302815
        ]
      }
    },
    {
      "type": "Feature",
      "properties": {
        "elevation_m": 698.5,
        "slope_percent": 2.09,
        "distance_from_river_m": 221.9,
        "data_source": "modeled_approximation",
        "model_basis": "base river elevation ~690m (Cauvery belt reference) + 4.5% average bank slope + local roughness",
        "verification_needed": true
      },
      "geometry": {
        "type": "Point",
        "coordinates": [
          77.306261,
          12.302815
        ]
      }
    },
    {
      "type": "Feature",
      "properties": {
        "elevation_m": 697.2,
        "slope_percent": 0.64,
        "distance_from_river_m": 109.5,
        "data_source": "modeled_approximation",
        "model_basis": "base river elevation ~690m (Cauvery belt reference) + 4.5% average bank slope + local roughness",
        "verification_needed": true
      },
      "geometry": {
        "type": "Point",
        "coordinates": [
          77.311777,
          12.302815
        ]
      }
    },
    {
      "type": "Feature",
      "properties": {
        "elevation_m": 700.7,
        "slope_percent": 1.55,
        "distance_from_river_m": 275.2,
        "data_source": "modeled_approximation",
        "model_basis": "base river elevation ~690m (Cauvery belt reference) + 4.5% average bank slope + local roughness",
        "verification_needed": true
      },
      "geometry": {
        "type": "Point",
        "coordinates": [
          77.317294,
          12.302815
        ]
      }
    },
    {
      "type": "Feature",
      "properties": {
        "elevation_m": 709.8,
        "slope_percent": 1.93,
        "distance_from_river_m": 383.2,
        "data_source": "modeled_approximation",
        "model_basis": "base river elevation ~690m (Cauvery belt reference) + 4.5% average bank slope + local roughness",
        "verification_needed": true
      },
      "geometry": {
        "type": "Point",
        "coordinates": [
          77.322811,
          12.302815
        ]
      }
    },
    {
      "type": "Feature",
      "properties": {
        "elevation_m": 706.1,
        "slope_percent": 2.25,
        "distance_from_river_m": 292.1,
        "data_source": "modeled_approximation",
        "model_basis": "base river elevation ~690m (Cauvery belt reference) + 4.5% average bank slope + local roughness",
        "verification_needed": true
      },
      "geometry": {
        "type": "Point",
        "coordinates": [
          77.328327,
          12.302815
        ]
      }
    },
    {
      "type": "Feature",
      "properties": {
        "elevation_m": 713.4,
        "slope_percent": 1.89,
        "distance_from_river_m": 457.1,
        "data_source": "modeled_approximation",
        "model_basis": "base river elevation ~690m (Cauvery belt reference) + 4.5% average bank slope + local roughness",
        "verification_needed": true
      },
      "geometry": {
        "type": "Point",
        "coordinates": [
          77.262128,
          12.308205
        ]
      }
    },
    {
      "type": "Feature",
      "properties": {
        "elevation_m": 708.9,
        "slope_percent": 1.48,
        "distance_from_river_m": 399.4,
        "data_source": "modeled_approximation",
        "model_basis": "base river elevation ~690m (Cauvery belt reference) + 4.5% average bank slope + local roughness",
        "verification_needed": true
      },
      "geometry": {
        "type": "Point",
        "coordinates": [
          77.267644,
          12.308205
        ]
      }
    },
    {
      "type": "Feature",
      "properties": {
        "elevation_m": 703.9,
        "slope_percent": 1.75,
        "distance_from_river_m": 249.3,
        "data_source": "modeled_approximation",
        "model_basis": "base river elevation ~690m (Cauvery belt reference) + 4.5% average bank slope + local roughness",
        "verification_needed": true
      },
      "geometry": {
        "type": "Point",
        "coordinates": [
          77.273161,
          12.308205
        ]
      }
    },
    {
      "type": "Feature",
      "properties": {
        "elevation_m": 693.3,
        "slope_percent": 1.07,
        "distance_from_river_m": 34.6,
        "data_source": "modeled_approximation",
        "model_basis": "base river elevation ~690m (Cauvery belt reference) + 4.5% average bank slope + local roughness",
        "verification_needed": true
      },
      "geometry": {
        "type": "Point",
        "coordinates": [
          77.278678,
          12.308205
        ]
      }
    },
    {
      "type": "Feature",
      "properties": {
        "elevation_m": 689.2,
        "slope_percent": 3.57,
        "distance_from_river_m": 44.7,
        "data_source": "modeled_approximation",
        "model_basis": "base river elevation ~690m (Cauvery belt reference) + 4.5% average bank slope + local roughness",
        "verification_needed": true
      },
      "geometry": {
        "type": "Point",
        "coordinates": [
          77.284194,
          12.308205
        ]
      }
    },
    {
      "type": "Feature",
      "properties": {
        "elevation_m": 704.7,
        "slope_percent": 1.89,
        "distance_from_river_m": 326.2,
        "data_source": "modeled_approximation",
        "model_basis": "base river elevation ~690m (Cauvery belt reference) + 4.5% average bank slope + local roughness",
        "verification_needed": true
      },
      "geometry": {
        "type": "Point",
        "coordinates": [
          77.289711,
          12.308205
        ]
      }
    },
    {
      "type": "Feature",
      "properties": {
        "elevation_m": 706.3,
        "slope_percent": 3.13,
        "distance_from_river_m": 379.3,
        "data_source": "modeled_approximation",
        "model_basis": "base river elevation ~690m (Cauvery belt reference) + 4.5% average bank slope + local roughness",
        "verification_needed": true
      },
      "geometry": {
        "type": "Point",
        "coordinates": [
          77.295227,
          12.308205
        ]
      }
    },
    {
      "type": "Feature",
      "properties": {
        "elevation_m": 717.9,
        "slope_percent": 2.51,
        "distance_from_river_m": 634.3,
        "data_source": "modeled_approximation",
        "model_basis": "base river elevation ~690m (Cauvery belt reference) + 4.5% average bank slope + local roughness",
        "verification_needed": true
      },
      "geometry": {
        "type": "Point",
        "coordinates": [
          77.300744,
          12.308205
        ]
      }
    },
    {
      "type": "Feature",
      "properties": {
        "elevation_m": 722.3,
        "slope_percent": 3.45,
        "distance_from_river_m": 716.7,
        "data_source": "modeled_approximation",
        "model_basis": "base river elevation ~690m (Cauvery belt reference) + 4.5% average bank slope + local roughness",
        "verification_needed": true
      },
      "geometry": {
        "type": "Point",
        "coordinates": [
          77.306261,
          12.308205
        ]
      }
    },
    {
      "type": "Feature",
      "properties": {
        "elevation_m": 701.4,
        "slope_percent": 2.68,
        "distance_from_river_m": 253.4,
        "data_source": "modeled_approximation",
        "model_basis": "base river elevation ~690m (Cauvery belt reference) + 4.5% average bank slope + local roughness",
        "verification_needed": true
      },
      "geometry": {
        "type": "Point",
        "coordinates": [
          77.311777,
          12.308205
        ]
      }
    },
    {
      "type": "Feature",
      "properties": {
        "elevation_m": 691.2,
        "slope_percent": 2.09,
        "distance_from_river_m": 42.2,
        "data_source": "modeled_approximation",
        "model_basis": "base river elevation ~690m (Cauvery belt reference) + 4.5% average bank slope + local roughness",
        "verification_needed": true
      },
      "geometry": {
        "type": "Point",
        "coordinates": [
          77.317294,
          12.308205
        ]
      }
    },
    {
      "type": "Feature",
      "properties": {
        "elevation_m": 690.3,
        "slope_percent": 2.16,
        "distance_from_river_m": 54.8,
        "data_source": "modeled_approximation",
        "model_basis": "base river elevation ~690m (Cauvery belt reference) + 4.5% average bank slope + local roughness",
        "verification_needed": true
      },
      "geometry": {
        "type": "Point",
        "coordinates": [
          77.322811,
          12.308205
        ]
      }
    },
    {
      "type": "Feature",
      "properties": {
        "elevation_m": 692.6,
        "slope_percent": 4.17,
        "distance_from_river_m": 66.4,
        "data_source": "modeled_approximation",
        "model_basis": "base river elevation ~690m (Cauvery belt reference) + 4.5% average bank slope + local roughness",
        "verification_needed": true
      },
      "geometry": {
        "type": "Point",
        "coordinates": [
          77.328327,
          12.308205
        ]
      }
    },
    {
      "type": "Feature",
      "properties": {
        "elevation_m": 695.2,
        "slope_percent": 0.15,
        "distance_from_river_m": 141.3,
        "data_source": "modeled_approximation",
        "model_basis": "base river elevation ~690m (Cauvery belt reference) + 4.5% average bank slope + local roughness",
        "verification_needed": true
      },
      "geometry": {
        "type": "Point",
        "coordinates": [
          77.262128,
          12.313595
        ]
      }
    },
    {
      "type": "Feature",
      "properties": {
        "elevation_m": 696.1,
        "slope_percent": 0.43,
        "distance_from_river_m": 88.2,
        "data_source": "modeled_approximation",
        "model_basis": "base river elevation ~690m (Cauvery belt reference) + 4.5% average bank slope + local roughness",
        "verification_needed": true
      },
      "geometry": {
        "type": "Point",
        "coordinates": [
          77.267644,
          12.313595
        ]
      }
    },
    {
      "type": "Feature",
      "properties": {
        "elevation_m": 693.5,
        "slope_percent": 1.42,
        "distance_from_river_m": 141.4,
        "data_source": "modeled_approximation",
        "model_basis": "base river elevation ~690m (Cauvery belt reference) + 4.5% average bank slope + local roughness",
        "verification_needed": true
      },
      "geometry": {
        "type": "Point",
        "coordinates": [
          77.273161,
          12.313595
        ]
      }
    },
    {
      "type": "Feature",
      "properties": {
        "elevation_m": 702.0,
        "slope_percent": 2.43,
        "distance_from_river_m": 314.9,
        "data_source": "modeled_approximation",
        "model_basis": "base river elevation ~690m (Cauvery belt reference) + 4.5% average bank slope + local roughness",
        "verification_needed": true
      },
      "geometry": {
        "type": "Point",
        "coordinates": [
          77.278678,
          12.313595
        ]
      }
    },
    {
      "type": "Feature",
      "properties": {
        "elevation_m": 716.6,
        "slope_percent": 1.53,
        "distance_from_river_m": 583.2,
        "data_source": "modeled_approximation",
        "model_basis": "base river elevation ~690m (Cauvery belt reference) + 4.5% average bank slope + local roughness",
        "verification_needed": true
      },
      "geometry": {
        "type": "Point",
        "coordinates": [
          77.284194,
          12.313595
        ]
      }
    },
    {
      "type": "Feature",
      "properties": {
        "elevation_m": 725.8,
        "slope_percent": 1.08,
        "distance_from_river_m": 851.7,
        "data_source": "modeled_approximation",
        "model_basis": "base river elevation ~690m (Cauvery belt reference) + 4.5% average bank slope + local roughness",
        "verification_needed": true
      },
      "geometry": {
        "type": "Point",
        "coordinates": [
          77.289711,
          12.313595
        ]
      }
    },
    {
      "type": "Feature",
      "properties": {
        "elevation_m": 732.3,
        "slope_percent": 1.88,
        "distance_from_river_m": 968.0,
        "data_source": "modeled_approximation",
        "model_basis": "base river elevation ~690m (Cauvery belt reference) + 4.5% average bank slope + local roughness",
        "verification_needed": true
      },
      "geometry": {
        "type": "Point",
        "coordinates": [
          77.295227,
          12.313595
        ]
      }
    },
    {
      "type": "Feature",
      "properties": {
        "elevation_m": 743.6,
        "slope_percent": 0.13,
        "distance_from_river_m": 1164.0,
        "data_source": "modeled_approximation",
        "model_basis": "base river elevation ~690m (Cauvery belt reference) + 4.5% average bank slope + local roughness",
        "verification_needed": true
      },
      "geometry": {
        "type": "Point",
        "coordinates": [
          77.300744,
          12.313595
        ]
      }
    },
    {
      "type": "Feature",
      "properties": {
        "elevation_m": 742.8,
        "slope_percent": 3.23,
        "distance_from_river_m": 1109.5,
        "data_source": "modeled_approximation",
        "model_basis": "base river elevation ~690m (Cauvery belt reference) + 4.5% average bank slope + local roughness",
        "verification_needed": true
      },
      "geometry": {
        "type": "Point",
        "coordinates": [
          77.306261,
          12.313595
        ]
      }
    },
    {
      "type": "Feature",
      "properties": {
        "elevation_m": 723.4,
        "slope_percent": 1.33,
        "distance_from_river_m": 759.6,
        "data_source": "modeled_approximation",
        "model_basis": "base river elevation ~690m (Cauvery belt reference) + 4.5% average bank slope + local roughness",
        "verification_needed": true
      },
      "geometry": {
        "type": "Point",
        "coordinates": [
          77.311777,
          12.313595
        ]
      }
    },
    {
      "type": "Feature",
      "properties": {
        "elevation_m": 715.4,
        "slope_percent": 0.25,
        "distance_from_river_m": 628.8,
        "data_source": "modeled_approximation",
        "model_basis": "base river elevation ~690m (Cauvery belt reference) + 4.5% average bank slope + local roughness",
        "verification_needed": true
      },
      "geometry": {
        "type": "Point",
        "coordinates": [
          77.317294,
          12.313595
        ]
      }
    },
    {
      "type": "Feature",
      "properties": {
        "elevation_m": 713.9,
        "slope_percent": 0.62,
        "distance_from_river_m": 535.6,
        "data_source": "modeled_approximation",
        "model_basis": "base river elevation ~690m (Cauvery belt reference) + 4.5% average bank slope + local roughness",
        "verification_needed": true
      },
      "geometry": {
        "type": "Point",
        "coordinates": [
          77.322811,
          12.313595
        ]
      }
    },
    {
      "type": "Feature",
      "properties": {
        "elevation_m": 717.6,
        "slope_percent": 0.0,
        "distance_from_river_m": 631.5,
        "data_source": "modeled_approximation",
        "model_basis": "base river elevation ~690m (Cauvery belt reference) + 4.5% average bank slope + local roughness",
        "verification_needed": true
      },
      "geometry": {
        "type": "Point",
        "coordinates": [
          77.328327,
          12.313595
        ]
      }
    }
  ]
}