{
  "type": "FeatureCollection",
  "name": "Muthathi_High_Ground_Safe_Zones",
  "features": [
    {
      "type": "Feature",
      "properties": {
        "zone_id": "HG01",
        "name": "Muthathi Hillock Temple Safe Zone (West)",
        "description": "Elevated hillock temple along the forest approach road, matching visitor reports of a 'small hill with a village temple' well above the river valley. Highest verified elevation point in the uploaded KML.",
        "elevation_m": 433.0,
        "location": "Muthathi, Kaveri River (Malavalli Taluk, Mandya District)",
        "data_source": "extracted_from_user_provided_kml_placemark",
        "verification_needed": false
      },
      "geometry": {
        "type": "Point",
        "coordinates": [77.272588, 12.313266]
      }
    },
    {
      "type": "Feature",
      "properties": {
        "zone_id": "HG02",
        "name": "Muthathi Hillock Temple Safe Zone (East)",
        "description": "Second elevated hillock temple further along the approach road, also well above the river valley floor. Serves as an alternate/secondary high-ground evacuation point.",
        "elevation_m": 427.6,
        "location": "Muthathi, Kaveri River (Malavalli Taluk, Mandya District)",
        "data_source": "extracted_from_user_provided_kml_placemark",
        "verification_needed": false
      },
      "geometry": {
        "type": "Point",
        "coordinates": [77.278428, 12.313933]
      }
    }
  ]
}
