{
  "type": "FeatureCollection",
  "name": "Muthathi Continuous Risk Surface - Full Marked Polygon",
  "features": [
    {
      "type": "Feature",
      "properties": {
        "site_id": "MUTHATHI-RIVER",
        "grid_id": "R01C05",
        "risk": 0.854,
        "status": "AVOID",
        "confidence": 0.78,
        "computed_at": "2026-09-07T15:40:00+05:30",
        "data_type": "continuous_risk_surface",
        "data_class": "synthetic_derived",
        "mvp_purpose": "exact_local_risk",
        "coverage": "full_marked_kml_polygon"
      },
      "geometry": {
        "type": "Polygon",
        "coordinates": [
          [
            [
              77.29509725,
              12.29306633
            ],
            [
              77.29509725,
              12.292034745171046
            ],
            [
              77.2938874,
              12.2926212
            ],
            [
              77.29284842190548,
              12.29306633
            ],
            [
              77.29509725,
              12.29306633
            ]
          ]
        ]
      }
    },
    {
      "type": "Feature",
      "properties": {
        "site_id": "MUTHATHI-RIVER",
        "grid_id": "R01C06",
        "risk": 0.715,
        "status": "AVOID",
        "confidence": 0.8,
        "computed_at": "2026-09-07T15:40:00+05:30",
        "data_type": "continuous_risk_surface",
        "data_class": "synthetic_derived",
        "mvp_purpose": "exact_local_risk",
        "coverage": "full_marked_kml_polygon"
      },
      "geometry": {
        "type": "Polygon",
        "coordinates": [
          [
            [
              77.29509725,
              12.29306633
            ],
            [
              77.30189538,
              12.29306633
            ],
            [
              77.30189538,
              12.290693950616877
            ],
            [
              77.2989475,
              12.2901684
            ],
            [
              77.29509725,
              12.292034745171046
            ],
            [
              77.29509725,
              12.29306633
            ]
          ]
        ]
      }
    },
    {
      "type": "Feature",
      "properties": {
        "site_id": "MUTHATHI-RIVER",
        "grid_id": "R01C07",
        "risk": 0.742,
        "status": "AVOID",
        "confidence": 0.82,
        "computed_at": "2026-09-07T15:40:00+05:30",
        "data_type": "continuous_risk_surface",
        "data_class": "synthetic_derived",
        "mvp_purpose": "exact_local_risk",
        "coverage": "full_marked_kml_polygon"
      },
      "geometry": {
        "type": "Polygon",
        "coordinates": [
          [
            [
              77.30189538,
              12.29306633
            ],
            [
              77.30869351000001,
              12.29306633
            ],
            [
              77.30869351000001,
              12.29237482237921
            ],
            [
              77.3069248,
              12.2915906
            ],
            [
              77.30189538,
              12.290693950616877
            ],
            [
              77.30189538,
              12.29306633
            ]
          ]
        ]
      }
    },
    {
      "type": "Feature",
      "properties": {
        "site_id": "MUTHATHI-RIVER",
        "grid_id": "R01C08",
        "risk": 0.629,
        "status": "AVOID",
        "confidence": 0.84,
        "computed_at": "2026-09-07T15:40:00+05:30",
        "data_type": "continuous_risk_surface",
        "data_class": "synthetic_derived",
        "mvp_purpose": "exact_local_risk",
        "coverage": "full_marked_kml_polygon"
      },
      "geometry": {
        "type": "Polygon",
        "coordinates": [
          [
            [
              77.30869351000001,
              12.29306633
            ],
            [
              77.31025311410771,
              12.29306633
            ],
            [
              77.30869351000001,
              12.29237482237921
            ],
            [
              77.30869351000001,
              12.29306633
            ]
          ]
        ]
      }
    },
    {
      "type": "Feature",
      "properties": {
        "site_id": "MUTHATHI-RIVER",
        "grid_id": "R02C04",
        "risk": 0.603,
        "status": "AVOID",
        "confidence": 0.78,
        "computed_at": "2026-09-07T15:40:00+05:30",
        "data_type": "continuous_risk_surface",
        "data_class": "synthetic_derived",
        "mvp_purpose": "exact_local_risk",
        "coverage": "full_marked_kml_polygon"
      },
      "geometry": {
        "type": "Polygon",
        "coordinates": [
          [
            [
              77.28829912,
              12.29596426
            ],
            [
              77.28829912,
              12.295090003789937
            ],
            [
              77.28698700653044,
              12.29596426
            ],
            [
              77.28829912,
              12.29596426
            ]
          ]
        ]
      }
    },
    {
      "type": "Feature",
      "properties": {
        "site_id": "MUTHATHI-RIVER",
        "grid_id": "R02C05",
        "risk": 0.736,
        "status": "AVOID",
        "confidence": 0.8,
        "computed_at": "2026-09-07T15:40:00+05:30",
        "data_type": "continuous_risk_surface",
        "data_class": "synthetic_derived",
        "mvp_purpose": "exact_local_risk",
        "coverage": "full_marked_kml_polygon"
      },
      "geometry": {
        "type": "Polygon",
        "coordinates": [
          [
            [
              77.28829912,
              12.29596426
            ],
            [
              77.29509725,
              12.29596426
            ],
            [
              77.29509725,
              12.29306633
            ],
            [
              77.29284842190548,
              12.29306633
            ],
            [
              77.2886128,
              12.294881
            ],
            [
              77.28829912,
              12.295090003789937
            ],
            [
              77.28829912,
              12.29596426
            ]
          ]
        ]
      }
    },
    {
      "type": "Feature",
      "properties": {
        "site_id": "MUTHATHI-RIVER",
        "grid_id": "R02C06",
        "risk": 0.837,
        "status": "AVOID",
        "confidence": 0.82,
        "computed_at": "2026-09-07T15:40:00+05:30",
        "data_type": "continuous_risk_surface",
        "data_class": "synthetic_derived",
        "mvp_purpose": "exact_local_risk",
        "coverage": "full_marked_kml_polygon"
      },
      "geometry": {
        "type": "Polygon",
        "coordinates": [
          [
            [
              77.29509725,
              12.29306633
            ],
            [
              77.29509725,
              12.29596426
            ],
            [
              77.30189538,
              12.29596426
            ],
            [
              77.30189538,
              12.29306633
            ],
            [
              77.29509725,
              12.29306633
            ]
          ]
        ]
      }
    },
    {
      "type": "Feature",
      "properties": {
        "site_id": "MUTHATHI-RIVER",
        "grid_id": "R02C07",
        "risk": 0.724,
        "status": "AVOID",
        "confidence": 0.84,
        "computed_at": "2026-09-07T15:40:00+05:30",
        "data_type": "continuous_risk_surface",
        "data_class": "synthetic_derived",
        "mvp_purpose": "exact_local_risk",
        "coverage": "full_marked_kml_polygon"
      },
      "geometry": {
        "type": "Polygon",
        "coordinates": [
          [
            [
              77.30189538,
              12.29306633
            ],
            [
              77.30189538,
              12.29596426
            ],
            [
              77.30869351000001,
              12.29596426
            ],
            [
              77.30869351000001,
              12.29306633
            ],
            [
              77.30189538,
              12.29306633
            ]
          ]
        ]
      }
    },
    {
      "type": "Feature",
      "properties": {
        "site_id": "MUTHATHI-RIVER",
        "grid_id": "R02C08",
        "risk": 0.751,
        "status": "AVOID",
        "confidence": 0.86,
        "computed_at": "2026-09-07T15:40:00+05:30",
        "data_type": "continuous_risk_surface",
        "data_class": "synthetic_derived",
        "mvp_purpose": "exact_local_risk",
        "coverage": "full_marked_kml_polygon"
      },
      "geometry": {
        "type": "Polygon",
        "coordinates": [
          [
            [
              77.30869351000001,
              12.29306633
            ],
            [
              77.30869351000001,
              12.29596426
            ],
            [
              77.31516174932966,
              12.29596426
            ],
            [
              77.3139099,
              12.2946877
            ],
            [
              77.31025311410771,
              12.29306633
            ],
            [
              77.30869351000001,
              12.29306633
            ]
          ]
        ]
      }
    },
    {
      "type": "Feature",
      "properties": {
        "site_id": "MUTHATHI-RIVER",
        "grid_id": "R03C02",
        "risk": 0.598,
        "status": "CAUTION",
        "confidence": 0.76,
        "computed_at": "2026-09-07T15:40:00+05:30",
        "data_type": "continuous_risk_surface",
        "data_class": "synthetic_derived",
        "mvp_purpose": "exact_local_risk",
        "coverage": "full_marked_kml_polygon"
      },
      "geometry": {
        "type": "Polygon",
        "coordinates": [
          [
            [
              77.27470286,
              12.298862190000001
            ],
            [
              77.27470286,
              12.298446563923754
            ],
            [
              77.272612,
              12.2984677
            ],
            [
              77.2719982009602,
              12.298862190000001
            ],
            [
              77.27470286,
              12.298862190000001
            ]
          ]
        ]
      }
    },
    {
      "type": "Feature",
      "properties": {
        "site_id": "MUTHATHI-RIVER",
        "grid_id": "R03C03",
        "risk": 0.591,
        "status": "CAUTION",
        "confidence": 0.78,
        "computed_at": "2026-09-07T15:40:00+05:30",
        "data_type": "continuous_risk_surface",
        "data_class": "synthetic_derived",
        "mvp_purpose": "exact_local_risk",
        "coverage": "full_marked_kml_polygon"
      },
      "geometry": {
        "type": "Polygon",
        "coordinates": [
          [
            [
              77.27470286,
              12.298862190000001
            ],
            [
              77.28150099000001,
              12.298862190000001
            ],
            [
              77.28150099000001,
              12.297864790789767
            ],
            [
              77.2786749,
              12.2980976
            ],
            [
              77.2772587,
              12.2981395
            ],
            [
              77.2759853,
              12.2984336
            ],
            [
              77.27470286,
              12.298446563923754
            ],
            [
              77.27470286,
              12.298862190000001
            ]
          ]
        ]
      }
    },
    {
      "type": "Feature",
      "properties": {
        "site_id": "MUTHATHI-RIVER",
        "grid_id": "R03C04",
        "risk": 0.725,
        "status": "AVOID",
        "confidence": 0.8,
        "computed_at": "2026-09-07T15:40:00+05:30",
        "data_type": "continuous_risk_surface",
        "data_class": "synthetic_derived",
        "mvp_purpose": "exact_local_risk",
        "coverage": "full_marked_kml_polygon"
      },
      "geometry": {
        "type": "Polygon",
        "coordinates": [
          [
            [
              77.28150099000001,
              12.298862190000001
            ],
            [
              77.28829912,
              12.298862190000001
            ],
            [
              77.28829912,
              12.29596426
            ],
            [
              77.28698700653044,
              12.29596426
            ],
            [
              77.2860935,
              12.2965596
            ],
            [
              77.2823494,
              12.2977949
            ],
            [
              77.28150099000001,
              12.297864790789767
            ],
            [
              77.28150099000001,
              12.298862190000001
            ]
          ]
        ]
      }
    },
    {
      "type": "Feature",
      "properties": {
        "site_id": "MUTHATHI-RIVER",
        "grid_id": "R03C05",
        "risk": 0.718,
        "status": "AVOID",
        "confidence": 0.82,
        "computed_at": "2026-09-07T15:40:00+05:30",
        "data_type": "continuous_risk_surface",
        "data_class": "synthetic_derived",
        "mvp_purpose": "exact_local_risk",
        "coverage": "full_marked_kml_polygon"
      },
      "geometry": {
        "type": "Polygon",
        "coordinates": [
          [
            [
              77.28829912,
              12.29596426
            ],
            [
              77.28829912,
              12.298862190000001
            ],
            [
              77.29509725,
              12.298862190000001
            ],
            [
              77.29509725,
              12.29596426
            ],
            [
              77.28829912,
              12.29596426
            ]
          ]
        ]
      }
    },
    {
      "type": "Feature",
      "properties": {
        "site_id": "MUTHATHI-RIVER",
        "grid_id": "R03C06",
        "risk": 0.819,
        "status": "AVOID",
        "confidence": 0.84,
        "computed_at": "2026-09-07T15:40:00+05:30",
        "data_type": "continuous_risk_surface",
        "data_class": "synthetic_derived",
        "mvp_purpose": "exact_local_risk",
        "coverage": "full_marked_kml_polygon"
      },
      "geometry": {
        "type": "Polygon",
        "coordinates": [
          [
            [
              77.29509725,
              12.29596426
            ],
            [
              77.29509725,
              12.298862190000001
            ],
            [
              77.30189538,
              12.298862190000001
            ],
            [
              77.30189538,
              12.29596426
            ],
            [
              77.29509725,
              12.29596426
            ]
          ]
        ]
      }
    },
    {
      "type": "Feature",
      "properties": {
        "site_id": "MUTHATHI-RIVER",
        "grid_id": "R03C07",
        "risk": 0.606,
        "status": "AVOID",
        "confidence": 0.86,
        "computed_at": "2026-09-07T15:40:00+05:30",
        "data_type": "continuous_risk_surface",
        "data_class": "synthetic_derived",
        "mvp_purpose": "exact_local_risk",
        "coverage": "full_marked_kml_polygon"
      },
      "geometry": {
        "type": "Polygon",
        "coordinates": [
          [
            [
              77.30189538,
              12.29596426
            ],
            [
              77.30189538,
              12.298862190000001
            ],
            [
              77.30869351000001,
              12.298862190000001
            ],
            [
              77.30869351000001,
              12.29596426
            ],
            [
              77.30189538,
              12.29596426
            ]
          ]
        ]
      }
    },
    {
      "type": "Feature",
      "properties": {
        "site_id": "MUTHATHI-RIVER",
        "grid_id": "R03C08",
        "risk": 0.633,
        "status": "AVOID",
        "confidence": 0.88,
        "computed_at": "2026-09-07T15:40:00+05:30",
        "data_type": "continuous_risk_surface",
        "data_class": "synthetic_derived",
        "mvp_purpose": "exact_local_risk",
        "coverage": "full_marked_kml_polygon"
      },
      "geometry": {
        "type": "Polygon",
        "coordinates": [
          [
            [
              77.30869351000001,
              12.29596426
            ],
            [
              77.30869351000001,
              12.298862190000001
            ],
            [
              77.31549164,
              12.298862190000001
            ],
            [
              77.31549164,
              12.296300662492028
            ],
            [
              77.31516174932966,
              12.29596426
            ],
            [
              77.30869351000001,
              12.29596426
            ]
          ]
        ]
      }
    },
    {
      "type": "Feature",
      "properties": {
        "site_id": "MUTHATHI-RIVER",
        "grid_id": "R03C09",
        "risk": 0.659,
        "status": "AVOID",
        "confidence": 0.7,
        "computed_at": "2026-09-07T15:40:00+05:30",
        "data_type": "continuous_risk_surface",
        "data_class": "synthetic_derived",
        "mvp_purpose": "exact_local_risk",
        "coverage": "full_marked_kml_polygon"
      },
      "geometry": {
        "type": "Polygon",
        "coordinates": [
          [
            [
              77.31549164,
              12.298862190000001
            ],
            [
              77.31937456915537,
              12.298862190000001
            ],
            [
              77.3176081,
              12.2984589
            ],
            [
              77.31549164,
              12.296300662492028
            ],
            [
              77.31549164,
              12.298862190000001
            ]
          ]
        ]
      }
    },
    {
      "type": "Feature",
      "properties": {
        "site_id": "MUTHATHI-RIVER",
        "grid_id": "R04C02",
        "risk": 0.58,
        "status": "CAUTION",
        "confidence": 0.78,
        "computed_at": "2026-09-07T15:40:00+05:30",
        "data_type": "continuous_risk_surface",
        "data_class": "synthetic_derived",
        "mvp_purpose": "exact_local_risk",
        "coverage": "full_marked_kml_polygon"
      },
      "geometry": {
        "type": "Polygon",
        "coordinates": [
          [
            [
              77.27470286,
              12.30176012
            ],
            [
              77.27470286,
              12.298862190000001
            ],
            [
              77.2719982009602,
              12.298862190000001
            ],
            [
              77.2697536,
              12.3003048
            ],
            [
              77.26878889614304,
              12.30176012
            ],
            [
              77.27470286,
              12.30176012
            ]
          ]
        ]
      }
    },
    {
      "type": "Feature",
      "properties": {
        "site_id": "MUTHATHI-RIVER",
        "grid_id": "R04C03",
        "risk": 0.573,
        "status": "CAUTION",
        "confidence": 0.8,
        "computed_at": "2026-09-07T15:40:00+05:30",
        "data_type": "continuous_risk_surface",
        "data_class": "synthetic_derived",
        "mvp_purpose": "exact_local_risk",
        "coverage": "full_marked_kml_polygon"
      },
      "geometry": {
        "type": "Polygon",
        "coordinates": [
          [
            [
              77.27470286,
              12.298862190000001
            ],
            [
              77.27470286,
              12.30176012
            ],
            [
              77.28150099000001,
              12.30176012
            ],
            [
              77.28150099000001,
              12.298862190000001
            ],
            [
              77.27470286,
              12.298862190000001
            ]
          ]
        ]
      }
    },
    {
      "type": "Feature",
      "properties": {
        "site_id": "MUTHATHI-RIVER",
        "grid_id": "R04C04",
        "risk": 0.707,
        "status": "AVOID",
        "confidence": 0.82,
        "computed_at": "2026-09-07T15:40:00+05:30",
        "data_type": "continuous_risk_surface",
        "data_class": "synthetic_derived",
        "mvp_purpose": "exact_local_risk",
        "coverage": "full_marked_kml_polygon"
      },
      "geometry": {
        "type": "Polygon",
        "coordinates": [
          [
            [
              77.28150099000001,
              12.298862190000001
            ],
            [
              77.28150099000001,
              12.30176012
            ],
            [
              77.28829912,
              12.30176012
            ],
            [
              77.28829912,
              12.298862190000001
            ],
            [
              77.28150099000001,
              12.298862190000001
            ]
          ]
        ]
      }
    },
    {
      "type": "Feature",
      "properties": {
        "site_id": "MUTHATHI-RIVER",
        "grid_id": "R04C05",
        "risk": 0.74,
        "status": "AVOID",
        "confidence": 0.84,
        "computed_at": "2026-09-07T15:40:00+05:30",
        "data_type": "continuous_risk_surface",
        "data_class": "synthetic_derived",
        "mvp_purpose": "exact_local_risk",
        "coverage": "full_marked_kml_polygon"
      },
      "geometry": {
        "type": "Polygon",
        "coordinates": [
          [
            [
              77.28829912,
              12.298862190000001
            ],
            [
              77.28829912,
              12.30176012
            ],
            [
              77.29509725,
              12.30176012
            ],
            [
              77.29509725,
              12.298862190000001
            ],
            [
              77.28829912,
              12.298862190000001
            ]
          ]
        ]
      }
    },
    {
      "type": "Feature",
      "properties": {
        "site_id": "MUTHATHI-RIVER",
        "grid_id": "R04C06",
        "risk": 0.701,
        "status": "AVOID",
        "confidence": 0.86,
        "computed_at": "2026-09-07T15:40:00+05:30",
        "data_type": "continuous_risk_surface",
        "data_class": "synthetic_derived",
        "mvp_purpose": "exact_local_risk",
        "coverage": "full_marked_kml_polygon"
      },
      "geometry": {
        "type": "Polygon",
        "coordinates": [
          [
            [
              77.29509725,
              12.298862190000001
            ],
            [
              77.29509725,
              12.30176012
            ],
            [
              77.30189538,
              12.30176012
            ],
            [
              77.30189538,
              12.298862190000001
            ],
            [
              77.29509725,
              12.298862190000001
            ]
          ]
        ]
      }
    },
    {
      "type": "Feature",
      "properties": {
        "site_id": "MUTHATHI-RIVER",
        "grid_id": "R04C07",
        "risk": 0.728,
        "status": "AVOID",
        "confidence": 0.88,
        "computed_at": "2026-09-07T15:40:00+05:30",
        "data_type": "continuous_risk_surface",
        "data_class": "synthetic_derived",
        "mvp_purpose": "exact_local_risk",
        "coverage": "full_marked_kml_polygon"
      },
      "geometry": {
        "type": "Polygon",
        "coordinates": [
          [
            [
              77.30189538,
              12.298862190000001
            ],
            [
              77.30189538,
              12.30176012
            ],
            [
              77.30869351000001,
              12.30176012
            ],
            [
              77.30869351000001,
              12.298862190000001
            ],
            [
              77.30189538,
              12.298862190000001
            ]
          ]
        ]
      }
    },
    {
      "type": "Feature",
      "properties": {
        "site_id": "MUTHATHI-RIVER",
        "grid_id": "R04C08",
        "risk": 0.615,
        "status": "AVOID",
        "confidence": 0.7,
        "computed_at": "2026-09-07T15:40:00+05:30",
        "data_type": "continuous_risk_surface",
        "data_class": "synthetic_derived",
        "mvp_purpose": "exact_local_risk",
        "coverage": "full_marked_kml_polygon"
      },
      "geometry": {
        "type": "Polygon",
        "coordinates": [
          [
            [
              77.30869351000001,
              12.298862190000001
            ],
            [
              77.30869351000001,
              12.30176012
            ],
            [
              77.31549164,
              12.30176012
            ],
            [
              77.31549164,
              12.298862190000001
            ],
            [
              77.30869351000001,
              12.298862190000001
            ]
          ]
        ]
      }
    },
    {
      "type": "Feature",
      "properties": {
        "site_id": "MUTHATHI-RIVER",
        "grid_id": "R04C09",
        "risk": 0.641,
        "status": "AVOID",
        "confidence": 0.72,
        "computed_at": "2026-09-07T15:40:00+05:30",
        "data_type": "continuous_risk_surface",
        "data_class": "synthetic_derived",
        "mvp_purpose": "exact_local_risk",
        "coverage": "full_marked_kml_polygon"
      },
      "geometry": {
        "type": "Polygon",
        "coordinates": [
          [
            [
              77.31549164,
              12.298862190000001
            ],
            [
              77.31549164,
              12.30176012
            ],
            [
              77.32228977,
              12.30176012
            ],
            [
              77.32228977,
              12.299527738755865
            ],
            [
              77.31937456915537,
              12.298862190000001
            ],
            [
              77.31549164,
              12.298862190000001
            ]
          ]
        ]
      }
    },
    {
      "type": "Feature",
      "properties": {
        "site_id": "MUTHATHI-RIVER",
        "grid_id": "R04C10",
        "risk": 0.428,
        "status": "CAUTION",
        "confidence": 0.74,
        "computed_at": "2026-09-07T15:40:00+05:30",
        "data_type": "continuous_risk_surface",
        "data_class": "synthetic_derived",
        "mvp_purpose": "exact_local_risk",
        "coverage": "full_marked_kml_polygon"
      },
      "geometry": {
        "type": "Polygon",
        "coordinates": [
          [
            [
              77.32228977,
              12.30176012
            ],
            [
              77.32589224714425,
              12.30176012
            ],
            [
              77.3246194,
              12.3000596
            ],
            [
              77.32228977,
              12.299527738755865
            ],
            [
              77.32228977,
              12.30176012
            ]
          ]
        ]
      }
    },
    {
      "type": "Feature",
      "properties": {
        "site_id": "MUTHATHI-RIVER",
        "grid_id": "R05C01",
        "risk": 0.569,
        "status": "CAUTION",
        "confidence": 0.78,
        "computed_at": "2026-09-07T15:40:00+05:30",
        "data_type": "continuous_risk_surface",
        "data_class": "synthetic_derived",
        "mvp_purpose": "exact_local_risk",
        "coverage": "full_marked_kml_polygon"
      },
      "geometry": {
        "type": "Polygon",
        "coordinates": [
          [
            [
              77.26790473,
              12.30465805
            ],
            [
              77.26790473,
              12.303085210661957
            ],
            [
              77.2671089,
              12.3041993
            ],
            [
              77.26666418739906,
              12.30465805
            ],
            [
              77.26790473,
              12.30465805
            ]
          ]
        ]
      }
    },
    {
      "type": "Feature",
      "properties": {
        "site_id": "MUTHATHI-RIVER",
        "grid_id": "R05C02",
        "risk": 0.562,
        "status": "CAUTION",
        "confidence": 0.8,
        "computed_at": "2026-09-07T15:40:00+05:30",
        "data_type": "continuous_risk_surface",
        "data_class": "synthetic_derived",
        "mvp_purpose": "exact_local_risk",
        "coverage": "full_marked_kml_polygon"
      },
      "geometry": {
        "type": "Polygon",
        "coordinates": [
          [
            [
              77.26790473,
              12.30465805
            ],
            [
              77.27470286,
              12.30465805
            ],
            [
              77.27470286,
              12.30176012
            ],
            [
              77.26878889614304,
              12.30176012
            ],
            [
              77.2679851,
              12.3029727
            ],
            [
              77.26790473,
              12.303085210661957
            ],
            [
              77.26790473,
              12.30465805
            ]
          ]
        ]
      }
    },
    {
      "type": "Feature",
      "properties": {
        "site_id": "MUTHATHI-RIVER",
        "grid_id": "R05C03",
        "risk": 0.595,
        "status": "CAUTION",
        "confidence": 0.82,
        "computed_at": "2026-09-07T15:40:00+05:30",
        "data_type": "continuous_risk_surface",
        "data_class": "synthetic_derived",
        "mvp_purpose": "exact_local_risk",
        "coverage": "full_marked_kml_polygon"
      },
      "geometry": {
        "type": "Polygon",
        "coordinates": [
          [
            [
              77.27470286,
              12.30176012
            ],
            [
              77.27470286,
              12.30465805
            ],
            [
              77.28150099000001,
              12.30465805
            ],
            [
              77.28150099000001,
              12.30176012
            ],
            [
              77.27470286,
              12.30176012
            ]
          ]
        ]
      }
    },
    {
      "type": "Feature",
      "properties": {
        "site_id": "MUTHATHI-RIVER",
        "grid_id": "R05C04",
        "risk": 0.589,
        "status": "CAUTION",
        "confidence": 0.84,
        "computed_at": "2026-09-07T15:40:00+05:30",
        "data_type": "continuous_risk_surface",
        "data_class": "synthetic_derived",
        "mvp_purpose": "exact_local_risk",
        "coverage": "full_marked_kml_polygon"
      },
      "geometry": {
        "type": "Polygon",
        "coordinates": [
          [
            [
              77.28150099000001,
              12.30176012
            ],
            [
              77.28150099000001,
              12.30465805
            ],
            [
              77.28829912,
              12.30465805
            ],
            [
              77.28829912,
              12.30176012
            ],
            [
              77.28150099000001,
              12.30176012
            ]
          ]
        ]
      }
    },
    {
      "type": "Feature",
      "properties": {
        "site_id": "MUTHATHI-RIVER",
        "grid_id": "R05C05",
        "risk": 0.722,
        "status": "AVOID",
        "confidence": 0.86,
        "computed_at": "2026-09-07T15:40:00+05:30",
        "data_type": "continuous_risk_surface",
        "data_class": "synthetic_derived",
        "mvp_purpose": "exact_local_risk",
        "coverage": "full_marked_kml_polygon"
      },
      "geometry": {
        "type": "Polygon",
        "coordinates": [
          [
            [
              77.28829912,
              12.30176012
            ],
            [
              77.28829912,
              12.30465805
            ],
            [
              77.29509725,
              12.30465805
            ],
            [
              77.29509725,
              12.30176012
            ],
            [
              77.28829912,
              12.30176012
            ]
          ]
        ]
      }
    },
    {
      "type": "Feature",
      "properties": {
        "site_id": "MUTHATHI-RIVER",
        "grid_id": "R05C06",
        "risk": 0.683,
        "status": "AVOID",
        "confidence": 0.88,
        "computed_at": "2026-09-07T15:40:00+05:30",
        "data_type": "continuous_risk_surface",
        "data_class": "synthetic_derived",
        "mvp_purpose": "exact_local_risk",
        "coverage": "full_marked_kml_polygon"
      },
      "geometry": {
        "type": "Polygon",
        "coordinates": [
          [
            [
              77.29509725,
              12.30176012
            ],
            [
              77.29509725,
              12.30465805
            ],
            [
              77.30189538,
              12.30465805
            ],
            [
              77.30189538,
              12.30176012
            ],
            [
              77.29509725,
              12.30176012
            ]
          ]
        ]
      }
    },
    {
      "type": "Feature",
      "properties": {
        "site_id": "MUTHATHI-RIVER",
        "grid_id": "R05C07",
        "risk": 0.71,
        "status": "AVOID",
        "confidence": 0.7,
        "computed_at": "2026-09-07T15:40:00+05:30",
        "data_type": "continuous_risk_surface",
        "data_class": "synthetic_derived",
        "mvp_purpose": "exact_local_risk",
        "coverage": "full_marked_kml_polygon"
      },
      "geometry": {
        "type": "Polygon",
        "coordinates": [
          [
            [
              77.30189538,
              12.30176012
            ],
            [
              77.30189538,
              12.30465805
            ],
            [
              77.30869351000001,
              12.30465805
            ],
            [
              77.30869351000001,
              12.30176012
            ],
            [
              77.30189538,
              12.30176012
            ]
          ]
        ]
      }
    },
    {
      "type": "Feature",
      "properties": {
        "site_id": "MUTHATHI-RIVER",
        "grid_id": "R05C08",
        "risk": 0.637,
        "status": "AVOID",
        "confidence": 0.72,
        "computed_at": "2026-09-07T15:40:00+05:30",
        "data_type": "continuous_risk_surface",
        "data_class": "synthetic_derived",
        "mvp_purpose": "exact_local_risk",
        "coverage": "full_marked_kml_polygon"
      },
      "geometry": {
        "type": "Polygon",
        "coordinates": [
          [
            [
              77.30869351000001,
              12.30176012
            ],
            [
              77.30869351000001,
              12.30465805
            ],
            [
              77.31549164,
              12.30465805
            ],
            [
              77.31549164,
              12.30176012
            ],
            [
              77.30869351000001,
              12.30176012
            ]
          ]
        ]
      }
    },
    {
      "type": "Feature",
      "properties": {
        "site_id": "MUTHATHI-RIVER",
        "grid_id": "R05C09",
        "risk": 0.523,
        "status": "CAUTION",
        "confidence": 0.74,
        "computed_at": "2026-09-07T15:40:00+05:30",
        "data_type": "continuous_risk_surface",
        "data_class": "synthetic_derived",
        "mvp_purpose": "exact_local_risk",
        "coverage": "full_marked_kml_polygon"
      },
      "geometry": {
        "type": "Polygon",
        "coordinates": [
          [
            [
              77.31549164,
              12.30176012
            ],
            [
              77.31549164,
              12.30465805
            ],
            [
              77.32228977,
              12.30465805
            ],
            [
              77.32228977,
              12.30176012
            ],
            [
              77.31549164,
              12.30176012
            ]
          ]
        ]
      }
    },
    {
      "type": "Feature",
      "properties": {
        "site_id": "MUTHATHI-RIVER",
        "grid_id": "R05C10",
        "risk": 0.55,
        "status": "CAUTION",
        "confidence": 0.76,
        "computed_at": "2026-09-07T15:40:00+05:30",
        "data_type": "continuous_risk_surface",
        "data_class": "synthetic_derived",
        "mvp_purpose": "exact_local_risk",
        "coverage": "full_marked_kml_polygon"
      },
      "geometry": {
        "type": "Polygon",
        "coordinates": [
          [
            [
              77.32228977,
              12.30176012
            ],
            [
              77.32228977,
              12.30465805
            ],
            [
              77.32761838197533,
              12.30465805
            ],
            [
              77.3262337,
              12.3022163
            ],
            [
              77.32589224714425,
              12.30176012
            ],
            [
              77.32228977,
              12.30176012
            ]
          ]
        ]
      }
    },
    {
      "type": "Feature",
      "properties": {
        "site_id": "MUTHATHI-RIVER",
        "grid_id": "R06C01",
        "risk": 0.451,
        "status": "CAUTION",
        "confidence": 0.8,
        "computed_at": "2026-09-07T15:40:00+05:30",
        "data_type": "continuous_risk_surface",
        "data_class": "synthetic_derived",
        "mvp_purpose": "exact_local_risk",
        "coverage": "full_marked_kml_polygon"
      },
      "geometry": {
        "type": "Polygon",
        "coordinates": [
          [
            [
              77.26790473,
              12.30755598
            ],
            [
              77.26790473,
              12.30465805
            ],
            [
              77.26666418739906,
              12.30465805
            ],
            [
              77.265056,
              12.306317
            ],
            [
              77.2628527,
              12.3066535
            ],
            [
              77.26203659335128,
              12.30755598
            ],
            [
              77.26790473,
              12.30755598
            ]
          ]
        ]
      }
    },
    {
      "type": "Feature",
      "properties": {
        "site_id": "MUTHATHI-RIVER",
        "grid_id": "R06C02",
        "risk": 0.444,
        "status": "CAUTION",
        "confidence": 0.82,
        "computed_at": "2026-09-07T15:40:00+05:30",
        "data_type": "continuous_risk_surface",
        "data_class": "synthetic_derived",
        "mvp_purpose": "exact_local_risk",
        "coverage": "full_marked_kml_polygon"
      },
      "geometry": {
        "type": "Polygon",
        "coordinates": [
          [
            [
              77.26790473,
              12.30465805
            ],
            [
              77.26790473,
              12.30755598
            ],
            [
              77.27470286,
              12.30755598
            ],
            [
              77.27470286,
              12.30465805
            ],
            [
              77.26790473,
              12.30465805
            ]
          ]
        ]
      }
    },
    {
      "type": "Feature",
      "properties": {
        "site_id": "MUTHATHI-RIVER",
        "grid_id": "R06C03",
        "risk": 0.577,
        "status": "CAUTION",
        "confidence": 0.84,
        "computed_at": "2026-09-07T15:40:00+05:30",
        "data_type": "continuous_risk_surface",
        "data_class": "synthetic_derived",
        "mvp_purpose": "exact_local_risk",
        "coverage": "full_marked_kml_polygon"
      },
      "geometry": {
        "type": "Polygon",
        "coordinates": [
          [
            [
              77.27470286,
              12.30465805
            ],
            [
              77.27470286,
              12.30755598
            ],
            [
              77.28150099000001,
              12.30755598
            ],
            [
              77.28150099000001,
              12.30465805
            ],
            [
              77.27470286,
              12.30465805
            ]
          ]
        ]
      }
    },
    {
      "type": "Feature",
      "properties": {
        "site_id": "MUTHATHI-RIVER",
        "grid_id": "R06C04",
        "risk": 0.711,
        "status": "AVOID",
        "confidence": 0.86,
        "computed_at": "2026-09-07T15:40:00+05:30",
        "data_type": "continuous_risk_surface",
        "data_class": "synthetic_derived",
        "mvp_purpose": "exact_local_risk",
        "coverage": "full_marked_kml_polygon"
      },
      "geometry": {
        "type": "Polygon",
        "coordinates": [
          [
            [
              77.28150099000001,
              12.30465805
            ],
            [
              77.28150099000001,
              12.30755598
            ],
            [
              77.28829912,
              12.30755598
            ],
            [
              77.28829912,
              12.30465805
            ],
            [
              77.28150099000001,
              12.30465805
            ]
          ]
        ]
      }
    },
    {
      "type": "Feature",
      "properties": {
        "site_id": "MUTHATHI-RIVER",
        "grid_id": "R06C05",
        "risk": 0.704,
        "status": "AVOID",
        "confidence": 0.88,
        "computed_at": "2026-09-07T15:40:00+05:30",
        "data_type": "continuous_risk_surface",
        "data_class": "synthetic_derived",
        "mvp_purpose": "exact_local_risk",
        "coverage": "full_marked_kml_polygon"
      },
      "geometry": {
        "type": "Polygon",
        "coordinates": [
          [
            [
              77.28829912,
              12.30465805
            ],
            [
              77.28829912,
              12.30755598
            ],
            [
              77.29509725,
              12.30755598
            ],
            [
              77.29509725,
              12.30465805
            ],
            [
              77.28829912,
              12.30465805
            ]
          ]
        ]
      }
    },
    {
      "type": "Feature",
      "properties": {
        "site_id": "MUTHATHI-RIVER",
        "grid_id": "R06C06",
        "risk": 0.705,
        "status": "AVOID",
        "confidence": 0.7,
        "computed_at": "2026-09-07T15:40:00+05:30",
        "data_type": "continuous_risk_surface",
        "data_class": "synthetic_derived",
        "mvp_purpose": "exact_local_risk",
        "coverage": "full_marked_kml_polygon"
      },
      "geometry": {
        "type": "Polygon",
        "coordinates": [
          [
            [
              77.29509725,
              12.30465805
            ],
            [
              77.29509725,
              12.30755598
            ],
            [
              77.30189538,
              12.30755598
            ],
            [
              77.30189538,
              12.30465805
            ],
            [
              77.29509725,
              12.30465805
            ]
          ]
        ]
      }
    },
    {
      "type": "Feature",
      "properties": {
        "site_id": "MUTHATHI-RIVER",
        "grid_id": "R06C07",
        "risk": 0.592,
        "status": "CAUTION",
        "confidence": 0.72,
        "computed_at": "2026-09-07T15:40:00+05:30",
        "data_type": "continuous_risk_surface",
        "data_class": "synthetic_derived",
        "mvp_purpose": "exact_local_risk",
        "coverage": "full_marked_kml_polygon"
      },
      "geometry": {
        "type": "Polygon",
        "coordinates": [
          [
            [
              77.30189538,
              12.30465805
            ],
            [
              77.30189538,
              12.30755598
            ],
            [
              77.30869351000001,
              12.30755598
            ],
            [
              77.30869351000001,
              12.30465805
            ],
            [
              77.30189538,
              12.30465805
            ]
          ]
        ]
      }
    },
    {
      "type": "Feature",
      "properties": {
        "site_id": "MUTHATHI-RIVER",
        "grid_id": "R06C08",
        "risk": 0.619,
        "status": "AVOID",
        "confidence": 0.74,
        "computed_at": "2026-09-07T15:40:00+05:30",
        "data_type": "continuous_risk_surface",
        "data_class": "synthetic_derived",
        "mvp_purpose": "exact_local_risk",
        "coverage": "full_marked_kml_polygon"
      },
      "geometry": {
        "type": "Polygon",
        "coordinates": [
          [
            [
              77.30869351000001,
              12.30465805
            ],
            [
              77.30869351000001,
              12.30755598
            ],
            [
              77.31549164,
              12.30755598
            ],
            [
              77.31549164,
              12.30465805
            ],
            [
              77.30869351000001,
              12.30465805
            ]
          ]
        ]
      }
    },
    {
      "type": "Feature",
      "properties": {
        "site_id": "MUTHATHI-RIVER",
        "grid_id": "R06C09",
        "risk": 0.505,
        "status": "CAUTION",
        "confidence": 0.76,
        "computed_at": "2026-09-07T15:40:00+05:30",
        "data_type": "continuous_risk_surface",
        "data_class": "synthetic_derived",
        "mvp_purpose": "exact_local_risk",
        "coverage": "full_marked_kml_polygon"
      },
      "geometry": {
        "type": "Polygon",
        "coordinates": [
          [
            [
              77.31549164,
              12.30465805
            ],
            [
              77.31549164,
              12.30755598
            ],
            [
              77.32228977,
              12.30755598
            ],
            [
              77.32228977,
              12.30465805
            ],
            [
              77.31549164,
              12.30465805
            ]
          ]
        ]
      }
    },
    {
      "type": "Feature",
      "properties": {
        "site_id": "MUTHATHI-RIVER",
        "grid_id": "R06C10",
        "risk": 0.532,
        "status": "CAUTION",
        "confidence": 0.78,
        "computed_at": "2026-09-07T15:40:00+05:30",
        "data_type": "continuous_risk_surface",
        "data_class": "synthetic_derived",
        "mvp_purpose": "exact_local_risk",
        "coverage": "full_marked_kml_polygon"
      },
      "geometry": {
        "type": "Polygon",
        "coordinates": [
          [
            [
              77.32228977,
              12.30465805
            ],
            [
              77.32228977,
              12.30755598
            ],
            [
              77.32906099562891,
              12.30755598
            ],
            [
              77.3290879,
              12.3072494
            ],
            [
              77.32761838197533,
              12.30465805
            ],
            [
              77.32228977,
              12.30465805
            ]
          ]
        ]
      }
    },
    {
      "type": "Feature",
      "properties": {
        "site_id": "MUTHATHI-RIVER",
        "grid_id": "R07C01",
        "risk": 0.433,
        "status": "CAUTION",
        "confidence": 0.82,
        "computed_at": "2026-09-07T15:40:00+05:30",
        "data_type": "continuous_risk_surface",
        "data_class": "synthetic_derived",
        "mvp_purpose": "exact_local_risk",
        "coverage": "full_marked_kml_polygon"
      },
      "geometry": {
        "type": "Polygon",
        "coordinates": [
          [
            [
              77.26790473,
              12.31045391
            ],
            [
              77.26790473,
              12.30755598
            ],
            [
              77.26203659335128,
              12.30755598
            ],
            [
              77.2611066,
              12.3085844
            ],
            [
              77.26161680803686,
              12.31045391
            ],
            [
              77.26790473,
              12.31045391
            ]
          ]
        ]
      }
    },
    {
      "type": "Feature",
      "properties": {
        "site_id": "MUTHATHI-RIVER",
        "grid_id": "R07C02",
        "risk": 0.566,
        "status": "CAUTION",
        "confidence": 0.84,
        "computed_at": "2026-09-07T15:40:00+05:30",
        "data_type": "continuous_risk_surface",
        "data_class": "synthetic_derived",
        "mvp_purpose": "exact_local_risk",
        "coverage": "full_marked_kml_polygon"
      },
      "geometry": {
        "type": "Polygon",
        "coordinates": [
          [
            [
              77.26790473,
              12.30755598
            ],
            [
              77.26790473,
              12.31045391
            ],
            [
              77.27470286,
              12.31045391
            ],
            [
              77.27470286,
              12.30755598
            ],
            [
              77.26790473,
              12.30755598
            ]
          ]
        ]
      }
    },
    {
      "type": "Feature",
      "properties": {
        "site_id": "MUTHATHI-RIVER",
        "grid_id": "R07C03",
        "risk": 0.559,
        "status": "CAUTION",
        "confidence": 0.86,
        "computed_at": "2026-09-07T15:40:00+05:30",
        "data_type": "continuous_risk_surface",
        "data_class": "synthetic_derived",
        "mvp_purpose": "exact_local_risk",
        "coverage": "full_marked_kml_polygon"
      },
      "geometry": {
        "type": "Polygon",
        "coordinates": [
          [
            [
              77.27470286,
              12.30755598
            ],
            [
              77.27470286,
              12.31045391
            ],
            [
              77.28150099000001,
              12.31045391
            ],
            [
              77.28150099000001,
              12.30755598
            ],
            [
              77.27470286,
              12.30755598
            ]
          ]
        ]
      }
    },
    {
      "type": "Feature",
      "properties": {
        "site_id": "MUTHATHI-RIVER",
        "grid_id": "R07C04",
        "risk": 0.593,
        "status": "CAUTION",
        "confidence": 0.88,
        "computed_at": "2026-09-07T15:40:00+05:30",
        "data_type": "continuous_risk_surface",
        "data_class": "synthetic_derived",
        "mvp_purpose": "exact_local_risk",
        "coverage": "full_marked_kml_polygon"
      },
      "geometry": {
        "type": "Polygon",
        "coordinates": [
          [
            [
              77.28150099000001,
              12.30755598
            ],
            [
              77.28150099000001,
              12.31045391
            ],
            [
              77.28829912,
              12.31045391
            ],
            [
              77.28829912,
              12.30755598
            ],
            [
              77.28150099000001,
              12.30755598
            ]
          ]
        ]
      }
    },
    {
      "type": "Feature",
      "properties": {
        "site_id": "MUTHATHI-RIVER",
        "grid_id": "R07C05",
        "risk": 0.586,
        "status": "CAUTION",
        "confidence": 0.7,
        "computed_at": "2026-09-07T15:40:00+05:30",
        "data_type": "continuous_risk_surface",
        "data_class": "synthetic_derived",
        "mvp_purpose": "exact_local_risk",
        "coverage": "full_marked_kml_polygon"
      },
      "geometry": {
        "type": "Polygon",
        "coordinates": [
          [
            [
              77.28829912,
              12.30755598
            ],
            [
              77.28829912,
              12.31045391
            ],
            [
              77.29509725,
              12.31045391
            ],
            [
              77.29509725,
              12.30755598
            ],
            [
              77.28829912,
              12.30755598
            ]
          ]
        ]
      }
    },
    {
      "type": "Feature",
      "properties": {
        "site_id": "MUTHATHI-RIVER",
        "grid_id": "R07C06",
        "risk": 0.687,
        "status": "AVOID",
        "confidence": 0.72,
        "computed_at": "2026-09-07T15:40:00+05:30",
        "data_type": "continuous_risk_surface",
        "data_class": "synthetic_derived",
        "mvp_purpose": "exact_local_risk",
        "coverage": "full_marked_kml_polygon"
      },
      "geometry": {
        "type": "Polygon",
        "coordinates": [
          [
            [
              77.29509725,
              12.30755598
            ],
            [
              77.29509725,
              12.31045391
            ],
            [
              77.30189538,
              12.31045391
            ],
            [
              77.30189538,
              12.30755598
            ],
            [
              77.29509725,
              12.30755598
            ]
          ]
        ]
      }
    },
    {
      "type": "Feature",
      "properties": {
        "site_id": "MUTHATHI-RIVER",
        "grid_id": "R07C07",
        "risk": 0.714,
        "status": "AVOID",
        "confidence": 0.74,
        "computed_at": "2026-09-07T15:40:00+05:30",
        "data_type": "continuous_risk_surface",
        "data_class": "synthetic_derived",
        "mvp_purpose": "exact_local_risk",
        "coverage": "full_marked_kml_polygon"
      },
      "geometry": {
        "type": "Polygon",
        "coordinates": [
          [
            [
              77.30189538,
              12.30755598
            ],
            [
              77.30189538,
              12.31045391
            ],
            [
              77.30869351000001,
              12.31045391
            ],
            [
              77.30869351000001,
              12.30755598
            ],
            [
              77.30189538,
              12.30755598
            ]
          ]
        ]
      }
    },
    {
      "type": "Feature",
      "properties": {
        "site_id": "MUTHATHI-RIVER",
        "grid_id": "R07C08",
        "risk": 0.601,
        "status": "AVOID",
        "confidence": 0.76,
        "computed_at": "2026-09-07T15:40:00+05:30",
        "data_type": "continuous_risk_surface",
        "data_class": "synthetic_derived",
        "mvp_purpose": "exact_local_risk",
        "coverage": "full_marked_kml_polygon"
      },
      "geometry": {
        "type": "Polygon",
        "coordinates": [
          [
            [
              77.30869351000001,
              12.30755598
            ],
            [
              77.30869351000001,
              12.31045391
            ],
            [
              77.31549164,
              12.31045391
            ],
            [
              77.31549164,
              12.30755598
            ],
            [
              77.30869351000001,
              12.30755598
            ]
          ]
        ]
      }
    },
    {
      "type": "Feature",
      "properties": {
        "site_id": "MUTHATHI-RIVER",
        "grid_id": "R07C09",
        "risk": 0.527,
        "status": "CAUTION",
        "confidence": 0.78,
        "computed_at": "2026-09-07T15:40:00+05:30",
        "data_type": "continuous_risk_surface",
        "data_class": "synthetic_derived",
        "mvp_purpose": "exact_local_risk",
        "coverage": "full_marked_kml_polygon"
      },
      "geometry": {
        "type": "Polygon",
        "coordinates": [
          [
            [
              77.31549164,
              12.30755598
            ],
            [
              77.31549164,
              12.31045391
            ],
            [
              77.32228977,
              12.31045391
            ],
            [
              77.32228977,
              12.30755598
            ],
            [
              77.31549164,
              12.30755598
            ]
          ]
        ]
      }
    },
    {
      "type": "Feature",
      "properties": {
        "site_id": "MUTHATHI-RIVER",
        "grid_id": "R07C10",
        "risk": 0.414,
        "status": "CAUTION",
        "confidence": 0.8,
        "computed_at": "2026-09-07T15:40:00+05:30",
        "data_type": "continuous_risk_surface",
        "data_class": "synthetic_derived",
        "mvp_purpose": "exact_local_risk",
        "coverage": "full_marked_kml_polygon"
      },
      "geometry": {
        "type": "Polygon",
        "coordinates": [
          [
            [
              77.32228977,
              12.30755598
            ],
            [
              77.32228977,
              12.31045391
            ],
            [
              77.32880668359246,
              12.31045391
            ],
            [
              77.32906099562891,
              12.30755598
            ],
            [
              77.32228977,
              12.30755598
            ]
          ]
        ]
      }
    },
    {
      "type": "Feature",
      "properties": {
        "site_id": "MUTHATHI-RIVER",
        "grid_id": "R08C01",
        "risk": 0.415,
        "status": "CAUTION",
        "confidence": 0.84,
        "computed_at": "2026-09-07T15:40:00+05:30",
        "data_type": "continuous_risk_surface",
        "data_class": "synthetic_derived",
        "mvp_purpose": "exact_local_risk",
        "coverage": "full_marked_kml_polygon"
      },
      "geometry": {
        "type": "Polygon",
        "coordinates": [
          [
            [
              77.26790473,
              12.313351840000001
            ],
            [
              77.26790473,
              12.31045391
            ],
            [
              77.26161680803686,
              12.31045391
            ],
            [
              77.26240768221045,
              12.313351840000001
            ],
            [
              77.26790473,
              12.313351840000001
            ]
          ]
        ]
      }
    },
    {
      "type": "Feature",
      "properties": {
        "site_id": "MUTHATHI-RIVER",
        "grid_id": "R08C02",
        "risk": 0.448,
        "status": "CAUTION",
        "confidence": 0.86,
        "computed_at": "2026-09-07T15:40:00+05:30",
        "data_type": "continuous_risk_surface",
        "data_class": "synthetic_derived",
        "mvp_purpose": "exact_local_risk",
        "coverage": "full_marked_kml_polygon"
      },
      "geometry": {
        "type": "Polygon",
        "coordinates": [
          [
            [
              77.26790473,
              12.31045391
            ],
            [
              77.26790473,
              12.313351840000001
            ],
            [
              77.27470286,
              12.313351840000001
            ],
            [
              77.27470286,
              12.31045391
            ],
            [
              77.26790473,
              12.31045391
            ]
          ]
        ]
      }
    },
    {
      "type": "Feature",
      "properties": {
        "site_id": "MUTHATHI-RIVER",
        "grid_id": "R08C03",
        "risk": 0.581,
        "status": "CAUTION",
        "confidence": 0.88,
        "computed_at": "2026-09-07T15:40:00+05:30",
        "data_type": "continuous_risk_surface",
        "data_class": "synthetic_derived",
        "mvp_purpose": "exact_local_risk",
        "coverage": "full_marked_kml_polygon"
      },
      "geometry": {
        "type": "Polygon",
        "coordinates": [
          [
            [
              77.27470286,
              12.31045391
            ],
            [
              77.27470286,
              12.313351840000001
            ],
            [
              77.28150099000001,
              12.313351840000001
            ],
            [
              77.28150099000001,
              12.31045391
            ],
            [
              77.27470286,
              12.31045391
            ]
          ]
        ]
      }
    },
    {
      "type": "Feature",
      "properties": {
        "site_id": "MUTHATHI-RIVER",
        "grid_id": "R08C04",
        "risk": 0.575,
        "status": "CAUTION",
        "confidence": 0.7,
        "computed_at": "2026-09-07T15:40:00+05:30",
        "data_type": "continuous_risk_surface",
        "data_class": "synthetic_derived",
        "mvp_purpose": "exact_local_risk",
        "coverage": "full_marked_kml_polygon"
      },
      "geometry": {
        "type": "Polygon",
        "coordinates": [
          [
            [
              77.28150099000001,
              12.31045391
            ],
            [
              77.28150099000001,
              12.313351840000001
            ],
            [
              77.28829912,
              12.313351840000001
            ],
            [
              77.28829912,
              12.31045391
            ],
            [
              77.28150099000001,
              12.31045391
            ]
          ]
        ]
      }
    },
    {
      "type": "Feature",
      "properties": {
        "site_id": "MUTHATHI-RIVER",
        "grid_id": "R08C05",
        "risk": 0.708,
        "status": "AVOID",
        "confidence": 0.72,
        "computed_at": "2026-09-07T15:40:00+05:30",
        "data_type": "continuous_risk_surface",
        "data_class": "synthetic_derived",
        "mvp_purpose": "exact_local_risk",
        "coverage": "full_marked_kml_polygon"
      },
      "geometry": {
        "type": "Polygon",
        "coordinates": [
          [
            [
              77.28829912,
              12.31045391
            ],
            [
              77.28829912,
              12.313351840000001
            ],
            [
              77.29509725,
              12.313351840000001
            ],
            [
              77.29509725,
              12.31045391
            ],
            [
              77.28829912,
              12.31045391
            ]
          ]
        ]
      }
    },
    {
      "type": "Feature",
      "properties": {
        "site_id": "MUTHATHI-RIVER",
        "grid_id": "R08C06",
        "risk": 0.669,
        "status": "AVOID",
        "confidence": 0.74,
        "computed_at": "2026-09-07T15:40:00+05:30",
        "data_type": "continuous_risk_surface",
        "data_class": "synthetic_derived",
        "mvp_purpose": "exact_local_risk",
        "coverage": "full_marked_kml_polygon"
      },
      "geometry": {
        "type": "Polygon",
        "coordinates": [
          [
            [
              77.30189538,
              12.31045391
            ],
            [
              77.29509725,
              12.31045391
            ],
            [
              77.29509725,
              12.313351840000001
            ],
            [
              77.29773748740025,
              12.313351840000001
            ],
            [
              77.2992879,
              12.312339
            ],
            [
              77.3006092,
              12.3125339
            ],
            [
              77.3013298,
              12.3124773
            ],
            [
              77.30189538,
              12.312370467353876
            ],
            [
              77.30189538,
              12.31045391
            ]
          ]
        ]
      }
    },
    {
      "type": "Feature",
      "properties": {
        "site_id": "MUTHATHI-RIVER",
        "grid_id": "R08C07",
        "risk": 0.596,
        "status": "CAUTION",
        "confidence": 0.76,
        "computed_at": "2026-09-07T15:40:00+05:30",
        "data_type": "continuous_risk_surface",
        "data_class": "synthetic_derived",
        "mvp_purpose": "exact_local_risk",
        "coverage": "full_marked_kml_polygon"
      },
      "geometry": {
        "type": "Polygon",
        "coordinates": [
          [
            [
              77.30869351000001,
              12.31045391
            ],
            [
              77.30189538,
              12.31045391
            ],
            [
              77.30189538,
              12.312370467353876
            ],
            [
              77.3020535,
              12.3123406
            ],
            [
              77.3030775,
              12.3118685
            ],
            [
              77.3055761,
              12.3110629
            ],
            [
              77.30594307659736,
              12.31106696343663
            ],
            [
              77.30609414695236,
              12.31107575877689
            ],
            [
              77.30619878006785,
              12.31106254575311
            ],
            [
              77.3063907406349,
              12.31105856024681
            ],
            [
              77.30650383500463,
              12.31095686287322
            ],
            [
              77.307036,
              12.3104836
            ],
            [
              77.30869351000001,
              12.310593123548244
            ],
            [
              77.30869351000001,
              12.31045391
            ]
          ]
        ]
      }
    },
    {
      "type": "Feature",
      "properties": {
        "site_id": "MUTHATHI-RIVER",
        "grid_id": "R08C08",
        "risk": 0.483,
        "status": "CAUTION",
        "confidence": 0.78,
        "computed_at": "2026-09-07T15:40:00+05:30",
        "data_type": "continuous_risk_surface",
        "data_class": "synthetic_derived",
        "mvp_purpose": "exact_local_risk",
        "coverage": "full_marked_kml_polygon"
      },
      "geometry": {
        "type": "Polygon",
        "coordinates": [
          [
            [
              77.31549164,
              12.31045391
            ],
            [
              77.30869351000001,
              12.31045391
            ],
            [
              77.30869351000001,
              12.310593123548244
            ],
            [
              77.3117744,
              12.3107967
            ],
            [
              77.3144098,
              12.3118015
            ],
            [
              77.31549164,
              12.311701253643735
            ],
            [
              77.31549164,
              12.31045391
            ]
          ]
        ]
      }
    },
    {
      "type": "Feature",
      "properties": {
        "site_id": "MUTHATHI-RIVER",
        "grid_id": "R08C09",
        "risk": 0.509,
        "status": "CAUTION",
        "confidence": 0.8,
        "computed_at": "2026-09-07T15:40:00+05:30",
        "data_type": "continuous_risk_surface",
        "data_class": "synthetic_derived",
        "mvp_purpose": "exact_local_risk",
        "coverage": "full_marked_kml_polygon"
      },
      "geometry": {
        "type": "Polygon",
        "coordinates": [
          [
            [
              77.32228977,
              12.313351840000001
            ],
            [
              77.32228977,
              12.31045391
            ],
            [
              77.31549164,
              12.31045391
            ],
            [
              77.31549164,
              12.311701253643735
            ],
            [
              77.315939,
              12.3116598
            ],
            [
              77.31644086412385,
              12.313351840000001
            ],
            [
              77.32228977,
              12.313351840000001
            ]
          ]
        ]
      }
    },
    {
      "type": "Feature",
      "properties": {
        "site_id": "MUTHATHI-RIVER",
        "grid_id": "R08C10",
        "risk": 0.536,
        "status": "CAUTION",
        "confidence": 0.82,
        "computed_at": "2026-09-07T15:40:00+05:30",
        "data_type": "continuous_risk_surface",
        "data_class": "synthetic_derived",
        "mvp_purpose": "exact_local_risk",
        "coverage": "full_marked_kml_polygon"
      },
      "geometry": {
        "type": "Polygon",
        "coordinates": [
          [
            [
              77.32228977,
              12.31045391
            ],
            [
              77.32228977,
              12.313351840000001
            ],
            [
              77.3285995335251,
              12.313351840000001
            ],
            [
              77.3285947,
              12.3128695
            ],
            [
              77.32880668359246,
              12.31045391
            ],
            [
              77.32228977,
              12.31045391
            ]
          ]
        ]
      }
    },
    {
      "type": "Feature",
      "properties": {
        "site_id": "MUTHATHI-RIVER",
        "grid_id": "R09C01",
        "risk": 0.437,
        "status": "CAUTION",
        "confidence": 0.86,
        "computed_at": "2026-09-07T15:40:00+05:30",
        "data_type": "continuous_risk_surface",
        "data_class": "synthetic_derived",
        "mvp_purpose": "exact_local_risk",
        "coverage": "full_marked_kml_polygon"
      },
      "geometry": {
        "type": "Polygon",
        "coordinates": [
          [
            [
              77.26790473,
              12.31624977
            ],
            [
              77.26790473,
              12.313351840000001
            ],
            [
              77.26240768221045,
              12.313351840000001
            ],
            [
              77.26319855638404,
              12.31624977
            ],
            [
              77.26790473,
              12.31624977
            ]
          ]
        ]
      }
    },
    {
      "type": "Feature",
      "properties": {
        "site_id": "MUTHATHI-RIVER",
        "grid_id": "R09C02",
        "risk": 0.43,
        "status": "CAUTION",
        "confidence": 0.88,
        "computed_at": "2026-09-07T15:40:00+05:30",
        "data_type": "continuous_risk_surface",
        "data_class": "synthetic_derived",
        "mvp_purpose": "exact_local_risk",
        "coverage": "full_marked_kml_polygon"
      },
      "geometry": {
        "type": "Polygon",
        "coordinates": [
          [
            [
              77.26790473,
              12.313351840000001
            ],
            [
              77.26790473,
              12.31624977
            ],
            [
              77.27470286,
              12.31624977
            ],
            [
              77.27470286,
              12.313351840000001
            ],
            [
              77.26790473,
              12.313351840000001
            ]
          ]
        ]
      }
    },
    {
      "type": "Feature",
      "properties": {
        "site_id": "MUTHATHI-RIVER",
        "grid_id": "R09C03",
        "risk": 0.563,
        "status": "CAUTION",
        "confidence": 0.7,
        "computed_at": "2026-09-07T15:40:00+05:30",
        "data_type": "continuous_risk_surface",
        "data_class": "synthetic_derived",
        "mvp_purpose": "exact_local_risk",
        "coverage": "full_marked_kml_polygon"
      },
      "geometry": {
        "type": "Polygon",
        "coordinates": [
          [
            [
              77.27470286,
              12.313351840000001
            ],
            [
              77.27470286,
              12.31624977
            ],
            [
              77.28150099000001,
              12.31624977
            ],
            [
              77.28150099000001,
              12.313351840000001
            ],
            [
              77.27470286,
              12.313351840000001
            ]
          ]
        ]
      }
    },
    {
      "type": "Feature",
      "properties": {
        "site_id": "MUTHATHI-RIVER",
        "grid_id": "R09C04",
        "risk": 0.557,
        "status": "CAUTION",
        "confidence": 0.72,
        "computed_at": "2026-09-07T15:40:00+05:30",
        "data_type": "continuous_risk_surface",
        "data_class": "synthetic_derived",
        "mvp_purpose": "exact_local_risk",
        "coverage": "full_marked_kml_polygon"
      },
      "geometry": {
        "type": "Polygon",
        "coordinates": [
          [
            [
              77.28150099000001,
              12.313351840000001
            ],
            [
              77.28150099000001,
              12.31624977
            ],
            [
              77.28829912,
              12.31624977
            ],
            [
              77.28829912,
              12.313351840000001
            ],
            [
              77.28150099000001,
              12.313351840000001
            ]
          ]
        ]
      }
    },
    {
      "type": "Feature",
      "properties": {
        "site_id": "MUTHATHI-RIVER",
        "grid_id": "R09C05",
        "risk": 0.59,
        "status": "CAUTION",
        "confidence": 0.74,
        "computed_at": "2026-09-07T15:40:00+05:30",
        "data_type": "continuous_risk_surface",
        "data_class": "synthetic_derived",
        "mvp_purpose": "exact_local_risk",
        "coverage": "full_marked_kml_polygon"
      },
      "geometry": {
        "type": "Polygon",
        "coordinates": [
          [
            [
              77.29509725,
              12.313351840000001
            ],
            [
              77.28829912,
              12.313351840000001
            ],
            [
              77.28829912,
              12.31624977
            ],
            [
              77.29026876964252,
              12.31624977
            ],
            [
              77.2916217,
              12.315896
            ],
            [
              77.29509725,
              12.314744190210495
            ],
            [
              77.29509725,
              12.313351840000001
            ]
          ]
        ]
      }
    },
    {
      "type": "Feature",
      "properties": {
        "site_id": "MUTHATHI-RIVER",
        "grid_id": "R09C06",
        "risk": 0.691,
        "status": "AVOID",
        "confidence": 0.76,
        "computed_at": "2026-09-07T15:40:00+05:30",
        "data_type": "continuous_risk_surface",
        "data_class": "synthetic_derived",
        "mvp_purpose": "exact_local_risk",
        "coverage": "full_marked_kml_polygon"
      },
      "geometry": {
        "type": "Polygon",
        "coordinates": [
          [
            [
              77.29509725,
              12.313351840000001
            ],
            [
              77.29509725,
              12.314744190210495
            ],
            [
              77.2961301,
              12.3144019
            ],
            [
              77.29773748740025,
              12.313351840000001
            ],
            [
              77.29509725,
              12.313351840000001
            ]
          ]
        ]
      }
    },
    {
      "type": "Feature",
      "properties": {
        "site_id": "MUTHATHI-RIVER",
        "grid_id": "R09C09",
        "risk": 0.491,
        "status": "CAUTION",
        "confidence": 0.82,
        "computed_at": "2026-09-07T15:40:00+05:30",
        "data_type": "continuous_risk_surface",
        "data_class": "synthetic_derived",
        "mvp_purpose": "exact_local_risk",
        "coverage": "full_marked_kml_polygon"
      },
      "geometry": {
        "type": "Polygon",
        "coordinates": [
          [
            [
              77.32228977,
              12.31624977
            ],
            [
              77.32228977,
              12.313351840000001
            ],
            [
              77.31644086412385,
              12.313351840000001
            ],
            [
              77.31730039882778,
              12.31624977
            ],
            [
              77.32228977,
              12.31624977
            ]
          ]
        ]
      }
    },
    {
      "type": "Feature",
      "properties": {
        "site_id": "MUTHATHI-RIVER",
        "grid_id": "R09C10",
        "risk": 0.418,
        "status": "CAUTION",
        "confidence": 0.84,
        "computed_at": "2026-09-07T15:40:00+05:30",
        "data_type": "continuous_risk_surface",
        "data_class": "synthetic_derived",
        "mvp_purpose": "exact_local_risk",
        "coverage": "full_marked_kml_polygon"
      },
      "geometry": {
        "type": "Polygon",
        "coordinates": [
          [
            [
              77.32228977,
              12.313351840000001
            ],
            [
              77.32228977,
              12.31624977
            ],
            [
              77.32862857365728,
              12.31624977
            ],
            [
              77.3285995335251,
              12.313351840000001
            ],
            [
              77.32228977,
              12.313351840000001
            ]
          ]
        ]
      }
    },
    {
      "type": "Feature",
      "properties": {
        "site_id": "MUTHATHI-RIVER",
        "grid_id": "R10C01",
        "risk": 0.419,
        "status": "CAUTION",
        "confidence": 0.88,
        "computed_at": "2026-09-07T15:40:00+05:30",
        "data_type": "continuous_risk_surface",
        "data_class": "synthetic_derived",
        "mvp_purpose": "exact_local_risk",
        "coverage": "full_marked_kml_polygon"
      },
      "geometry": {
        "type": "Polygon",
        "coordinates": [
          [
            [
              77.26790473,
              12.31624977
            ],
            [
              77.26319855638404,
              12.31624977
            ],
            [
              77.2639438,
              12.3189805
            ],
            [
              77.265417,
              12.3191477
            ],
            [
              77.2666756,
              12.3188117
            ],
            [
              77.26790473,
              12.318615946844389
            ],
            [
              77.26790473,
              12.31624977
            ]
          ]
        ]
      }
    },
    {
      "type": "Feature",
      "properties": {
        "site_id": "MUTHATHI-RIVER",
        "grid_id": "R10C02",
        "risk": 0.552,
        "status": "CAUTION",
        "confidence": 0.7,
        "computed_at": "2026-09-07T15:40:00+05:30",
        "data_type": "continuous_risk_surface",
        "data_class": "synthetic_derived",
        "mvp_purpose": "exact_local_risk",
        "coverage": "full_marked_kml_polygon"
      },
      "geometry": {
        "type": "Polygon",
        "coordinates": [
          [
            [
              77.27470286,
              12.31624977
            ],
            [
              77.26790473,
              12.31624977
            ],
            [
              77.26790473,
              12.318615946844389
            ],
            [
              77.269579,
              12.3183493
            ],
            [
              77.27470286,
              12.31781664658139
            ],
            [
              77.27470286,
              12.31624977
            ]
          ]
        ]
      }
    },
    {
      "type": "Feature",
      "properties": {
        "site_id": "MUTHATHI-RIVER",
        "grid_id": "R10C03",
        "risk": 0.445,
        "status": "CAUTION",
        "confidence": 0.72,
        "computed_at": "2026-09-07T15:40:00+05:30",
        "data_type": "continuous_risk_surface",
        "data_class": "synthetic_derived",
        "mvp_purpose": "exact_local_risk",
        "coverage": "full_marked_kml_polygon"
      },
      "geometry": {
        "type": "Polygon",
        "coordinates": [
          [
            [
              77.28150099000001,
              12.31624977
            ],
            [
              77.27470286,
              12.31624977
            ],
            [
              77.27470286,
              12.31781664658139
            ],
            [
              77.2794842,
              12.3173196
            ],
            [
              77.28150099000001,
              12.317503866859713
            ],
            [
              77.28150099000001,
              12.31624977
            ]
          ]
        ]
      }
    },
    {
      "type": "Feature",
      "properties": {
        "site_id": "MUTHATHI-RIVER",
        "grid_id": "R10C04",
        "risk": 0.579,
        "status": "CAUTION",
        "confidence": 0.74,
        "computed_at": "2026-09-07T15:40:00+05:30",
        "data_type": "continuous_risk_surface",
        "data_class": "synthetic_derived",
        "mvp_purpose": "exact_local_risk",
        "coverage": "full_marked_kml_polygon"
      },
      "geometry": {
        "type": "Polygon",
        "coordinates": [
          [
            [
              77.28829912,
              12.31624977
            ],
            [
              77.28150099000001,
              12.31624977
            ],
            [
              77.28150099000001,
              12.317503866859713
            ],
            [
              77.2826648,
              12.3176102
            ],
            [
              77.2839118,
              12.3177345
            ],
            [
              77.2856093,
              12.3168317
            ],
            [
              77.28829912,
              12.316569187310089
            ],
            [
              77.28829912,
              12.31624977
            ]
          ]
        ]
      }
    },
    {
      "type": "Feature",
      "properties": {
        "site_id": "MUTHATHI-RIVER",
        "grid_id": "R10C05",
        "risk": 0.572,
        "status": "CAUTION",
        "confidence": 0.76,
        "computed_at": "2026-09-07T15:40:00+05:30",
        "data_type": "continuous_risk_surface",
        "data_class": "synthetic_derived",
        "mvp_purpose": "exact_local_risk",
        "coverage": "full_marked_kml_polygon"
      },
      "geometry": {
        "type": "Polygon",
        "coordinates": [
          [
            [
              77.28829912,
              12.31624977
            ],
            [
              77.28829912,
              12.316569187310089
            ],
            [
              77.2894927,
              12.3164527
            ],
            [
              77.29026876964252,
              12.31624977
            ],
            [
              77.28829912,
              12.31624977
            ]
          ]
        ]
      }
    },
    {
      "type": "Feature",
      "properties": {
        "site_id": "MUTHATHI-RIVER",
        "grid_id": "R10C09",
        "risk": 0.513,
        "status": "CAUTION",
        "confidence": 0.84,
        "computed_at": "2026-09-07T15:40:00+05:30",
        "data_type": "continuous_risk_surface",
        "data_class": "synthetic_derived",
        "mvp_purpose": "exact_local_risk",
        "coverage": "full_marked_kml_polygon"
      },
      "geometry": {
        "type": "Polygon",
        "coordinates": [
          [
            [
              77.32228977,
              12.31624977
            ],
            [
              77.31730039882778,
              12.31624977
            ],
            [
              77.3173395,
              12.3163816
            ],
            [
              77.32228977,
              12.316988817918148
            ],
            [
              77.32228977,
              12.31624977
            ]
          ]
        ]
      }
    },
    {
      "type": "Feature",
      "properties": {
        "site_id": "MUTHATHI-RIVER",
        "grid_id": "R10C10",
        "risk": 0.4,
        "status": "CAUTION",
        "confidence": 0.86,
        "computed_at": "2026-09-07T15:40:00+05:30",
        "data_type": "continuous_risk_surface",
        "data_class": "synthetic_derived",
        "mvp_purpose": "exact_local_risk",
        "coverage": "full_marked_kml_polygon"
      },
      "geometry": {
        "type": "Polygon",
        "coordinates": [
          [
            [
              77.32228977,
              12.31624977
            ],
            [
              77.32228977,
              12.316988817918148
            ],
            [
              77.3252416,
              12.3173509
            ],
            [
              77.3286348,
              12.3168711
            ],
            [
              77.32862857365728,
              12.31624977
            ],
            [
              77.32228977,
              12.31624977
            ]
          ]
        ]
      }
    }
  ]
}