{
  "type": "FeatureCollection",
  "features": [
    {
      "type": "Feature",
      "properties": {
        "id": "ER-C01",
        "name": "Prototype evacuation corridor: Main Falls -> Railway Bridge -> Railway Station",
        "route_status": "CANDIDATE_DERIVED",
        "verification_status": "NOT_AUTHORITY_VERIFIED",
        "basis": "Connects KML Main Falls Area to mapped Railway Bridge and mapped Railway Station",
        "warning": "Railway track is not to be treated as a public evacuation path without railway/Forest Department approval and a field safety survey",
        "use": "Dashboard/demo network only until officially surveyed"
      },
      "geometry": {
        "type": "LineString",
        "coordinates": [
          [
            74.31401199418724,
            15.31321534674163
          ],
          [
            74.31409025654749,
            15.31291834606128
          ],
          [
            74.31404956982558,
            15.31293476228959
          ],
          [
            74.31354213935292,
            15.313004371827
          ],
          [
            74.31298778446778,
            15.31293134535293
          ],
          [
            74.31249567862974,
            15.31275963856045
          ],
          [
            74.31203275864364,
            15.312488870404
          ],
          [
            74.31161280129827,
            15.31220790333713
          ],
          [
            74.31123157482014,
            15.31207216736711
          ],
          [
            74.31085262202608,
            15.3119596836626
          ],
          [
            74.31032291310444,
            15.31189884049498
          ],
          [
            74.30980881138744,
            15.31191106034584
          ],
          [
            74.30938668606994,
            15.31213047950865
          ],
          [
            74.30905711164394,
            15.31240738310528
          ],
          [
            74.30874286453495,
            15.31276217722531
          ],
          [
            74.30849167550434,
            15.31315191415902
          ],
          [
            74.30824251287511,
            15.31359310150074
          ],
          [
            74.3080806863165,
            15.31394202267792
          ],
          [
            74.30788439288126,
            15.31435017014092
          ],
          [
            74.30763839064132,
            15.31480788704331
          ],
          [
            74.30735386800896,
            15.31517101178875
          ],
          [
            74.30707861374935,
            15.31554570339978
          ],
          [
            74.30679082103366,
            15.31593856042955
          ],
          [
            74.30655506191866,
            15.31633144457391
          ],
          [
            74.30653724383428,
            15.31634021938565
          ]
        ]
      }
    }
  ]
}