{
  "type": "FeatureCollection",
  "features": [
    {
      "type": "Feature",
      "properties": {
        "id": "HZ-01",
        "name": "Dudhsagar waterfall boundary",
        "hazard_type": "waterfall / immediate water hazard",
        "source": "User-supplied KML",
        "status": "SOURCE_TRACED_ESTIMATED",
        "verification_status": "NOT_FIELD_VERIFIED",
        "recommended_use": "Prototype hazard anchor only"
      },
      "geometry": {
        "type": "Polygon",
        "coordinates": [
          [
            [
              74.31458342338834,
              15.31780902926405
            ],
            [
              74.31461281078046,
              15.31701134550638
            ],
            [
              74.31465512699499,
              15.31627639913751
            ],
            [
              74.31444621474067,
              15.3160019004621
            ],
            [
              74.31425620495992,
              15.31588619787698
            ],
            [
              74.31387964005147,
              15.31562768450713
            ],
            [
              74.31365988078595,
              15.31520407724012
            ],
            [
              74.31376083870192,
              15.31471816721984
            ],
            [
              74.31391142347188,
              15.31442231175456
            ],
            [
              74.31398964195677,
              15.31403075801308
            ],
            [
              74.31401813350581,
              15.3136568526307
            ],
            [
              74.31397355599348,
              15.31328412000732
            ],
            [
              74.31395384926834,
              15.31257559564581
            ],
            [
              74.3136055599548,
              15.31195785228313
            ],
            [
              74.31381809776352,
              15.3116393251143
            ],
            [
              74.31377681752086,
              15.31145085629556
            ],
            [
              74.3138619465267,
              15.31100508960797
            ],
            [
              74.3138919304705,
              15.31068331464745
            ],
            [
              74.31399355447721,
              15.31050493253415
            ],
            [
              74.3138634942816,
              15.31011562208591
            ],
            [
              74.31348162785663,
              15.30967154336309
            ],
            [
              74.31253123926825,
              15.30933571737565
            ],
            [
              74.3119979599469,
              15.30897517711995
            ],
            [
              74.31088654227602,
              15.30875400425058
            ],
            [
              74.30919879112085,
              15.30900468798356
            ],
            [
              74.30859224057663,
              15.30926107919541
            ],
            [
              74.30901592737725,
              15.30902045624618
            ],
            [
              74.31048030785722,
              15.3086968995794
            ],
            [
              74.31138156868143,
              15.30862594030618
            ],
            [
              74.31257799744336,
              15.30926298285449
            ],
            [
              74.31346719087242,
              15.30943624638353
            ],
            [
              74.31389872307635,
              15.30993332881918
            ],
            [
              74.31414385611194,
              15.31049124134482
            ],
            [
              74.31394432395874,
              15.31134386030708
            ],
            [
              74.31414168500874,
              15.3117275527504
            ],
            [
              74.31410590370506,
              15.31203016390204
            ],
            [
              74.31409050374485,
              15.31239550464473
            ],
            [
              74.31409427049839,
              15.31279995626207
            ],
            [
              74.31415550871566,
              15.31307751227117
            ],
            [
              74.31419879912372,
              15.3133342651036
            ],
            [
              74.3146960862142,
              15.31373408471271
            ],
            [
              74.31490453564828,
              15.31441795449105
            ],
            [
              74.31493709235599,
              15.3148308842078
            ],
            [
              74.31474069442562,
              15.31513710409585
            ],
            [
              74.31460229343972,
              15.31553294730779
            ],
            [
              74.31461266944201,
              15.31600354565175
            ],
            [
              74.31478046360384,
              15.31654238155632
            ],
            [
              74.31474971787482,
              15.31696469470474
            ],
            [
              74.31471911335466,
              15.31779332605181
            ],
            [
              74.31458342338834,
              15.31780902926405
            ]
          ]
        ]
      }
    },
    {
      "type": "Feature",
      "properties": {
        "id": "HZ-02",
        "name": "Stream corridor / catchment",
        "hazard_type": "stream corridor / flood-prone reference area",
        "source": "User-supplied KML",
        "status": "SOURCE_TRACED_ESTIMATED",
        "verification_status": "NOT_FIELD_VERIFIED",
        "recommended_use": "Prototype broad hazard mask; not a flood-depth map"
      },
      "geometry": {
        "type": "Polygon",
        "coordinates": [
          [
            [
              74.3124268,
              15.317607
            ],
            [
              74.3114011,
              15.3174927
            ],
            [
              74.3103755,
              15.3175853
            ],
            [
              74.3093283,
              15.3177193
            ],
            [
              74.3079593,
              15.3181016
            ],
            [
              74.3070516,
              15.3180804
            ],
            [
              74.3062298,
              15.3178937
            ],
            [
              74.3057130568,
              15.3173125735
            ],
            [
              74.3059516403,
              15.3166407494
            ],
            [
              74.3063077077,
              15.3156622662
            ],
            [
              74.3067766737,
              15.3146842872
            ],
            [
              74.3070355169,
              15.3140880484
            ],
            [
              74.3074338474,
              15.3128613272
            ],
            [
              74.3078082894,
              15.3114469491
            ],
            [
              74.3084203269,
              15.3100243392
            ],
            [
              74.3086947339,
              15.3088024476
            ],
            [
              74.3098383812,
              15.3083338865
            ],
            [
              74.3116168596,
              15.3082790105
            ],
            [
              74.3127847786,
              15.3083241908
            ],
            [
              74.3137052541,
              15.3089307523
            ],
            [
              74.3142356638,
              15.309064026
            ],
            [
              74.3146388791,
              15.3095441872
            ],
            [
              74.3151118448,
              15.3102581312
            ],
            [
              74.3151488292,
              15.3108870011
            ],
            [
              74.3155087659,
              15.3117151648
            ],
            [
              74.3153697,
              15.3132945
            ],
            [
              74.3155859,
              15.3140595
            ],
            [
              74.3156734,
              15.3151142
            ],
            [
              74.3153211985,
              15.3166273746
            ],
            [
              74.3152407028,
              15.317295823
            ],
            [
              74.3147691857,
              15.3177872561
            ],
            [
              74.3141748489,
              15.3178745246
            ],
            [
              74.3124268,
              15.317607
            ]
          ]
        ]
      }
    }
  ]
}