{
  "type": "FeatureCollection",
  "name": "Calangute_Beach_Lifeguard_Towers",
  "features": [
    {
      "type": "Feature",
      "properties": {
        "tower_id": "LG01",
        "name": "Calangute North Lifeguard Tower",
        "description": "Approximate lifeguard tower position near the northern stretch of Calangute beach, close to the Baga border.",
        "operator": "Drishti Marine (Dept. of Tourism, Govt. of Goa)",
        "location": "Calangute Beach",
        "data_source": "approximate_estimate",
        "verification_needed": true
      },
      "geometry": {
        "type": "Point",
        "coordinates": [73.7608, 15.5480]
      }
    },
    {
      "type": "Feature",
      "properties": {
        "tower_id": "LG02",
        "name": "Calangute Central Lifeguard Tower",
        "description": "Approximate lifeguard tower position near the main beach entrance / Beach Road junction, the busiest tourist stretch.",
        "operator": "Drishti Marine (Dept. of Tourism, Govt. of Goa)",
        "location": "Calangute Beach",
        "data_source": "approximate_estimate",
        "verification_needed": true
      },
      "geometry": {
        "type": "Point",
        "coordinates": [73.7599, 15.5430]
      }
    },
    {
      "type": "Feature",
      "properties": {
        "tower_id": "LG03",
        "name": "Calangute South Lifeguard Tower",
        "description": "Approximate lifeguard tower position toward the southern stretch of Calangute beach, near the Candolim border.",
        "operator": "Drishti Marine (Dept. of Tourism, Govt. of Goa)",
        "location": "Calangute Beach",
        "data_source": "approximate_estimate",
        "verification_needed": true
      },
      "geometry": {
        "type": "Point",
        "coordinates": [73.7585, 15.5385]
      }
    }
  ]
}
