<?xml version="1.0" encoding="UTF-8"?>
<kml xmlns="http://www.opengis.net/kml/2.2" xmlns:gx="http://www.google.com/kml/ext/2.2" xmlns:kml="http://www.opengis.net/kml/2.2" xmlns:atom="http://www.w3.org/2005/Atom">
<Document id="19nmYisiL9Om16ulHLVX71MMa2t1TgQA3">
	<name>dudhsagar falls</name>
	<description>Waterfall location, stream geometry, and catchment area for Dudhsagar Falls, Goa. NOTE: The Plunge Pool Boundary and Stream Centreline features are ESTIMATED placeholders and must be verified/re-traced against satellite imagery in Google Earth before use as final data.</description>
	<gx:CascadingStyle kml:id="__managed_style_05A52D566741B05CB4A4_highlight">
		<Style>
			<IconStyle>
				<scale>1.44</scale>
				<Icon>
					<href>https://earth.google.com/earth/document/icon?color=ffff00&amp;id=2000&amp;scale=4</href>
				</Icon>
				<hotSpot x="64" y="128" xunits="pixels" yunits="insetPixels"/>
			</IconStyle>
			<LabelStyle>
			</LabelStyle>
			<LineStyle>
				<color>ff2dc0fb</color>
				<width>3.84</width>
			</LineStyle>
			<PolyStyle>
				<color>40ffffff</color>
			</PolyStyle>
			<BalloonStyle>
			</BalloonStyle>
		</Style>
	</gx:CascadingStyle>
	<gx:CascadingStyle kml:id="__managed_style_0033ABFE6A41B017FB2C_highlight">
		<Style>
			<IconStyle>
				<scale>1.2</scale>
				<Icon>
					<href>https://earth.google.com/earth/document/icon?color=1976d2&amp;id=2000&amp;scale=4</href>
				</Icon>
				<hotSpot x="64" y="128" xunits="pixels" yunits="insetPixels"/>
			</IconStyle>
			<LabelStyle>
			</LabelStyle>
			<LineStyle>
				<color>fff5a542</color>
				<width>2.4</width>
			</LineStyle>
			<PolyStyle>
				<color>00000000</color>
			</PolyStyle>
			<BalloonStyle>
			</BalloonStyle>
		</Style>
	</gx:CascadingStyle>
	<StyleMap id="__managed_style_0033ABFE6A41B017FB2C">
		<Pair>
			<key>normal</key>
			<styleUrl>#__managed_style_0033ABFE6A41B017FB2C_normal</styleUrl>
		</Pair>
		<Pair>
			<key>highlight</key>
			<styleUrl>#__managed_style_0033ABFE6A41B017FB2C_highlight</styleUrl>
		</Pair>
	</StyleMap>
	<gx:CascadingStyle kml:id="__managed_style_03802CB49741B002630E_normal">
		<Style>
			<IconStyle>
				<Icon>
					<href>https://earth.google.com/earth/document/icon?color=1976d2&amp;id=2000&amp;scale=4</href>
				</Icon>
				<hotSpot x="64" y="128" xunits="pixels" yunits="insetPixels"/>
			</IconStyle>
			<LabelStyle>
			</LabelStyle>
			<LineStyle>
				<color>ff2dc0fb</color>
				<width>3.2</width>
			</LineStyle>
			<PolyStyle>
				<color>40ffffff</color>
			</PolyStyle>
			<BalloonStyle>
			</BalloonStyle>
		</Style>
	</gx:CascadingStyle>
	<gx:CascadingStyle kml:id="__managed_style_0D42CAF61741B05A82F9_highlight">
		<Style>
			<IconStyle>
				<scale>1.2</scale>
				<Icon>
					<href>https://earth.google.com/earth/document/icon?color=1976d2&amp;id=2000&amp;scale=4</href>
				</Icon>
				<hotSpot x="64" y="128" xunits="pixels" yunits="insetPixels"/>
			</IconStyle>
			<LabelStyle>
			</LabelStyle>
			<LineStyle>
				<color>ff2dc0fb</color>
				<width>2.88</width>
			</LineStyle>
			<PolyStyle>
				<color>40ffffff</color>
			</PolyStyle>
			<BalloonStyle>
			</BalloonStyle>
		</Style>
	</gx:CascadingStyle>
	<gx:CascadingStyle kml:id="__managed_style_0D42CAF61741B05A82F9_normal">
		<Style>
			<IconStyle>
				<Icon>
					<href>https://earth.google.com/earth/document/icon?color=1976d2&amp;id=2000&amp;scale=4</href>
				</Icon>
				<hotSpot x="64" y="128" xunits="pixels" yunits="insetPixels"/>
			</IconStyle>
			<LabelStyle>
			</LabelStyle>
			<LineStyle>
				<color>ff2dc0fb</color>
				<width>1.92</width>
			</LineStyle>
			<PolyStyle>
				<color>40ffffff</color>
			</PolyStyle>
			<BalloonStyle>
			</BalloonStyle>
		</Style>
	</gx:CascadingStyle>
	<gx:CascadingStyle kml:id="__managed_style_05A52D566741B05CB4A4_normal">
		<Style>
			<IconStyle>
				<scale>1.2</scale>
				<Icon>
					<href>https://earth.google.com/earth/document/icon?color=ffff00&amp;id=2000&amp;scale=4</href>
				</Icon>
				<hotSpot x="64" y="128" xunits="pixels" yunits="insetPixels"/>
			</IconStyle>
			<LabelStyle>
			</LabelStyle>
			<LineStyle>
				<color>ff2dc0fb</color>
				<width>2.56</width>
			</LineStyle>
			<PolyStyle>
				<color>40ffffff</color>
			</PolyStyle>
			<BalloonStyle>
			</BalloonStyle>
		</Style>
	</gx:CascadingStyle>
	<StyleMap id="__managed_style_05A52D566741B05CB4A4">
		<Pair>
			<key>normal</key>
			<styleUrl>#__managed_style_05A52D566741B05CB4A4_normal</styleUrl>
		</Pair>
		<Pair>
			<key>highlight</key>
			<styleUrl>#__managed_style_05A52D566741B05CB4A4_highlight</styleUrl>
		</Pair>
	</StyleMap>
	<StyleMap id="__managed_style_0D42CAF61741B05A82F9">
		<Pair>
			<key>normal</key>
			<styleUrl>#__managed_style_0D42CAF61741B05A82F9_normal</styleUrl>
		</Pair>
		<Pair>
			<key>highlight</key>
			<styleUrl>#__managed_style_0D42CAF61741B05A82F9_highlight</styleUrl>
		</Pair>
	</StyleMap>
	<StyleMap id="__managed_style_04640A8AD641B04B080E">
		<Pair>
			<key>normal</key>
			<styleUrl>#__managed_style_04640A8AD641B04B080E_normal</styleUrl>
		</Pair>
		<Pair>
			<key>highlight</key>
			<styleUrl>#__managed_style_04640A8AD641B04B080E_highlight</styleUrl>
		</Pair>
	</StyleMap>
	<gx:CascadingStyle kml:id="__managed_style_0A7051B9BA41B0B0C3A4_highlight">
		<Style>
			<IconStyle>
				<scale>1.2</scale>
				<Icon>
					<href>https://earth.google.com/earth/document/icon?color=ffff00&amp;id=2000&amp;scale=4</href>
				</Icon>
				<hotSpot x="64" y="128" xunits="pixels" yunits="insetPixels"/>
			</IconStyle>
			<LabelStyle>
			</LabelStyle>
			<LineStyle>
				<color>ff2dc0fb</color>
				<width>3.84</width>
			</LineStyle>
			<PolyStyle>
				<color>40ffffff</color>
			</PolyStyle>
			<BalloonStyle>
			</BalloonStyle>
		</Style>
	</gx:CascadingStyle>
	<gx:CascadingStyle kml:id="__managed_style_0A7051B9BA41B0B0C3A4_normal">
		<Style>
			<IconStyle>
				<Icon>
					<href>https://earth.google.com/earth/document/icon?color=ffff00&amp;id=2000&amp;scale=4</href>
				</Icon>
				<hotSpot x="64" y="128" xunits="pixels" yunits="insetPixels"/>
			</IconStyle>
			<LabelStyle>
			</LabelStyle>
			<LineStyle>
				<color>ff2dc0fb</color>
				<width>2.56</width>
			</LineStyle>
			<PolyStyle>
				<color>40ffffff</color>
			</PolyStyle>
			<BalloonStyle>
			</BalloonStyle>
		</Style>
	</gx:CascadingStyle>
	<gx:CascadingStyle kml:id="__managed_style_079B013EF041B002630C_highlight">
		<styleUrl>https://earth.google.com/balloon_components/base/1.1.0.0/card_template.kml#main</styleUrl>
		<Style>
			<IconStyle>
				<scale>1.2</scale>
				<Icon>
					<href>https://earth.google.com/earth/document/icon?color=1976d2&amp;id=2000&amp;scale=4</href>
				</Icon>
				<hotSpot x="64" y="128" xunits="pixels" yunits="insetPixels"/>
			</IconStyle>
			<LabelStyle>
			</LabelStyle>
			<LineStyle>
				<color>ff2dc0fb</color>
				<width>2.88</width>
			</LineStyle>
			<PolyStyle>
				<color>40ffffff</color>
			</PolyStyle>
			<BalloonStyle>
			</BalloonStyle>
		</Style>
	</gx:CascadingStyle>
	<gx:CascadingStyle kml:id="__managed_style_079B013EF041B002630C_normal">
		<styleUrl>https://earth.google.com/balloon_components/base/1.1.0.0/card_template.kml#main</styleUrl>
		<Style>
			<IconStyle>
				<Icon>
					<href>https://earth.google.com/earth/document/icon?color=1976d2&amp;id=2000&amp;scale=4</href>
				</Icon>
				<hotSpot x="64" y="128" xunits="pixels" yunits="insetPixels"/>
			</IconStyle>
			<LabelStyle>
			</LabelStyle>
			<LineStyle>
				<color>ff2dc0fb</color>
				<width>1.92</width>
			</LineStyle>
			<PolyStyle>
				<color>40ffffff</color>
			</PolyStyle>
			<BalloonStyle>
			</BalloonStyle>
		</Style>
	</gx:CascadingStyle>
	<StyleMap id="__managed_style_0856C6C13D41B0026307">
		<Pair>
			<key>normal</key>
			<styleUrl>#__managed_style_0856C6C13D41B0026307_normal</styleUrl>
		</Pair>
		<Pair>
			<key>highlight</key>
			<styleUrl>#__managed_style_0856C6C13D41B0026307_highlight</styleUrl>
		</Pair>
	</StyleMap>
	<gx:CascadingStyle kml:id="__managed_style_0856C6C13D41B0026307_highlight">
		<styleUrl>https://earth.google.com/balloon_components/base/1.1.0.0/card_template.kml#main</styleUrl>
		<Style>
			<IconStyle>
				<scale>1.2</scale>
				<Icon>
					<href>https://earth.google.com/earth/document/icon?color=ffff00&amp;id=2000&amp;scale=4</href>
				</Icon>
				<hotSpot x="64" y="128" xunits="pixels" yunits="insetPixels"/>
			</IconStyle>
			<LabelStyle>
			</LabelStyle>
			<LineStyle>
				<color>ff2dc0fb</color>
				<width>3.84</width>
			</LineStyle>
			<PolyStyle>
				<color>40ffffff</color>
			</PolyStyle>
			<BalloonStyle>
			</BalloonStyle>
		</Style>
	</gx:CascadingStyle>
	<StyleMap id="__managed_style_079B013EF041B002630C">
		<Pair>
			<key>normal</key>
			<styleUrl>#__managed_style_079B013EF041B002630C_normal</styleUrl>
		</Pair>
		<Pair>
			<key>highlight</key>
			<styleUrl>#__managed_style_079B013EF041B002630C_highlight</styleUrl>
		</Pair>
	</StyleMap>
	<gx:CascadingStyle kml:id="__managed_style_0856C6C13D41B0026307_normal">
		<styleUrl>https://earth.google.com/balloon_components/base/1.1.0.0/card_template.kml#main</styleUrl>
		<Style>
			<IconStyle>
				<Icon>
					<href>https://earth.google.com/earth/document/icon?color=ffff00&amp;id=2000&amp;scale=4</href>
				</Icon>
				<hotSpot x="64" y="128" xunits="pixels" yunits="insetPixels"/>
			</IconStyle>
			<LabelStyle>
			</LabelStyle>
			<LineStyle>
				<color>ff2dc0fb</color>
				<width>2.56</width>
			</LineStyle>
			<PolyStyle>
				<color>40ffffff</color>
			</PolyStyle>
			<BalloonStyle>
			</BalloonStyle>
		</Style>
	</gx:CascadingStyle>
	<gx:CascadingStyle kml:id="__managed_style_04640A8AD641B04B080E_normal">
		<Style>
			<IconStyle>
				<Icon>
					<href>https://earth.google.com/earth/document/icon?color=1976d2&amp;id=2000&amp;scale=4</href>
				</Icon>
				<hotSpot x="64" y="128" xunits="pixels" yunits="insetPixels"/>
			</IconStyle>
			<LabelStyle>
			</LabelStyle>
			<LineStyle>
				<color>ff000000</color>
				<width>0.768</width>
			</LineStyle>
			<PolyStyle>
				<color>4d000000</color>
			</PolyStyle>
			<BalloonStyle>
				<text><![CDATA[<h3>$[name]</h3>]]></text>
			</BalloonStyle>
		</Style>
	</gx:CascadingStyle>
	<gx:CascadingStyle kml:id="__managed_style_0033ABFE6A41B017FB2C_normal">
		<Style>
			<IconStyle>
				<Icon>
					<href>https://earth.google.com/earth/document/icon?color=1976d2&amp;id=2000&amp;scale=4</href>
				</Icon>
				<hotSpot x="64" y="128" xunits="pixels" yunits="insetPixels"/>
			</IconStyle>
			<LabelStyle>
			</LabelStyle>
			<LineStyle>
				<color>fff5a542</color>
				<width>1.6</width>
			</LineStyle>
			<PolyStyle>
				<color>00000000</color>
			</PolyStyle>
			<BalloonStyle>
			</BalloonStyle>
		</Style>
	</gx:CascadingStyle>
	<gx:CascadingStyle kml:id="__managed_style_04640A8AD641B04B080E_highlight">
		<Style>
			<IconStyle>
				<scale>1.2</scale>
				<Icon>
					<href>https://earth.google.com/earth/document/icon?color=1976d2&amp;id=2000&amp;scale=4</href>
				</Icon>
				<hotSpot x="64" y="128" xunits="pixels" yunits="insetPixels"/>
			</IconStyle>
			<LabelStyle>
			</LabelStyle>
			<LineStyle>
				<color>ff000000</color>
				<width>1.152</width>
			</LineStyle>
			<PolyStyle>
				<color>4d000000</color>
			</PolyStyle>
			<BalloonStyle>
				<text><![CDATA[<h3>$[name]</h3>]]></text>
			</BalloonStyle>
		</Style>
	</gx:CascadingStyle>
	<StyleMap id="__managed_style_03802CB49741B002630E">
		<Pair>
			<key>normal</key>
			<styleUrl>#__managed_style_03802CB49741B002630E_normal</styleUrl>
		</Pair>
		<Pair>
			<key>highlight</key>
			<styleUrl>#__managed_style_03802CB49741B002630E_highlight</styleUrl>
		</Pair>
	</StyleMap>
	<gx:CascadingStyle kml:id="__managed_style_03802CB49741B002630E_highlight">
		<Style>
			<IconStyle>
				<scale>1.2</scale>
				<Icon>
					<href>https://earth.google.com/earth/document/icon?color=1976d2&amp;id=2000&amp;scale=4</href>
				</Icon>
				<hotSpot x="64" y="128" xunits="pixels" yunits="insetPixels"/>
			</IconStyle>
			<LabelStyle>
			</LabelStyle>
			<LineStyle>
				<color>ff2dc0fb</color>
				<width>4.8</width>
			</LineStyle>
			<PolyStyle>
				<color>40ffffff</color>
			</PolyStyle>
			<BalloonStyle>
			</BalloonStyle>
		</Style>
	</gx:CascadingStyle>
	<StyleMap id="__managed_style_0A7051B9BA41B0B0C3A4">
		<Pair>
			<key>normal</key>
			<styleUrl>#__managed_style_0A7051B9BA41B0B0C3A4_normal</styleUrl>
		</Pair>
		<Pair>
			<key>highlight</key>
			<styleUrl>#__managed_style_0A7051B9BA41B0B0C3A4_highlight</styleUrl>
		</Pair>
	</StyleMap>
	<Folder id="5E8DA77CD1000001">
		<name>Dudhsagar Falls - Waterfall and Stream Geometry</name>
		<styleUrl>#__managed_style_03802CB49741B002630E</styleUrl>
		<Placemark id="5E8DA77CD1000003">
			<name>Stream Corridor / Catchment Area (existing trace)</name>
			<description>Broader stream corridor / catchment area traced from satellite imagery. This is NOT the plunge pool itself, but the wider surrounding area.</description>
			<styleUrl>#__managed_style_04640A8AD641B04B080E</styleUrl>
			<Polygon>
				<outerBoundaryIs>
					<LinearRing>
						<coordinates>
							74.3124268,15.317607,0 74.3114011,15.3174927,0 74.31037550000001,15.3175853,0 74.3093283,15.3177193,0 74.30795929999999,15.3181016,0 74.30705159999999,15.3180804,0 74.3062298,15.3178937,0 74.30571305680846,15.31731257354472,0 74.30595164026408,15.31664074942787,0 74.30597949907491,15.31638437165039,0 74.30630770771565,15.31566226618147,0 74.30677667369542,15.31468428721658,0 74.30703551693681,15.31408804840242,0 74.30743384739706,15.31286132716041,0 74.30780828941998,15.31144694913448,0 74.30842032693801,15.31002433917958,0 74.30869473394553,15.30880244763775,0 74.3098383812368,15.30833388647565,0 74.31161685955607,15.3082790105333,0 74.31278477858835,15.30832419084356,0 74.31370525411745,15.30893075227096,0 74.31423566380536,15.30906402601373,0 74.31463887914484,15.30954418723213,0 74.31511184479498,15.31025813121935,0 74.31514882920533,15.31088700109112,0 74.31550876590781,15.31171516477186,0 74.31536970000001,15.3132945,0 74.3155859,15.3140595,0 74.31567339999999,15.3151142,0 74.3153211984943,15.31662737464852,0 74.31524070280167,15.31729582301935,0 74.31476918566632,15.3177872561051,0 74.31417484893734,15.3178745245566,0 74.3124268,15.317607,0 
						</coordinates>
					</LinearRing>
				</outerBoundaryIs>
			</Polygon>
		</Placemark>
		<Placemark id="5E8DA77CD1000004">
			<name>Dudhsagar Falls Railway Bridge</name>
			<LookAt>
				<longitude>74.3144843996851</longitude>
				<latitude>15.31310018691749</latitude>
				<altitude>274.3058736658667</altitude>
				<heading>38.85375395344281</heading>
				<tilt>76.76685242482999</tilt>
				<gx:fovy>35</gx:fovy>
				<range>352.3972965601934</range>
				<altitudeMode>absolute</altitudeMode>
			</LookAt>
			<styleUrl>#__managed_style_0856C6C13D41B0026307</styleUrl>
			<Point>
				<coordinates>74.31409025654749,15.31291834606128,256.2822830172526</coordinates>
			</Point>
		</Placemark>
		<Placemark id="5E8DA77CD1000005">
			<name>Dudhsagar River </name>
			<LookAt>
				<longitude>74.31383943306277</longitude>
				<latitude>15.31195825173327</latitude>
				<altitude>204.775876624339</altitude>
				<heading>38.85362480387388</heading>
				<tilt>0</tilt>
				<gx:fovy>35</gx:fovy>
				<range>176.4437166269272</range>
				<altitudeMode>absolute</altitudeMode>
			</LookAt>
			<styleUrl>#__managed_style_0856C6C13D41B0026307</styleUrl>
			<Point>
				<coordinates>74.31395116856095,15.311903493536,204.7918211151205</coordinates>
			</Point>
		</Placemark>
		<Placemark id="5E8DA77CD1000006">
			<name>South Western Railway Officers Inspection Cottage</name>
			<LookAt>
				<longitude>74.31382695603448</longitude>
				<latitude>15.3132152271744</latitude>
				<altitude>265.9290873853437</altitude>
				<heading>38.85383408472834</heading>
				<tilt>0</tilt>
				<gx:fovy>35</gx:fovy>
				<range>127.9971567619577</range>
				<altitudeMode>absolute</altitudeMode>
			</LookAt>
			<styleUrl>#__managed_style_0856C6C13D41B0026307</styleUrl>
			<Point>
				<coordinates>74.31381718025629,15.31312981644028,262.4473971851813</coordinates>
			</Point>
		</Placemark>
		<Placemark id="5E8DA77CD1000007">
			<name>Sree Chimpeswary Temple</name>
			<LookAt>
				<longitude>74.31172494026359</longitude>
				<latitude>15.31248909759031</latitude>
				<altitude>289.4251057572671</altitude>
				<heading>38.85291681653721</heading>
				<tilt>0</tilt>
				<gx:fovy>35</gx:fovy>
				<range>752.2073856987117</range>
				<altitudeMode>absolute</altitudeMode>
			</LookAt>
			<styleUrl>#__managed_style_0856C6C13D41B0026307</styleUrl>
			<Point>
				<coordinates>74.31102056216007,15.31187928158909,279.8080502764952</coordinates>
			</Point>
		</Placemark>
		<Placemark id="5E8DA77CD1000008">
			<name>Cave dhudhsagar</name>
			<LookAt>
				<longitude>74.3096012717881</longitude>
				<latitude>15.31289705936192</latitude>
				<altitude>346.8408883492983</altitude>
				<heading>39.03096711514614</heading>
				<tilt>3.498579875547225</tilt>
				<gx:fovy>35</gx:fovy>
				<range>1197.418753099919</range>
				<altitudeMode>absolute</altitudeMode>
			</LookAt>
			<styleUrl>#__managed_style_0856C6C13D41B0026307</styleUrl>
			<Point>
				<coordinates>74.30882706311056,15.31269032716735,280.3267541097161</coordinates>
			</Point>
		</Placemark>
		<Placemark id="5E8DA77CD1000009">
			<name>Dudhsagar railway station</name>
			<LookAt>
				<longitude>74.30694456340944</longitude>
				<latitude>15.31642007453714</latitude>
				<altitude>307.1316429665581</altitude>
				<heading>39.03093295582733</heading>
				<tilt>3.498066000281907</tilt>
				<gx:fovy>35</gx:fovy>
				<range>260.828164113591</range>
				<altitudeMode>absolute</altitudeMode>
			</LookAt>
			<styleUrl>#__managed_style_0856C6C13D41B0026307</styleUrl>
			<Point>
				<coordinates>74.30653724383428,15.31634021938565,282.9836579016181</coordinates>
			</Point>
		</Placemark>
		<Placemark id="5E8DA77CD100000A">
			<name>Dudhsagar Railway Track</name>
			<LookAt>
				<longitude>74.30665120530041</longitude>
				<latitude>15.31749412056607</latitude>
				<altitude>293.6117991599897</altitude>
				<heading>39.7478158381167</heading>
				<tilt>18.50491577163685</tilt>
				<gx:fovy>35</gx:fovy>
				<range>652.3671414997807</range>
				<altitudeMode>absolute</altitudeMode>
			</LookAt>
			<styleUrl>#__managed_style_079B013EF041B002630C</styleUrl>
			<LineString>
				<coordinates>
					74.31487756630656,15.31253853527908,0 74.31459095365322,15.31272688008385,0 74.31404956982558,15.31293476228959,0 74.31354213935292,15.313004371827,0 74.31298778446778,15.31293134535293,0 74.31249567862974,15.31275963856045,0 74.31203275864364,15.312488870404,0 74.31161280129827,15.31220790333713,0 74.31123157482014,15.31207216736711,0 74.31085262202608,15.3119596836626,0 74.31032291310444,15.31189884049498,0 74.30980881138744,15.31191106034584,0 74.30938668606994,15.31213047950865,0 74.30905711164394,15.31240738310528,0 74.30874286453495,15.31276217722531,0 74.30849167550434,15.31315191415902,0 74.30824251287511,15.31359310150074,0 74.3080806863165,15.31394202267792,0 74.30788439288126,15.31435017014092,0 74.30763839064132,15.31480788704331,0 74.30735386800896,15.31517101178875,0 74.30707861374935,15.31554570339978,0 74.30679082103366,15.31593856042955,0 74.30655506191866,15.31633144457391,0 74.30645201654593,15.31675916621947,0 74.30641813877453,15.31708456159494,0 74.30641144063046,15.31737850349142,0 74.30638217726744,15.31788006510999,0 
				</coordinates>
			</LineString>
		</Placemark>
		<Placemark id="0CFF153FAE41B0B0C384">
			<name>Dudhsagar Parking</name>
			<LookAt>
				<longitude>74.31387855071601</longitude>
				<latitude>15.30923440272982</latitude>
				<altitude>198.7317372119687</altitude>
				<heading>69.88812863506455</heading>
				<tilt>59.99918528692195</tilt>
				<gx:fovy>35</gx:fovy>
				<range>256.1605200889244</range>
				<altitudeMode>absolute</altitudeMode>
			</LookAt>
			<styleUrl>#__managed_style_0A7051B9BA41B0B0C3A4</styleUrl>
			<Point>
				<coordinates>74.31348043933201,15.30900789085483,194.8575325120445</coordinates>
			</Point>
		</Placemark>
		<Placemark id="0FCEA3058541B0CC13EC">
			<name>P1</name>
			<LookAt>
				<longitude>74.3087374938678</longitude>
				<latitude>15.30904392964361</latitude>
				<altitude>0</altitude>
				<heading>297.8423551638849</heading>
				<tilt>0</tilt>
				<gx:fovy>35</gx:fovy>
				<range>228.9401323440657</range>
				<altitudeMode>absolute</altitudeMode>
			</LookAt>
			<styleUrl>#__managed_style_0D42CAF61741B05A82F9</styleUrl>
			<LineString>
				<coordinates>
					74.31340246925529,15.30900390155849,0 74.31318958145373,15.30915095381797,0 74.31303274305988,15.30926945036396,0 74.31287253854789,15.30926111639641,0 74.31268907476725,15.30925488923675,0 74.31252838514042,15.30923545096574,0 74.31234714050424,15.30915412488038,0 74.31207585932822,15.30903960104785,0 74.31181927721572,15.30890964083367,0 74.31160150489772,15.30880289779635,0 74.31142805782478,15.30872052607629,0 74.31122540427302,15.30868718106686,0 74.31095834034835,15.30864396622793,0 74.31083724387288,15.30863025133814,0 74.31065216820984,15.30865055339757,0 74.31044988081065,15.30865828204399,0 74.31015589266939,15.30868711728543,0 74.31009106797923,15.30868457235134,0 74.30989813131595,15.30876863633102,0 74.30960689706336,15.30889138919062,0 74.30934430280115,15.30899102047366,0 74.30913390041994,15.30907096795869,0 74.30894510710256,15.30915300366637,0 74.30880122015344,15.30921350087223,0 74.30858652249782,15.30929015284535,0 
				</coordinates>
			</LineString>
		</Placemark>
	</Folder>
	<Placemark id="5E8DA77CD100000D">
		<name>Dudhsagara Waterfall Camp Site</name>
		<LookAt>
			<longitude>74.31417798454363</longitude>
			<latitude>15.31307170398131</latitude>
			<altitude>262.3589573679375</altitude>
			<heading>0</heading>
			<tilt>0</tilt>
			<gx:fovy>35</gx:fovy>
			<range>312.5798032920648</range>
			<altitudeMode>absolute</altitudeMode>
		</LookAt>
		<styleUrl>#__managed_style_0856C6C13D41B0026307</styleUrl>
		<Point>
			<coordinates>74.31439043852282,15.31271527921309,258.9184223962531</coordinates>
		</Point>
	</Placemark>
	<Placemark id="070063F10A41B0100B4C">
		<name>waterfall boundary</name>
		<LookAt>
			<longitude>74.31379129965993</longitude>
			<latitude>15.31314717568925</latitude>
			<altitude>263.7604344433718</altitude>
			<heading>-6.266477946360999</heading>
			<tilt>27.95509218073305</tilt>
			<gx:fovy>35</gx:fovy>
			<range>667.3812658786483</range>
			<altitudeMode>absolute</altitudeMode>
		</LookAt>
		<styleUrl>#__managed_style_0033ABFE6A41B017FB2C</styleUrl>
		<Polygon>
			<outerBoundaryIs>
				<LinearRing>
					<coordinates>
						74.31458342338834,15.31780902926405,0 74.31461281078046,15.31701134550638,0 74.31465512699499,15.31627639913751,0 74.31444621474067,15.3160019004621,0 74.31425620495992,15.31588619787698,0 74.31408748620456,15.31577152835638,0 74.31387964005147,15.31562768450713,0 74.31369443521862,15.31544599498903,0 74.31365988078595,15.31520407724012,0 74.31366184925082,15.31497364936984,0 74.31376083870192,15.31471816721984,0 74.31391142347188,15.31442231175456,0 74.31398964195677,15.31403075801308,0 74.31403177027616,15.31386181248901,0 74.31401813350581,15.3136568526307,0 74.31398362724626,15.31352352435862,0 74.31399164742641,15.31339593278851,0 74.31397355599348,15.31328412000732,0 74.31393785055586,15.31312949063934,0 74.31396159359323,15.31281790329991,0 74.31395384926834,15.31257559564581,0 74.31395210129925,15.31243979273112,0 74.31389936944791,15.31230400639838,0 74.31366794837714,15.31210918845004,0 74.31360555995479,15.31195785228313,0 74.31377925739331,15.31179217010248,0 74.31381809776352,15.3116393251143,0 74.3137774772883,15.31155802003505,0 74.31377681752086,15.31145085629556,0 74.31384310281946,15.31119417909216,0 74.3138619465267,15.31100508960797,0 74.31389646663089,15.31083603716137,0 74.3138919304705,15.31068331464745,0 74.31399355447721,15.31050493253415,0 74.31394176774799,15.31030677436803,0 74.31386349428161,15.31011562208591,0 74.31348162785663,15.30967154336309,0 74.31342447496378,15.30954353288243,0 74.31328070582279,15.3094901316142,0 74.31285764953989,15.3093880237393,0 74.31253123926825,15.30933571737565,0 74.31225009444915,15.30912162503853,0 74.31199795994689,15.30897517711995,0 74.3116052094983,15.30883166012208,0 74.31126872337192,15.30869113758037,0 74.31088654227602,15.30875400425058,0 74.31066672785656,15.30879787594382,0 74.31052456357627,15.30878926548094,0 74.31021889495301,15.30872924090324,0 74.3098073485893,15.30881657936195,0 74.30919879112085,15.30900468798356,0 74.30903110228346,15.30907351357426,0 74.30889247849883,15.30913247417985,0 74.30859224057663,15.30926107919541,0 74.30861305586166,15.30919311705502,0 74.30887809787181,15.30907722599378,0 74.30901592737725,15.30902045624618,0 74.30914927019748,15.30895848534366,0 74.30955210043473,15.30883866593507,0 74.31003440869563,15.30865704106054,0 74.31048030785722,15.3086968995794,0 74.31070434633055,15.30872574689884,0 74.31084093615054,15.30870051787151,0 74.31110104439475,15.30860877394115,0 74.31138156868143,15.30862594030618,0 74.31188800538933,15.30884959186175,0 74.3123759399368,15.309089127986,0 74.31257799744336,15.30926298285449,0 74.31286812402077,15.30929936527458,0 74.31310261389827,15.30934156851336,0 74.31346719087242,15.30943624638353,0 74.31359806417002,15.30963772053721,0 74.31369428132474,15.30976604697133,0 74.31389872307635,15.30993332881918,0 74.31399386896526,15.31008219024706,0 74.31407841389739,15.31027787432908,0 74.31414385611194,15.31049124134482,0 74.31411906010649,15.31060871775584,0 74.31399044353424,15.31071039058068,0 74.31401052791064,15.31084131383367,0 74.31400132479487,15.31099677840126,0 74.31398599101213,15.31115509219386,0 74.31394432395874,15.31134386030708,0 74.31391746724411,15.31150935102217,0 74.31398392101825,15.31159322185562,0 74.31408296635259,15.31168562532731,0 74.31414168500874,15.3117275527504,0 74.31419945956677,15.3118318515937,0 74.31410590370506,15.31203016390204,0 74.31407167275515,15.31222566833291,0 74.31409050374485,15.31239550464473,0 74.31410691143952,15.31256821115487,0 74.31409427049839,15.31279995626207,0 74.31414589121397,15.3130091208573,0 74.31415550871566,15.31307751227117,0 74.31414856073422,15.31318456866214,0 74.31419879912372,15.3133342651036,0 74.31441387857976,15.31355307185635,0 74.3146960862142,15.31373408471271,0 74.3148193960352,15.31380905608957,0 74.31490453564828,15.31441795449105,0 74.31493890919482,15.31466063715015,0 74.31493709235599,15.3148308842078,0 74.31474069442562,15.31513710409585,0 74.31461140811787,15.31528280384697,0 74.31460229343972,15.31553294730779,0 74.31458453836164,15.31575067591305,0 74.31461266944201,15.31600354565175,0 74.31471496565244,15.31613269142254,0 74.31476806398946,15.31630587953311,0 74.31478046360384,15.31654238155632,0 74.3147652575235,15.31674253155756,0 74.31474971787482,15.31696469470474,0 74.314716799587,15.31749384788868,0 74.31470901826542,15.31765593789546,0 74.31471911335466,15.31779332605181,0 74.31466689055,15.31779956590989,0 74.31458342338834,15.31780902926405,0 
					</coordinates>
				</LinearRing>
			</outerBoundaryIs>
		</Polygon>
	</Placemark>
	<Placemark id="06B7EA85DE41B05C5FEE">
		<name>Main Falls Area </name>
		<LookAt>
			<longitude>74.31415107302867</longitude>
			<latitude>15.31316993450945</latitude>
			<altitude>266.8034817457282</altitude>
			<heading>69.88851033620031</heading>
			<tilt>59.99969163686376</tilt>
			<gx:fovy>35</gx:fovy>
			<range>321.1816825648566</range>
			<altitudeMode>absolute</altitudeMode>
		</LookAt>
		<styleUrl>#__managed_style_05A52D566741B05CB4A4</styleUrl>
		<Point>
			<coordinates>74.31401199418724,15.31321534674163,266.5998387771217</coordinates>
		</Point>
	</Placemark>
	<Placemark id="0EED37277D41B0D54AAE">
		<name>Dudhsagar Watchtower</name>
		<LookAt>
			<longitude>74.31323564006262</longitude>
			<latitude>15.30890574790646</latitude>
			<altitude>194.4954857956251</altitude>
			<heading>48.47110461439129</heading>
			<tilt>0</tilt>
			<gx:fovy>35</gx:fovy>
			<range>169.5896021778572</range>
			<altitudeMode>absolute</altitudeMode>
		</LookAt>
		<styleUrl>#__managed_style_05A52D566741B05CB4A4</styleUrl>
		<Point>
			<coordinates>74.31305295540295,15.30926916261206,184.923185611308</coordinates>
		</Point>
	</Placemark>
	<Placemark id="08BFC5B3DE41B0E0C6BF">
		<name>P2</name>
		<LookAt>
			<longitude>74.31378722616115</longitude>
			<latitude>15.31173742680514</latitude>
			<altitude>201.0427776458587</altitude>
			<heading>23.62872559629507</heading>
			<tilt>0</tilt>
			<gx:fovy>35.00000000000001</gx:fovy>
			<range>234.194343359927</range>
			<altitudeMode>absolute</altitudeMode>
		</LookAt>
		<styleUrl>#__managed_style_0D42CAF61741B05A82F9</styleUrl>
		<LineString>
			<coordinates>
				74.3125321959178,15.30923895703405,0 74.31253864423735,15.3094426181911,0 74.31260935205459,15.30949078516084,0 74.3126992317266,15.30960723813986,0 74.312776037527,15.30970970903117,0 74.31285885352008,15.30980314368904,0 74.31292814663067,15.3099039095158,0 74.3130155589445,15.3100149055812,0 74.31306732354183,15.31008090009725,0 74.31314396451197,15.31015846873474,0 74.31326567054946,15.31027449487173,0 74.31330190816404,15.31032095616099,0 74.31346029535538,15.31038412805096,0 74.31363512251042,15.3104501131988,0 74.31370931407326,15.31061232727981,0 74.31379327882689,15.31080115575221,0 74.31379743030857,15.31102203695183,0 74.3137976368007,15.31114437957625,0 74.31380373389942,15.31127668670351,0 74.31376166018181,15.311417944392,0 74.31373160785361,15.31148912723692,0 74.31373487627918,15.31164862874222,0 74.31373779088887,15.31181477986021,0 74.31373151475846,15.31186780494255,0 
			</coordinates>
		</LineString>
	</Placemark>
</Document>
</kml>
